{
"type": "FeatureCollection",
"name": "arhivi",
"crs": { "type": "name", "properties": { "name": "urn:ogc:def:crs:OGC:1.3:CRS84" } },
"features": [
{ "type": "Feature", "properties": { "amenity": "archive", "name": "Архив Војводине", "name:sr": "Архив Војводине", "name:sr-Latn": "Arhiv Vojvodine", "name:en": "Archive of Vojvodina", "name:ru": "Архив Воеводины Нови-Сад", "name:zh": "诺维萨德伏伊伏丁那档案馆", "email": "info@arhivvojvodine.org.rs", "phone": "+381 4891 800", "website": "www.arhivvojvodine.org.rs", "addr:street": "Жарка Васиљевића", "addr:housenumber": "2а", "ref:RS:uk": 20165 }, "geometry": { "type": "Point", "coordinates": [ 19.85205, 45.25698 ] } },
{ "type": "Feature", "properties": { "amenity": "archive", "name": "Архив Југославије", "name:sr": "Архив Југославије", "name:sr-Latn": "Arhiv Jugoslavije", "name:en": "Archives of Yugoslavia", "name:ru": "Архив Югославии", "name:zh": "南斯拉夫档案馆", "email": "arhivyu@arhivyu.rs", "phone": "+381 3690 252; +381 113691 661", "website": "www.arhivyu.gov.rs", "addr:street": "Васе Пелагића", "addr:housenumber": "33", "ref:RS:uk": 20183 }, "geometry": { "type": "Point", "coordinates": [ 20.44109, 44.78917 ] } },
{ "type": "Feature", "properties": { "amenity": "archive", "name": "Архив Југословенске кинотеке", "name:sr": "Архив Југословенске кинотеке", "name:sr-Latn": "Arhiv Jugoslovenske kinoteke", "name:en": "Yugoslav Film Archives", "name:ru": "Архив Югославской кинотеки", "name:zh": "南斯拉夫电影档案馆", "email": "kinoteka@kinoteka.org.rs", "phone": "+381 3549 794; +381 113549 863; +381 063 1075 518", "website": "www.kinoteka.org.rs", "addr:street": "Кнеза Вишеслава", "addr:housenumber": "88", "ref:RS:uk": 22008 }, "geometry": { "type": "Point", "coordinates": [ 20.43479, 44.75501 ] } },
{ "type": "Feature", "properties": { "amenity": "archive", "name": "Архив Косова и Метохије", "name:sr": "Архив Косова и Метохије", "name:sr-Latn": "Arhiv Kosova i Metohije", "name:en": "Archive of Kosovo and Metohija", "name:ru": "Архив Косово и Метохии", "name:zh": "科索沃与梅托希亚档案馆", "email": null, "phone": null, "website": null, "addr:street": "Тврђава", "addr:housenumber": "2", "ref:RS:uk": 20179 }, "geometry": { "type": "Point", "coordinates": [ 21.89539, 43.32379 ] } },
{ "type": "Feature", "properties": { "amenity": "archive", "name": "Државни архив Србије", "name:sr": "Државни архив Србије", "name:sr-Latn": "Državni arhiv Srbije", "name:en": "Archive of Serbia", "name:ru": "Архив Сербии", "name:zh": "塞尔维亚档案馆", "email": "office@archives.org.rs", "phone": "+381 3370 781", "website": "www.arhivsrbije.rs", "addr:street": "Карнегијева", "addr:housenumber": "2", "ref:RS:uk": 20167 }, "geometry": { "type": "Point", "coordinates": [ 20.47504, 44.80687 ] } },
{ "type": "Feature", "properties": { "amenity": "archive", "name": "Историјски архив - Történelmi Levéltár Сента", "name:sr": "Историјски архив - Történelmi Levéltár Сента", "name:sr-Latn": "Istorijski arhiv - Történelmi Levéltár Senta", "name:en": "Historical Archive of Senta", "name:ru": "Исторический архив - Történelmi Levéltár Сента", "name:zh": "森塔历史档案馆", "email": "zentarhiv@gmail.com", "phone": "+381 811 037", "website": "www.zentarhiv.rs", "addr:street": "Главни трг", "addr:housenumber": "1/II", "ref:RS:uk": 20177 }, "geometry": { "type": "Point", "coordinates": [ 20.08911, 45.93088 ] } },
{ "type": "Feature", "properties": { "amenity": "archive", "name": "Историјски архив „31. јануар” Врање", "name:sr": "Историјски архив „31. јануар” Врање", "name:sr-Latn": "Istorijski arhiv „31. januar” Vranje", "name:en": "Historical Archive “31. Januar” Vranje", "name:ru": "Исторический архив „31 января” Вране", "name:zh": "弗拉涅一月三十一号历史档案馆", "email": "istarhivvr@gmail.com", "phone": "+381 417 042", "website": "www.vranjearhiv.com", "addr:street": "Партизанска", "addr:housenumber": "17а", "ref:RS:uk": 20175 }, "geometry": { "type": "Point", "coordinates": [ 21.8966, 42.55255 ] } },
{ "type": "Feature", "properties": { "amenity": "archive", "name": "Историјски архив „Рас” Нови Пазар", "name:sr": "Историјски архив „Рас” Нови Пазар", "name:sr-Latn": "Istorijski arhiv „Ras” Novi Pazar", "name:en": "Historical Archive \"Ras\" Novi Pazar", "name:ru": "Исторический архив „Рас” Нови-Пазар", "name:zh": "新帕扎尔”拉斯“历史档案馆", "email": "arhivrasnovipazar@gmail.com", "phone": "+381 318 282", "website": "www.arhivrasnovipazar.com", "addr:street": "Ослобођења", "addr:housenumber": "41", "ref:RS:uk": 20180 }, "geometry": { "type": "Point", "coordinates": [ 20.5178, 43.13523 ] } },
{ "type": "Feature", "properties": { "amenity": "archive", "name": "Историјски архив „Средње Поморавље” Јагодина", "name:sr": "Историјски архив „Средње Поморавље” Јагодина", "name:sr-Latn": "Istorijski arhiv „Srednje Pomoravlje” Jagodina", "name:en": "Historical Archive of Jagodina", "name:ru": "Исторический архив Ягодина", "name:zh": "雅戈蒂那历史档案馆", "email": "info@arhivja.org.rs", "phone": "+381 223 506; +381 35242 059", "website": "www.arhivja.org.rs", "addr:street": "Милана Мијалковића", "addr:housenumber": "14", "ref:RS:uk": 20181 }, "geometry": { "type": "Point", "coordinates": [ 21.25514, 43.97734 ] } },
{ "type": "Feature", "properties": { "amenity": "archive", "name": "Историјски архив „Срем”, Сремска Митровица", "name:sr": "Историјски архив „Срем”, Сремска Митровица", "name:sr-Latn": "Istorijski arhiv „Srem”, Sremska Mitrovica", "name:en": "Historical Archive “Srem” Sremska Mitrovica", "name:ru": "Исторический архив „Срем” Сремска-Митровица", "name:zh": "斯雷姆斯卡米特洛维察”斯雷姆“历史档案馆", "email": "info@arhivsrem.org.rs", "phone": "+381 625 393; +381 22613 592", "website": "www.arhivsrem.org.rs", "addr:street": "Вука Караџића", "addr:housenumber": "4", "ref:RS:uk": 20172 }, "geometry": { "type": "Point", "coordinates": [ 19.60789, 44.96715 ] } },
{ "type": "Feature", "properties": { "amenity": "archive", "name": "Историјски архив „Тимочка крајина” Зајечар", "name:sr": "Историјски архив „Тимочка крајина” Зајечар", "name:sr-Latn": "Istorijski arhiv „Timočka krajina” Zaječar", "name:en": "Historical Archive “Timočka Krajina” Zaječar", "name:ru": "Исторический архив „Тимочка краина” (Тимокский край) Заечар", "name:zh": "扎耶查尔“蒂莫池卡克拉伊那”历史档案馆", "email": "arhivzaj@mts.rs", "phone": "+381 420 285", "website": "www.arhivzajecar.org.rs", "addr:street": "Николе Пашића", "addr:housenumber": "160", "ref:RS:uk": 20195 }, "geometry": { "type": "Point", "coordinates": [ 22.27092, 43.90256 ] } },
{ "type": "Feature", "properties": { "amenity": "archive", "name": "Историјски архив „Топлице” Прокупље", "name:sr": "Историјски архив „Топлице” Прокупље", "name:sr-Latn": "Istorijski arhiv „Toplice” Prokuplje", "name:en": "Historical Archive of Prokuplje", "name:ru": "Исторический архив „Топлица” Прокупле", "name:zh": "普罗库普列“托普利查”历史档案馆", "email": "arhiv@prokuplje.org.rs", "phone": "+381 329 546; +381 18329 646", "website": "www.arhivtoplice.org.rs", "addr:street": "Пасјачка", "addr:housenumber": "2", "ref:RS:uk": 20164 }, "geometry": { "type": "Point", "coordinates": [ 21.5916, 43.22718 ] } },
{ "type": "Feature", "properties": { "amenity": "archive", "name": "Историјски архив Бела Црква", "name:sr": "Историјски архив Бела Црква", "name:sr-Latn": "Istorijski arhiv Bela Crkva", "name:en": "Historical Archive of Bela Crkva", "name:ru": "Исторический архив Бела-Црква", "name:zh": "贝拉策尔克瓦历史档案馆", "email": "iarhivbc@gmail.com", "phone": "+381 851 283", "website": "www.arhivbelacrkva.rs", "addr:street": "Првог октобра", "addr:housenumber": "40", "ref:RS:uk": 20162 }, "geometry": { "type": "Point", "coordinates": [ 21.42454, 44.90336 ] } },
{ "type": "Feature", "properties": { "amenity": "archive", "name": "Историјски архив Београда", "name:sr": "Историјски архив Београда", "name:sr-Latn": "Istorijski arhiv Beograda", "name:en": "Historical Archive of Belgrade", "name:ru": "Исторический архив Белграда", "name:zh": "贝尔格莱德历史档案馆", "email": "office@arhiv-beograda.org", "phone": "+381 2606 336; +381 113015 150", "website": "www.arhiv-beograda.org", "addr:street": "Палмира Тољатија", "addr:housenumber": "1", "ref:RS:uk": 20185 }, "geometry": { "type": "Point", "coordinates": [ 20.41344, 44.82602 ] } },
{ "type": "Feature", "properties": { "amenity": "archive", "name": "Историјски архив Бор", "name:sr": "Историјски архив Бор", "name:sr-Latn": "Istorijski arhiv Bor", "name:en": "Historical Archive of Bor", "name:ru": "Исторический архив Бор", "name:zh": "波尔历史档案馆", "email": null, "phone": "+381 421 365", "website": null, "addr:street": "Војске Југославије", "addr:housenumber": "18", "ref:RS:uk": 20182 }, "geometry": { "type": "Point", "coordinates": [ 22.09545, 44.08317 ] } },
{ "type": "Feature", "properties": { "amenity": "archive", "name": "Историјски архив Гњилане", "name:sr": "Историјски архив Гњилане", "name:sr-Latn": "Istorijski arhiv Gnjilane", "name:en": "Historical Archive of Gnjilane", "name:ru": "Исторический архив Гнилане", "name:zh": "格尼拉奈历史档案馆", "email": "paune@medianis.net", "phone": null, "website": null, "addr:street": "Лоле Рибара", "addr:housenumber": "4/8", "ref:RS:uk": 20190 }, "geometry": { "type": "Point", "coordinates": [ 21.60098, 43.23936 ] } },
{ "type": "Feature", "properties": { "amenity": "archive", "name": "Историјски архив Града Новог Сада", "name:sr": "Историјски архив Града Новог Сада", "name:sr-Latn": "Istorijski arhiv Grada Novog Sada", "name:en": "Historical Archive of Novi Sad", "name:ru": "Исторический архив Нови-Сад", "name:zh": "诺维萨德历史档案馆", "email": "arhivns@neobee.net", "phone": "+381 6432 214; +381 216431 752; +381 216431 557; +381 216433 505", "website": "www.arhivns.rs", "addr:street": "Филипа Вишњића", "addr:housenumber": "2а", "ref:RS:uk": 20186 }, "geometry": { "type": "Point", "coordinates": [ 19.85193, 45.26244 ] } },
{ "type": "Feature", "properties": { "amenity": "archive", "name": "Историјски архив Зрењанин", "name:sr": "Историјски архив Зрењанин", "name:sr-Latn": "Istorijski arhiv Zrenjanin", "name:en": "Historical Archive of Zrenjanin", "name:ru": "Исторический архив Зренянин", "name:zh": "兹雷尼亚宁历史档案馆", "email": "arhivzrenjanin@gmail.com", "phone": "+381 564 322; +381 23510 925", "website": "www.arhivzrenjanin.org.rs", "addr:street": "Трг Слободе", "addr:housenumber": "10", "ref:RS:uk": 20174 }, "geometry": { "type": "Point", "coordinates": [ 20.38969, 45.38037 ] } },
{ "type": "Feature", "properties": { "amenity": "archive", "name": "Историјски архив Кикинда", "name:sr": "Историјски архив Кикинда", "name:sr-Latn": "Istorijski arhiv Kikinda", "name:en": "Historical Archive of Kikinda", "name:ru": "Исторический архив Кикинда", "name:zh": "基金达历史档案馆", "email": "arhivkikinda@gmail.com", "phone": "+381 422 187", "website": "www.arhivkikinda.org.rs", "addr:street": "Трг српских добровољаца", "addr:housenumber": "21", "ref:RS:uk": 20169 }, "geometry": { "type": "Point", "coordinates": [ 20.46493, 45.83038 ] } },
{ "type": "Feature", "properties": { "amenity": "archive", "name": "Историјски архив Крушевац", "name:sr": "Историјски архив Крушевац", "name:sr-Latn": "Istorijski arhiv Kruševac", "name:en": "Historical Archive of Kruševac", "name:ru": "Исторический архив Крушевац", "name:zh": "克鲁舍瓦茨历史档案馆", "email": "istor_arhiv_ks@ptt.rs", "phone": "+381 420 595; +381 37420 590; +381 37448 260", "website": null, "addr:street": "Мајке Југовића", "addr:housenumber": "6", "ref:RS:uk": 20173 }, "geometry": { "type": "Point", "coordinates": [ 21.32577, 43.58175 ] } },
{ "type": "Feature", "properties": { "amenity": "archive", "name": "Историјски архив Лесковац", "name:sr": "Историјски архив Лесковац", "name:sr-Latn": "Istorijski arhiv Leskovac", "name:en": "Historical Archive of Leskovac", "name:ru": "Исторический архив Лесковац", "name:zh": "莱斯科瓦茨历史档案馆", "email": "arhivle@ptt.rs", "phone": "+381 216 996", "website": "www.istorijskiarhivleskovac.co.rs", "addr:street": "Др Раде Свилара", "addr:housenumber": "25", "ref:RS:uk": 20187 }, "geometry": { "type": "Point", "coordinates": [ 21.93921, 42.99369 ] } },
{ "type": "Feature", "properties": { "amenity": "archive", "name": "Историјски архив Неготин", "name:sr": "Историјски архив Неготин", "name:sr-Latn": "Istorijski arhiv Negotin", "name:en": "Historical Archive of Negotin", "name:ru": "Исторический архив Неготин", "name:zh": "内戈廷历史档案馆", "email": "arhivnegotin@mts.rs", "phone": "+381 546 098", "website": "www.arhivnegotin.org.rs", "addr:street": "Бранка Перића", "addr:housenumber": "13", "ref:RS:uk": 20193 }, "geometry": { "type": "Point", "coordinates": [ 22.52947, 44.22346 ] } },
{ "type": "Feature", "properties": { "amenity": "archive", "name": "Историјски архив Ниш", "name:sr": "Историјски архив Ниш", "name:sr-Latn": "Istorijski arhiv Niš", "name:en": "Historical Archive of Niš", "name:ru": "Исторический архив Ниш", "name:zh": "尼什历史档案馆", "email": "arhivnis@mts.rs", "phone": "+381 515 608", "website": "www.arhivnis.co.rs", "addr:street": "Тврђава", "addr:housenumber": "2", "ref:RS:uk": 20178 }, "geometry": { "type": "Point", "coordinates": [ 21.89539, 43.32379 ] } },
{ "type": "Feature", "properties": { "amenity": "archive", "name": "Историјски архив Пожаревац", "name:sr": "Историјски архив Пожаревац", "name:sr-Latn": "Istorijski arhiv Požarevac", "name:en": "Historical Archive of Požarevac", "name:ru": "Исторический архив Пожаревац", "name:zh": "波扎莱瓦茨历史档案馆", "email": "info@arhivpozarevac.org.rs", "phone": "+381 223 082", "website": "www.arhivpozarevac.org.rs", "addr:street": "др Војислава Дулића", "addr:housenumber": "10", "ref:RS:uk": 20189 }, "geometry": { "type": "Point", "coordinates": [ 21.18676, 44.62186 ] } },
{ "type": "Feature", "properties": { "amenity": "archive", "name": "Историјски архив Сомбор", "name:sr": "Историјски архив Сомбор", "name:sr-Latn": "Istorijski arhiv Sombor", "name:en": "Historical Archive of Sombor", "name:ru": "Исторический архив Сомбор", "name:zh": "松博尔历史档案馆", "email": "info@arhivsombor.org.rs", "phone": "+381 412 287; +381 25416 292", "website": "www.arhivsombor.org.rs", "addr:street": "Трг Цара Лазара", "addr:housenumber": "7", "ref:RS:uk": 20163 }, "geometry": { "type": "Point", "coordinates": [ 19.11286, 45.77309 ] } },
{ "type": "Feature", "properties": { "amenity": "archive", "name": "Историјски архив Суботица", "name:sr": "Историјски архив Суботица", "name:sr-Latn": "Istorijski arhiv Subotica", "name:en": "Historical Archive of Subotica", "name:ru": "Исторический архив Суботица", "name:zh": "苏博蒂察历史档案馆", "email": "info@suarhiv.co.rs", "phone": "+381 626 889; +381 24524 033", "website": "www.suarhiv.co.rs", "addr:street": "Трг слободе", "addr:housenumber": "1/III", "ref:RS:uk": 20166 }, "geometry": { "type": "Point", "coordinates": [ 19.66469, 46.09952 ] } },
{ "type": "Feature", "properties": { "amenity": "archive", "name": "Историјски архив Трстеник", "name:sr": "Историјски архив Трстеник", "name:sr-Latn": "Istorijski arhiv Trstenik", "name:en": "Historical Archive of Trstenik", "name:ru": "Исторический архив Трстеник", "name:zh": "特尔斯特尼克历史档案馆", "email": null, "phone": "+381 712 316", "website": null, "addr:street": "Кнегиње Милице", "addr:housenumber": "бб", "ref:RS:uk": 20198 }, "geometry": { "type": "Point", "coordinates": [ 20.99836, 43.61968 ] } },
{ "type": "Feature", "properties": { "amenity": "archive", "name": "Историјски архив у Панчеву", "name:sr": "Историјски архив у Панчеву", "name:sr-Latn": "Istorijski arhiv u Pančevu", "name:en": "Historical Archive of Pančevo", "name:ru": "Исторический архив Панчево", "name:zh": "潘切沃历史档案馆", "email": "arhivd@panet.rs", "phone": "+381 331 240; +381 13317 344; +381 13318 421", "website": "www.arhivpancevo.org.rs", "addr:street": "Немањина", "addr:housenumber": "7", "ref:RS:uk": 20170 }, "geometry": { "type": "Point", "coordinates": [ 20.64829, 44.87265 ] } },
{ "type": "Feature", "properties": { "amenity": "archive", "name": "Историјски архив у Пироту", "name:sr": "Историјски архив у Пироту", "name:sr-Latn": "Istorijski arhiv u Pirotu", "name:en": "Historical Archive of Pirot", "name:ru": "Исторический архив Пирот", "name:zh": "皮洛特历史档案馆", "email": "iapirot@medianis.net", "phone": "+381 320 952; +381 10310 592", "website": "www.arhivpirot.rs", "addr:street": "Српских владара", "addr:housenumber": "130", "ref:RS:uk": 20192 }, "geometry": { "type": "Point", "coordinates": [ 22.58855, 43.15184 ] } },
{ "type": "Feature", "properties": { "amenity": "archive", "name": "Историјски архив у Смедереву", "name:sr": "Историјски архив у Смедереву", "name:sr-Latn": "Istorijski arhiv u Smederevu", "name:en": "Historical Archive of Smederevo", "name:ru": "Исторический архив Смедерево", "name:zh": "斯梅代雷沃历史档案馆", "email": "kontakt@arhiv.org.rs", "phone": "+381 4629 279", "website": "arhiv.org.rs", "addr:street": "Краља Петра Првог", "addr:housenumber": "2", "ref:RS:uk": 20194 }, "geometry": { "type": "Point", "coordinates": [ 20.92571, 44.66583 ] } },
{ "type": "Feature", "properties": { "amenity": "archive", "name": "Историјски архив Ужице", "name:sr": "Историјски архив Ужице", "name:sr-Latn": "Istorijski arhiv Užice", "name:en": "Historical Archive of Užice", "name:ru": "Исторический архив Ужице", "name:zh": "乌日策历史档案馆", "email": "info@arhivue.org.rs", "phone": "+381 513 484; +381 31510 284; +381 31510 684", "website": "www.arhivue.org.rs", "addr:street": "Жичка", "addr:housenumber": "17", "ref:RS:uk": 20171 }, "geometry": { "type": "Point", "coordinates": [ 19.84606, 43.85747 ] } },
{ "type": "Feature", "properties": { "amenity": "archive", "name": "Историјски архив Шумадије - Крагујевац", "name:sr": "Историјски архив Шумадије - Крагујевац", "name:sr-Latn": "Istorijski arhiv Šumadije - Kragujevac", "name:en": "Historical Archive of Kragujevac", "name:ru": "Исторический архив Шумадии Крагуевац", "name:zh": "克拉古耶瓦茨舒马迪亚历史档案馆", "email": "archivekg@gmail.com", "phone": "+381 336 251; +381 34336 252", "website": "www.istorijskiarhivsumadije.com", "addr:street": "Крагујевачког октобра", "addr:housenumber": "13", "ref:RS:uk": 20184 }, "geometry": { "type": "Point", "coordinates": [ 20.89659, 44.01986 ] } },
{ "type": "Feature", "properties": { "amenity": "archive", "name": "Међуопштински историјски архив Ваљево", "name:sr": "Међуопштински историјски архив Ваљево", "name:sr-Latn": "Međuopštinski istorijski arhiv Valjevo", "name:en": "Regional Archive Valjevo", "name:ru": "Межмуниципальный исторический архив Валево", "name:zh": "瓦列沃城际历史档案馆", "email": "arhivvaljevo@gmail.com", "phone": "+381 221 028; +381 14228 187", "website": "www.istorijskiarhiv.rs", "addr:street": "Поп Лукина", "addr:housenumber": "52", "ref:RS:uk": 20161 }, "geometry": { "type": "Point", "coordinates": [ 19.88188, 44.2744 ] } },
{ "type": "Feature", "properties": { "amenity": "archive", "name": "Међуопштински историјски архив за град Чачак и општине Горњи Милановац и Лучане", "name:sr": "Међуопштински историјски архив за град Чачак и општине Горњи Милановац и Лучане", "name:sr-Latn": "Međuopštinski istorijski arhiv za grad Čačak i opštine Gornji Milanovac i Lučane", "name:en": "Regional Archive Čačak", "name:ru": "Межмуниципальный исторический архив города Чачак и муниципалитетов Горни-Милановац и Лучане", "name:zh": "查查克与上米拉诺瓦茨及卢查奈城际历史档案馆", "email": "arhivcacak@mts.rs", "phone": "+381 342 860; +381 32222 729", "website": "www.arhivcacak.org.rs", "addr:street": "Господар Јованова", "addr:housenumber": "2", "ref:RS:uk": 20168 }, "geometry": { "type": "Point", "coordinates": [ 20.34893, 43.89306 ] } },
{ "type": "Feature", "properties": { "amenity": "archive", "name": "Међуопштински историјски архив Шабац", "name:sr": "Међуопштински историјски архив Шабац", "name:sr-Latn": "Međuopštinski istorijski arhiv Šabac", "name:en": "Regional Archive Šabac", "name:ru": "Межмуниципальный исторический архив Шабац", "name:zh": "沙巴茨城际历史档案馆", "email": "arhivsabac@gmail.com", "phone": "+381 354 992", "website": "www.arhivsabac.org.rs", "addr:street": "Војводе Мишића", "addr:housenumber": "18/а", "ref:RS:uk": 20188 }, "geometry": { "type": "Point", "coordinates": [ 19.69469, 44.75348 ] } }
]
}
