{
"type": "FeatureCollection",
"name": "biblioteke",
"crs": { "type": "name", "properties": { "name": "urn:ogc:def:crs:OGC:1.3:CRS84" } },
"features": [
{ "type": "Feature", "properties": { "amenity": "library", "name": "Библиотека „Јожеф Атила” Кањижа", "name:sr": "Библиотека „Јожеф Атила” Кањижа", "name:sr-Latn": "Biblioteka „Jožef Atila” Kanjiža", "name:en": "Library \"Jožef Atila\" Kanjiža", "name:ru": "Библиотека \"Йожеф Атила\", Канижа", "name:zh": "卡尼扎“约哲夫·阿提拉”图书馆", "email": "jab@jab.org.rs", "phone": "+381 4877 323", "website": "www.jab.org.rs", "addr:street": "Дамјанићева", "addr:housenumber": "2", "ref:RS:uk": 20210 }, "geometry": { "type": "Point", "coordinates": [ 20.05596, 46.06489 ] } },
{ "type": "Feature", "properties": { "amenity": "library", "name": "Градска библиотека у Новом Саду", "name:sr": "Градска библиотека у Новом Саду", "name:sr-Latn": "Gradska biblioteka u Novom Sadu", "name:en": "City Library of Novi Sad", "name:ru": null, "name:zh": null, "email": "gradskabibliotekans@gmail.com", "phone": "+381 529 265; +381 21451 233; +381 21525 540", "website": "www.gbns.rs", "addr:street": "Дунавска", "addr:housenumber": "1", "ref:RS:uk": 20279 }, "geometry": { "type": "Point", "coordinates": [ 19.84839, 45.25687 ] } },
{ "type": "Feature", "properties": { "amenity": "library", "name": "Народна библиотека „Вук Караџић”, Баточина", "name:sr": "Народна библиотека „Вук Караџић”, Баточина", "name:sr-Latn": "Narodna biblioteka „Vuk Karadžić”, Batočina", "name:en": "Public Library \"Vuk Karadžić\" Batočina", "name:ru": "Народная библиотека \"Вук Караджич\", Баточина", "name:zh": "巴托契纳“武克·卡拉季奇”国家图书馆", "email": "nbbatocina@mts.rs", "phone": "+381 6841 009", "website": null, "addr:street": "Његошева", "addr:housenumber": "7", "ref:RS:uk": 20200 }, "geometry": { "type": "Point", "coordinates": [ 21.07883, 44.15363 ] } },
{ "type": "Feature", "properties": { "amenity": "library", "name": "Jaвна библиотека Дољевац", "name:sr": "Jaвна библиотека Дољевац", "name:sr-Latn": "Javna biblioteka Doljevac", "name:en": "Public Library Doljevac", "name:ru": "Публичная библиотека, Долевац", "name:zh": "多列瓦茨公共图书馆", "email": "n.bibliotekadoljevac@yahoo.com", "phone": "+381 870 814; +381 062 8040 928", "website": "www.bibliotekadoljevac.org", "addr:street": "Николе Тесле", "addr:housenumber": "28", "ref:RS:uk": 20207 }, "geometry": { "type": "Point", "coordinates": [ 21.83381, 43.19779 ] } },
{ "type": "Feature", "properties": { "amenity": "library", "name": "Библиотека - Центар за културу Кладово", "name:sr": "Библиотека - Центар за културу Кладово", "name:sr-Latn": "Biblioteka - Centar za kulturu Kladovo", "name:en": "Library - Cultural Center Kladovo", "name:ru": "Библиотека Центр культуры Кладово", "name:zh": "克拉多沃文化中心图书馆", "email": "kulturakld@gmail.com", "phone": "+381 808 690; +381 063 433 478", "website": "www.kulturakladovo.rs", "addr:street": "22. септембар", "addr:housenumber": "4", "ref:RS:uk": 22327 }, "geometry": { "type": "Point", "coordinates": [ 22.61048, 44.61097 ] } },
{ "type": "Feature", "properties": { "amenity": "library", "name": "Библиотека - Центар за културу, образовање и информисање „Градац”, Рашка", "name:sr": "Библиотека - Центар за културу, образовање и информисање „Градац”, Рашка", "name:sr-Latn": "Biblioteka - Centar za kulturu, obrazovanje i informisanje „Gradac”, Raška", "name:en": "Library - Center for Culture, Education and Inform", "name:ru": "Центр культуры, образования и информирования \"Градац\", Рашка", "name:zh": "拉什卡“格拉达茨”文化教育信息中心", "email": "biblioteka_ras@yahoo.com", "phone": "+381 736 273; +381 36740 090", "website": "www.biblitekaraska.rs", "addr:street": "Ибарска", "addr:housenumber": "6", "ref:RS:uk": 22329 }, "geometry": { "type": "Point", "coordinates": [ 20.61415, 43.28852 ] } },
{ "type": "Feature", "properties": { "amenity": "library", "name": "Библиотека „17. септембар” Мали Зворник", "name:sr": "Библиотека „17. септембар” Мали Зворник", "name:sr-Latn": "Biblioteka „17. septembar” Mali Zvornik", "name:en": "Library \"17. septembar\" Mali Zvornik", "name:ru": "Библиотека \"17-е сентября\" , Мали Зворник", "name:zh": "小兹沃尔尼克“十一月十七日”图书馆", "email": "biblmzvornik@yahoo.com", "phone": "+381 471 298", "website": "www.malizvornik.org/ustanove/biblioteka.htm", "addr:street": "Краља Петра I", "addr:housenumber": "26", "ref:RS:uk": 20236 }, "geometry": { "type": "Point", "coordinates": [ 19.10597, 44.37525 ] } },
{ "type": "Feature", "properties": { "amenity": "library", "name": "Библиотека „Бранко Радичевић”, Житиште", "name:sr": "Библиотека „Бранко Радичевић”, Житиште", "name:sr-Latn": "Biblioteka „Branko Radičević”, Žitište", "name:en": "Library \"Branko Radičević\" Žitište", "name:ru": "Библиотека \"Бранко Радичевич\", Житиште", "name:zh": "日蒂什泰“布兰科·拉蒂切维奇”图书馆", "email": "biblioteka_zitiste@yahoo.com", "phone": "+381 3821 275", "website": "www.biblioteka-zitiste.info", "addr:street": "Иве Лоле Рибара", "addr:housenumber": "1а", "ref:RS:uk": 20283 }, "geometry": { "type": "Point", "coordinates": [ 20.55286, 45.48385 ] } },
{ "type": "Feature", "properties": { "amenity": "library", "name": "Библиотека „Браћа Настасијевић”, Горњи Милановац", "name:sr": "Библиотека „Браћа Настасијевић”, Горњи Милановац", "name:sr-Latn": "Biblioteka „Braća Nastasijević”, Gornji Milanovac", "name:en": "Library \"Braća Nastasijević\" Gornji Milanovac", "name:ru": "Библиотека \"Братья Настасиевич\", Горни-Милановац", "name:zh": "上米拉诺瓦茨“布拉恰·纳斯塔西耶维奇”图书馆", "email": "gmbiblioteka@gmail.com", "phone": "+381 712 267; +381 32713 324", "website": "www.bibliotekagm.com", "addr:street": "Трг кнеза Михаила", "addr:housenumber": "1", "ref:RS:uk": 20258 }, "geometry": { "type": "Point", "coordinates": [ 20.45906, 44.02419 ] } },
{ "type": "Feature", "properties": { "amenity": "library", "name": "Библиотека „Вук Караџић” Алексинац", "name:sr": "Библиотека „Вук Караџић” Алексинац", "name:sr-Latn": "Biblioteka „Vuk Karadžić” Aleksinac", "name:en": "Library \"Vuk Karadžić\" Aleksinac", "name:ru": "Народная библиотека \"Вук Караджич\", Алексинац", "name:zh": "阿莱克西纳茨“武克·卡拉季奇”国家图书馆", "email": "al1book@mts.rs", "phone": "+381 800 816; +381 18800 817", "website": "www.bibliotekaaleksinac.rs", "addr:street": "Књаза Милоша", "addr:housenumber": "161", "ref:RS:uk": 20290 }, "geometry": { "type": "Point", "coordinates": [ 21.70851, 43.54133 ] } },
{ "type": "Feature", "properties": { "amenity": "library", "name": "Библиотека „Вук Караџић” Ковин", "name:sr": "Библиотека „Вук Караџић” Ковин", "name:sr-Latn": "Biblioteka „Vuk Karadžić” Kovin", "name:en": "Library \"Vuk Karadžić\" Kovin", "name:ru": "Библиотека \"Вук Караджич\", Ковин", "name:zh": "科文“武克卡拉季奇“图书馆", "email": "biblioteka.kovin@gmail.com", "phone": "+381 744 901; +381 26744 902", "website": "www.bibliotekakovin.rs", "addr:street": "Цара Лазара", "addr:housenumber": "100", "ref:RS:uk": 20213 }, "geometry": { "type": "Point", "coordinates": [ 20.97871, 44.74122 ] } },
{ "type": "Feature", "properties": { "amenity": "library", "name": "Библиотека „Глигорије Возаревић” Сремска Митровица", "name:sr": "Библиотека „Глигорије Возаревић” Сремска Митровица", "name:sr-Latn": "Biblioteka „Gligorije Vozarević” Sremska Mitrovica", "name:en": "Library \"Gligorije Vozarević\" Sremska Mitrovica", "name:ru": "Библиотека \"Глигорие Возарoвич\", Сремска-Митровица", "name:zh": "斯雷姆斯卡米特洛维察“格里高利耶·沃扎洛维奇”图书馆", "email": "direktor@bgvsm.org.rs", "phone": "+381 621 130; +381 22623 607", "website": "www.bibliotekа-sm.rs", "addr:street": "Трг Ћире Милекића", "addr:housenumber": "3", "ref:RS:uk": 20308 }, "geometry": { "type": "Point", "coordinates": [ 19.60745, 44.96806 ] } },
{ "type": "Feature", "properties": { "amenity": "library", "name": "Библиотека „Димитрије Туцовић” Лазаревац", "name:sr": "Библиотека „Димитрије Туцовић” Лазаревац", "name:sr-Latn": "Biblioteka „Dimitrije Tucović” Lazarevac", "name:en": "Public Library \"Dimitrije Tucović\" Lazarevac", "name:ru": "Библиотека \"Димитрие Туцович\", Лазаревац", "name:zh": "拉扎莱瓦茨“迪米特里耶·图措维奇”图书馆", "email": "info@bibliotekalazarevac.org.rs", "phone": "+381 8122 997", "website": "www.bibliotekalazarevac.org.rs", "addr:street": "Kaрађорђева", "addr:housenumber": "57", "ref:RS:uk": 20215 }, "geometry": { "type": "Point", "coordinates": [ 20.25764, 44.38336 ] } },
{ "type": "Feature", "properties": { "amenity": "library", "name": "Библиотека „Диша Атић”, Владимирци", "name:sr": "Библиотека „Диша Атић”, Владимирци", "name:sr-Latn": "Biblioteka „Diša Atić”, Vladimirci", "name:en": "Library \"Diša Antić\" Vladimirci", "name:ru": "Библиотека \"Диша Атич\", Владимирци", "name:zh": "弗拉迪米尔奇“杜莎·阿蒂奇“图书馆", "email": "bibliotekavl@mts.rs", "phone": "+381 514 487", "website": "www.bibliotekavladimirci.org.rs", "addr:street": "Светога Саве", "addr:housenumber": "26", "ref:RS:uk": 20222 }, "geometry": { "type": "Point", "coordinates": [ 19.78352, 44.61698 ] } },
{ "type": "Feature", "properties": { "amenity": "library", "name": "Библиотека „др Вићентије Ракић” Параћин", "name:sr": "Библиотека „др Вићентије Ракић” Параћин", "name:sr-Latn": "Biblioteka „dr Vićentije Rakić” Paraćin", "name:en": "Public Library \"Dr Vićentije Rakić' Paraćin", "name:ru": "Библиотека \"Д-р Вичентие Ракич\", Парачин", "name:zh": "帕拉钦“维切恩提耶·拉基奇博士”图书馆", "email": "biblioparacin@gmail.com", "phone": "+381 573 435", "website": "www.nbvrakic.org.rs", "addr:street": "Бранка Крсмановића", "addr:housenumber": "47", "ref:RS:uk": 20249 }, "geometry": { "type": "Point", "coordinates": [ 21.40752, 43.86201 ] } },
{ "type": "Feature", "properties": { "amenity": "library", "name": "Библиотека „Ержебет Јухас”, Бачка Топола", "name:sr": "Библиотека „Ержебет Јухас”, Бачка Топола", "name:sr-Latn": "Biblioteka „Eržebet Juhas”, Bačka Topola", "name:en": "Public Library Bačka Topola", "name:ru": "Библиотека \"Ержебет Юхас\", Бачка-Топола", "name:zh": "巴池托珀拉“艾尔热贝特·尤哈斯”图书馆", "email": "bibltop@bibltop.org", "phone": "+381 711 725", "website": "www.bibltop.org", "addr:street": "Главна", "addr:housenumber": "16", "ref:RS:uk": 20293 }, "geometry": { "type": "Point", "coordinates": [ 19.63278, 45.81317 ] } },
{ "type": "Feature", "properties": { "amenity": "library", "name": "Библиотека „Јанко Веселиновић” Коцељева", "name:sr": "Библиотека „Јанко Веселиновић” Коцељева", "name:sr-Latn": "Biblioteka „Janko Veselinović” Koceljeva", "name:en": "Library \"Janko Veselinović\" Koceljeva", "name:ru": "Библиотека \"Янко Веселинович\", Коцелева", "name:zh": "科策列瓦“杨科·维塞林诺维奇”图书馆", "email": "biblioteka_koc@mts.rs", "phone": "+381 556 635", "website": "www.koceljeva.gov.rs/index_files/htm/kultura.htm", "addr:street": "Немањина", "addr:housenumber": "70", "ref:RS:uk": 20298 }, "geometry": { "type": "Point", "coordinates": [ 19.82051, 44.46653 ] } },
{ "type": "Feature", "properties": { "amenity": "library", "name": "Библиотека „Јован Томић” Нова Варош", "name:sr": "Библиотека „Јован Томић” Нова Варош", "name:sr-Latn": "Biblioteka „Jovan Tomić” Nova Varoš", "name:en": "Library `Jovan Tomić` Nova Varoš", "name:ru": "Библиотека \"Йован Томич\", Нова-Варош", "name:zh": "新瓦洛什“约万·托米奇”图书馆", "email": "bibliotekanv@gmail.com", "phone": "+381 64 472; +381 3364-442 ", "website": "www.bibliotekanovavaros.rs", "addr:street": "Карађорђева", "addr:housenumber": "36", "ref:RS:uk": 20306 }, "geometry": { "type": "Point", "coordinates": [ 19.81098, 43.4604 ] } },
{ "type": "Feature", "properties": { "amenity": "library", "name": "Библиотека „Љубиша Р. Ђенић” Чајетина", "name:sr": "Библиотека „Љубиша Р. Ђенић” Чајетина", "name:sr-Latn": "Biblioteka „Ljubiša R. Đenić” Čajetina", "name:en": "Library \"Ljubisa R. Djenic\" Čajetina", "name:ru": "Библиотека \"Любиша Р. Дженич\", Чаетина", "name:zh": "查耶提纳“柳比沙·杰尼奇”图书馆", "email": "ljubisardjenic@mts.rs", "phone": "+381 3831 924; +381 313831 380", "website": "www.bibliotekacajetina.org.rs", "addr:street": "Златиборска", "addr:housenumber": "1", "ref:RS:uk": 20289 }, "geometry": { "type": "Point", "coordinates": [ 19.71521, 43.75039 ] } },
{ "type": "Feature", "properties": { "amenity": "library", "name": "Библиотека „Мехмет Јусуфи” Прешево", "name:sr": "Библиотека „Мехмет Јусуфи” Прешево", "name:sr-Latn": "Biblioteka „Mehmet Jusufi” Preševo", "name:en": "Public Library \"Mehmet Jusufi\" Preševo", "name:ru": "Библиотека \"Мехмет Юсуфи\", Прешево", "name:zh": "普莱舍沃”穆哈穆德·优素福“图书馆", "email": null, "phone": "+381 661 230; +381 062 609 772", "website": "bibliotekapresheve@yahoo.com", "addr:street": "Маре Лончар", "addr:housenumber": "бб", "ref:RS:uk": 20346 }, "geometry": { "type": "Point", "coordinates": [ 21.65317, 42.30445 ] } },
{ "type": "Feature", "properties": { "amenity": "library", "name": "Библиотека „Милован Глишић” Љубовија", "name:sr": "Библиотека „Милован Глишић” Љубовија", "name:sr-Latn": "Biblioteka „Milovan Glišić” Ljubovija", "name:en": "Library \"Milovan Glišić\" Ljubovija", "name:ru": "Библиотека \"Милован Глишич\", Любовия", "name:zh": "柳波维亚“米洛万·格里西奇”图书馆", "email": "office@biblioteka-ljubovija.org.rs", "phone": "+381 561 842; +381 15561 529; +381 063 8491 884", "website": "www.biblioteka-ljubovija.org.rs", "addr:street": "Трг Војводе Мишића", "addr:housenumber": "бб", "ref:RS:uk": 20291 }, "geometry": { "type": "Point", "coordinates": [ 19.37292, 44.18786 ] } },
{ "type": "Feature", "properties": { "amenity": "library", "name": "Библиотека „Милован Глишић” Мионица", "name:sr": "Библиотека „Милован Глишић” Мионица", "name:sr-Latn": "Biblioteka „Milovan Glišić” Mionica", "name:en": "Library \"Milovan Glišić\" Mionica", "name:ru": "Библиотека \"Милован Глишич\", Мионица", "name:zh": "米尔尼查国家“米洛万·格里西奇”图书馆", "email": "mionicabiblioteka@gmail.com", "phone": "+381 3422 623; +381 143423 159", "website": null, "addr:street": "Др Јове Алексића", "addr:housenumber": "12", "ref:RS:uk": 20330 }, "geometry": { "type": "Point", "coordinates": [ 20.08081, 44.25322 ] } },
{ "type": "Feature", "properties": { "amenity": "library", "name": "Библиотека „Милутин Бојић”, Београд", "name:sr": "Библиотека „Милутин Бојић”, Београд", "name:sr-Latn": "Biblioteka „Milutin Bojić”, Beograd", "name:en": "Public Library \"Milutin Bojić\" Beograd", "name:ru": "Библиотека \"Милутин Боич\", Белград", "name:zh": "贝尔格莱德“米卢廷·波伊奇”图书馆", "email": "biblioteka@milutinbojic.org.rs", "phone": "+381 3242 418", "website": "www.milutinbojic.org.rs", "addr:street": "Илије Гарашанина", "addr:housenumber": "5", "ref:RS:uk": 20323 }, "geometry": { "type": "Point", "coordinates": [ 20.47133, 44.81221 ] } },
{ "type": "Feature", "properties": { "amenity": "library", "name": "Библиотека „Милутин Срећковић” Смедеревска Паланка", "name:sr": "Библиотека „Милутин Срећковић” Смедеревска Паланка", "name:sr-Latn": "Biblioteka „Milutin Srećković” Smederevska Palanka", "name:en": "Public Library - Cultural Center Smederevska Palanka", "name:ru": "Библиотека \"Милутин Сречкович\", Смедеревска-Паланка", "name:zh": "斯梅代雷沃帕兰卡“米卢廷·斯莱奇科维奇”图书馆", "email": "bibpalanka@gmail.com", "phone": "+381 311 578 ; +381 11318 346", "website": "www.smederevskapalanka.rs/index.php/institucije/kultura/nb", "addr:street": "10. октобра", "addr:housenumber": "16", "ref:RS:uk": 20253 }, "geometry": { "type": "Point", "coordinates": [ 20.96082, 44.36444 ] } },
{ "type": "Feature", "properties": { "amenity": "library", "name": "Библиотека „Никола Сикимић Максим” Кучево", "name:sr": "Библиотека „Никола Сикимић Максим” Кучево", "name:sr-Latn": "Biblioteka „Nikola Sikimić Maksim” Kučevo", "name:en": "Library \"Nikola Sikimić-Maksim\" Kučevo", "name:ru": "Библиотека \"Никола Сикимич Максим\", Кучево", "name:zh": "库切沃“尼古拉·西基米奇·马克思姆”图书馆", "email": "bibliotekansm@gmail.com", "phone": "+381 850 467", "website": null, "addr:street": "Трг Вељка Дугошевића", "addr:housenumber": "3О", "ref:RS:uk": 20335 }, "geometry": { "type": "Point", "coordinates": [ 21.66734, 44.47979 ] } },
{ "type": "Feature", "properties": { "amenity": "library", "name": "Библиотека „Радоје Домановић” Сурдулица", "name:sr": "Библиотека „Радоје Домановић” Сурдулица", "name:sr-Latn": "Biblioteka „Radoje Domanović” Surdulica", "name:en": "Library `Radoje Domanović` Surdulica", "name:ru": "Библиотека \"Радое Доманович\", Сурдулица", "name:zh": "苏尔杜利查“拉多耶·多玛诺维奇”图书馆", "email": "biblioteka@surdulica.rs", "phone": "+381 815 243", "website": "www.bibliotekasurdulica.org", "addr:street": "Кеј Раде Цветковић", "addr:housenumber": "12", "ref:RS:uk": 20309 }, "geometry": { "type": "Point", "coordinates": [ 22.17326, 42.69219 ] } },
{ "type": "Feature", "properties": { "amenity": "library", "name": "Библиотека „Радоје Домановић” Топола", "name:sr": "Библиотека „Радоје Домановић” Топола", "name:sr-Latn": "Biblioteka „Radoje Domanović” Topola", "name:en": "Library \"Radoje Domanović\" Topola", "name:ru": "Библиотека \"Радое Доманович\", Топола", "name:zh": "托珀拉“拉多耶·多玛诺维奇”图书馆", "email": "biblioteka@topola.com", "phone": "+381 6100 306", "website": "www.topola.com/linkovi/biblioteka.htm  ", "addr:street": "Краљице Марије", "addr:housenumber": "4", "ref:RS:uk": 20233 }, "geometry": { "type": "Point", "coordinates": [ 20.67886, 44.25282 ] } },
{ "type": "Feature", "properties": { "amenity": "library", "name": "Библиотека „Радоје Домановић”, Велика Плана", "name:sr": "Библиотека „Радоје Домановић”, Велика Плана", "name:sr-Latn": "Biblioteka „Radoje Domanović”, Velika Plana", "name:en": "Library \"Radoje Domanović\" Velika Plana", "name:ru": "Библиотека \"Радое Доманович\", Велика-Плана", "name:zh": "大普拉那“拉多耶·多玛诺维奇”图书馆", "email": "rdbiblioteka@gmail.com", "phone": "+381 516 256", "website": "www.velikaplana.opstinesrbije.comindex.php?menu=2&submenu=204&pg=40", "addr:street": "Косовска", "addr:housenumber": "19", "ref:RS:uk": 20288 }, "geometry": { "type": "Point", "coordinates": [ 21.07104, 44.33413 ] } },
{ "type": "Feature", "properties": { "amenity": "library", "name": "Библиотека „Сарваш Габор” Ада", "name:sr": "Библиотека „Сарваш Габор” Ада", "name:sr-Latn": "Biblioteka „Sarvaš Gabor” Ada", "name:en": "Library  \"Sarvaš Gabor\" Ada", "name:ru": "Библиотека \"Сарваш Габор\", Ада", "name:zh": "阿达“萨尔巴什·嘎博尔”图书馆", "email": "biblioteka.ada@gmail.com", "phone": "+381 851 115", "website": "www.biblada.org", "addr:street": "Трг ослобођења", "addr:housenumber": "3а", "ref:RS:uk": 20337 }, "geometry": { "type": "Point", "coordinates": [ 20.13291, 45.79661 ] } },
{ "type": "Feature", "properties": { "amenity": "library", "name": "Библиотека „Светислав Вуловић” Ивањица", "name:sr": "Библиотека „Светислав Вуловић” Ивањица", "name:sr-Latn": "Biblioteka „Svetislav Vulović” Ivanjica", "name:en": "Public Library - Cultural Center Ivanjica", "name:ru": "Библиотека „Светислав Вулович\", Иваница", "name:zh": "伊瓦尼查“斯维提斯拉夫·武洛维奇”图书馆", "email": "biblioteka.svulovic@eunet.rs", "phone": "+381 662 388; +381 32661 087", "website": null, "addr:street": "Венијамина Маринковића", "addr:housenumber": "бб", "ref:RS:uk": 22326 }, "geometry": { "type": "Point", "coordinates": [ 20.23111, 43.58055 ] } },
{ "type": "Feature", "properties": { "amenity": "library", "name": "Библиотека „Штефан Хомола”, Бачки Петровац", "name:sr": "Библиотека „Штефан Хомола”, Бачки Петровац", "name:sr-Latn": "Biblioteka „Štefan Homola”, Bački Petrovac", "name:en": "Library  \"Štefan Homola\" Bački Petrovac", "name:ru": "Библиотека \"Штефан Хомола\", Бачки-Петровац", "name:zh": "巴池彼得罗瓦茨“什泰凡·霍莫拉”图书馆", "email": "shomolu@stcable.net", "phone": "+381 781 335", "website": null, "addr:street": "Народне револуције", "addr:housenumber": "9", "ref:RS:uk": 20267 }, "geometry": { "type": "Point", "coordinates": [ 19.59225, 45.35873 ] } },
{ "type": "Feature", "properties": { "amenity": "library", "name": "Библиотека Ариље „Установа за библиотечко-информациону делатност и културни туризам“", "name:sr": "Библиотека Ариље „Установа за библиотечко-информациону делатност и културни туризам“", "name:sr-Latn": "Biblioteka Arilje „Ustanova za bibliotečko-informacionu delatnost i kulturni turizam“", "name:en": "Public Library Arilje", "name:ru": "Библиотека Ариле „Учреждение по библиотечно-информационной деятельности и культурному туризму“", "name:zh": "阿利列“图书信息活动与文化旅游机构”图书馆", "email": "bibliotekaariljska@gmail.com", "phone": "+381 3891 182; +381 313893 933; +381 064 8497 369", "website": "www.narodnabibliotekaarilje.org.rs/", "addr:street": "Св. Ахилија", "addr:housenumber": "33", "ref:RS:uk": 20317 }, "geometry": { "type": "Point", "coordinates": [ 20.09905, 43.7515 ] } },
{ "type": "Feature", "properties": { "amenity": "library", "name": "Библиотека Вуковог завичаја, Лозница", "name:sr": "Библиотека Вуковог завичаја, Лозница", "name:sr-Latn": "Biblioteka Vukovog zavičaja, Loznica", "name:en": "Biblioteka Vukovog zavičaja, Loznica", "name:ru": "Библиотека родного края Вука, Лозница", "name:zh": "洛兹尼察武克故乡图书馆", "email": "bibliotekaloznica@eunet.rs", "phone": "+381 898 560; +381 15898 561", "website": "www.bibliotekaloznica.org.rs", "addr:street": "Светог Саве", "addr:housenumber": "5", "ref:RS:uk": 20319 }, "geometry": { "type": "Point", "coordinates": [ 19.22136, 44.53349 ] } },
{ "type": "Feature", "properties": { "amenity": "library", "name": "Библиотека града Београда", "name:sr": "Библиотека града Београда", "name:sr-Latn": "Biblioteka grada Beograda", "name:en": "City Library of Belgrade", "name:ru": "Библиотека города Белграда", "name:zh": "贝尔格莱德城市图书馆", "email": "pult@bgb.rs", "phone": "+381 2024 000; +381 112024 022", "website": "www.bgb.rs", "addr:street": "Кнез Михаилова", "addr:housenumber": "56", "ref:RS:uk": 20261 }, "geometry": { "type": "Point", "coordinates": [ 20.4535, 44.82004 ] } },
{ "type": "Feature", "properties": { "amenity": "library", "name": "Библиотека града Београда - Одељење Библиотека „Вук Караџић”", "name:sr": "Библиотека града Београда - Одељење Библиотека „Вук Караџић”", "name:sr-Latn": "Biblioteka grada Beograda - Odeljenje Biblioteka „Vuk Karadžić”", "name:en": "Public Library \"Vuk Karadžić\" Novi Beograd", "name:ru": "Библиотека города Белграда - Отделение Библиотека \"Вук Караджич\"", "name:zh": "贝尔格莱德城市图书馆-“武克·卡拉季奇”分馆", "email": "biblioteka.novibeograd@gmail.com", "phone": "+381 2697 427; +381 113190 645", "website": "www.bgb.rs", "addr:street": "Булевар Зорана Ђинђића", "addr:housenumber": "152а", "ref:RS:uk": 20339 }, "geometry": { "type": "Point", "coordinates": [ 20.3997, 44.82632 ] } },
{ "type": "Feature", "properties": { "amenity": "library", "name": "Библиотека града Београда - Одељење Библиотека „Вук Караџић”", "name:sr": "Библиотека града Београда - Одељење Библиотека „Вук Караџић”", "name:sr-Latn": "Biblioteka grada Beograda - Odeljenje Biblioteka „Vuk Karadžić”", "name:en": "Public Library \"Vuk Karadžić\" Beograd", "name:ru": "Библиотека города Белграда - Отделение Библиотека \"Вук Караджич\"", "name:zh": "贝尔格莱德城市图书馆-“武克·卡拉季奇”分馆", "email": "biblioteka.zvezdara@gmail.com", "phone": "+381 2422 003", "website": "www.bgb.rs", "addr:street": "Ћирила и Методија", "addr:housenumber": "2", "ref:RS:uk": 20354 }, "geometry": { "type": "Point", "coordinates": [ 20.48154, 44.80407 ] } },
{ "type": "Feature", "properties": { "amenity": "library", "name": "Библиотека града Београда - Одељење Библиотека „Доситеј Обрадовић”", "name:sr": "Библиотека града Београда - Одељење Библиотека „Доситеј Обрадовић”", "name:sr-Latn": "Biblioteka grada Beograda - Odeljenje Biblioteka „Dositej Obradović”", "name:en": "Library \"Dositej Obradović\" Beograd", "name:ru": "Библиотека города Белграда - Отделение Библиотека “Досифей Обрадович”", "name:zh": "贝尔格莱德城市图书馆-“多西泰伊·奥布拉多维奇”分馆", "email": "biblioteka.vozdovac@gmail.com", "phone": "+381 2891 460", "website": "www.bgb.rs", "addr:street": "Устаничка", "addr:housenumber": "125ц", "ref:RS:uk": 20342 }, "geometry": null },
{ "type": "Feature", "properties": { "amenity": "library", "name": "Библиотека града Београда - Одељење Библиотека „Ђорђе Јовановић”", "name:sr": "Библиотека града Београда - Одељење Библиотека „Ђорђе Јовановић”", "name:sr-Latn": "Biblioteka grada Beograda - Odeljenje Biblioteka „Đorđe Jovanović”", "name:en": "Library \"Đorđe Jovanović\" Beograd", "name:ru": "Библиотека города Белграда - Отделение Библиотека \"Джордже Йованович\"", "name:zh": "贝尔格莱德城市图书馆-“焦尔杰·约万诺维奇”分馆", "email": "biblioteka.starigrad@gmail.com", "phone": "+381 2637 664", "website": "www.biblioteke.info", "addr:street": "Змај Јовина", "addr:housenumber": "1", "ref:RS:uk": 20338 }, "geometry": { "type": "Point", "coordinates": [ 20.45668, 44.81664 ] } },
{ "type": "Feature", "properties": { "amenity": "library", "name": "Библиотека града Београда - Одељење Библиотека „Илија Гарашанин”", "name:sr": "Библиотека града Београда - Одељење Библиотека „Илија Гарашанин”", "name:sr-Latn": "Biblioteka grada Beograda - Odeljenje Biblioteka „Ilija Garašanin”", "name:en": "Public Library \"Ilija Garašanin\" Grocka", "name:ru": "Библиотека города Белграда - Отделение Библиотека \"Илья Гарашанин\"", "name:zh": "贝尔格莱德城市图书馆-“伊利亚·嘎拉沙宁”分馆", "email": "biblioteka.grocka@gmail.com", "phone": "+381 8501 081; +381 118500 360; +381 113047 373 ", "website": "www.bgb.rs", "addr:street": "Булевар ослобођења", "addr:housenumber": "11", "ref:RS:uk": 20336 }, "geometry": { "type": "Point", "coordinates": [ 20.71607, 44.67259 ] } },
{ "type": "Feature", "properties": { "amenity": "library", "name": "Библиотека Српске академије наука и уметности Београд", "name:sr": "Библиотека Српске академије наука и уметности Београд", "name:sr-Latn": "Biblioteka Srpske akademije nauka i umetnosti Beograd", "name:en": "Library of the Serbian Academy of Sciences and Arts", "name:ru": null, "name:zh": null, "email": "katalog@bib.sanu.ac.rs", "phone": "+381 2027 174", "website": "www.sanu.ac.rs", "addr:street": "Кнеза Михаила", "addr:housenumber": "35", "ref:RS:uk": 20332 }, "geometry": { "type": "Point", "coordinates": [ 20.45663, 44.81781 ] } },
{ "type": "Feature", "properties": { "amenity": "library", "name": "Библиотека града Београда - Одељење Библиотека „Исидора Секулић”", "name:sr": "Библиотека града Београда - Одељење Библиотека „Исидора Секулић”", "name:sr-Latn": "Biblioteka grada Beograda - Odeljenje Biblioteka „Isidora Sekulić”", "name:en": "Public Library \"Isidora Sekulić\" Beograd", "name:ru": "Библиотека города Белграда - Отделение Библиотека \"Исидора Секулич\"", "name:zh": "贝尔格莱德城市图书馆-“伊西多拉·塞库利奇”分馆", "email": "biblioteka.savskivenac@gmail.com", "phone": "+381 2651 082", "website": "www.bgb.rs", "addr:street": "Гаврила Принципа", "addr:housenumber": "40", "ref:RS:uk": 20334 }, "geometry": { "type": "Point", "coordinates": [ 20.45638, 44.81119 ] } },
{ "type": "Feature", "properties": { "amenity": "library", "name": "Библиотека града Београда - Одељење Библиотека „Јован Дучић”, Барајево", "name:sr": "Библиотека града Београда - Одељење Библиотека „Јован Дучић”, Барајево", "name:sr-Latn": "Biblioteka grada Beograda - Odeljenje Biblioteka „Jovan Dučić”, Barajevo", "name:en": "Library \"Jovan Dučić\" Barajevo", "name:ru": "Библиотека города Белграда - Отделение Библиотека \"Йован Дучич\"", "name:zh": "贝尔格莱德城市图书馆-“约万·杜契奇”分馆", "email": "biblioteka.barajevo@gmail.com", "phone": "+381 8300 389", "website": "www.bgb.rs", "addr:street": "Миодрага Вуковића", "addr:housenumber": "2", "ref:RS:uk": 20353 }, "geometry": { "type": "Point", "coordinates": [ 20.41735, 44.57721 ] } },
{ "type": "Feature", "properties": { "amenity": "library", "name": "Библиотека града Београда - Одељење Библиотека „Милован Видаковић”, Сопот", "name:sr": "Библиотека града Београда - Одељење Библиотека „Милован Видаковић”, Сопот", "name:sr-Latn": "Biblioteka grada Beograda - Odeljenje Biblioteka „Milovan Vidaković”, Sopot", "name:en": "Public Library \"Milovan Vidaković\" Sopot", "name:ru": "Библиотека города Белграда - Отделение Библиотека \"Милован Видакович\", Сопот", "name:zh": "贝尔格莱德城市图书馆索珀特”米洛万·维达科维奇“分馆", "email": "biblioteka.sopot@gmail.com", "phone": "+381 8251 318", "website": "www.bgb.rs", "addr:street": "Космајски трг", "addr:housenumber": "7", "ref:RS:uk": 20322 }, "geometry": { "type": "Point", "coordinates": [ 20.57701, 44.5192 ] } },
{ "type": "Feature", "properties": { "amenity": "library", "name": "Библиотека града Београда - Одељење Библиотека „Миодраг Булатовић”", "name:sr": "Библиотека града Београда - Одељење Библиотека „Миодраг Булатовић”", "name:sr-Latn": "Biblioteka grada Beograda - Odeljenje Biblioteka „Miodrag Bulatović”", "name:en": "Public Library \"Miodrag Bulatović\" Beograd", "name:ru": "Библиотека города Белграда - Отделение Библиотека \"Миодраг Булатович\"", "name:zh": "贝尔格莱德城市图书馆-“米尔德拉格·布拉托维奇”分馆", "email": "biblioteka.rakovica@gmail.com", "phone": "+381 3581 246", "website": "www.bgb.rs", "addr:street": "Богдана Жерајића", "addr:housenumber": "24а", "ref:RS:uk": 20324 }, "geometry": { "type": "Point", "coordinates": [ 20.45091, 44.74665 ] } },
{ "type": "Feature", "properties": { "amenity": "library", "name": "Библиотека града Београда - Одељење Библиотека „Петар Кочић”", "name:sr": "Библиотека града Београда - Одељење Библиотека „Петар Кочић”", "name:sr-Latn": "Biblioteka grada Beograda - Odeljenje Biblioteka „Petar Kočić”", "name:en": "Public Library \"Petar Kočić\" Beograd", "name:ru": "Библиотека города Белграда - Отделение Библиотека \"Петар Кочич\"", "name:zh": "贝尔格莱德城市图书馆-“彼得·科契奇”分馆", "email": "biblioteka.vracar@gmail.com", "phone": "+381 2430 250 ; +381 113231 404", "website": "www.bgb.rs", "addr:street": "Вишка", "addr:housenumber": "3", "ref:RS:uk": 20352 }, "geometry": null },
{ "type": "Feature", "properties": { "amenity": "library", "name": "Библиотека града Београда - Одељење Библиотека „Свети Сава”", "name:sr": "Библиотека града Београда - Одељење Библиотека „Свети Сава”", "name:sr-Latn": "Biblioteka grada Beograda - Odeljenje Biblioteka „Sveti Sava”", "name:en": "Public Library \"Sveti Sava\" Zemun", "name:ru": "Библиотека города Белграда - Отделение Библиотека \"Святой Савва\"", "name:zh": "贝尔格莱德城市图书馆-“圣萨瓦”分馆", "email": "biblioteka.zemun@gmail.com", "phone": "+381 2618 146; +381 112106 784", "website": "www.bgb.rs", "addr:street": "Петра Зрињског", "addr:housenumber": "8", "ref:RS:uk": 20340 }, "geometry": null },
{ "type": "Feature", "properties": { "amenity": "library", "name": "Библиотека града Београда-Одељење Библиотека „Деспот Стефан Лазаревић”, Младеновац", "name:sr": "Библиотека града Београда-Одељење Библиотека „Деспот Стефан Лазаревић”, Младеновац", "name:sr-Latn": "Biblioteka grada Beograda-Odeljenje Biblioteka „Despot Stefan Lazarević”, Mladenovac", "name:en": "Library \"Despot Stefan Lazarević\" Mladenovac", "name:ru": "Библиотека города Белграда - Отделение Библиотека \"Деспот Стефан Лазаревич\", Младеновац", "name:zh": "贝尔格莱德城市图书馆姆拉丹诺瓦茨“斯特凡·拉扎列维奇国王”分馆", "email": "biblioteka.mladenovac@gmail.com", "phone": "+381 8230 200; +381 118237 728", "website": "www.bgb.rs", "addr:street": "Краља Петра I", "addr:housenumber": "175", "ref:RS:uk": 20345 }, "geometry": { "type": "Point", "coordinates": [ 20.6928, 44.44115 ] } },
{ "type": "Feature", "properties": { "amenity": "library", "name": "Библиотека Дома културе Ражањ", "name:sr": "Библиотека Дома културе Ражањ", "name:sr-Latn": "Biblioteka Doma kulture Ražanj", "name:en": "Library - Cultural center Ražanj", "name:ru": "Библиотека Дома культуры Ражань", "name:zh": "拉扎尼文化之家图书馆", "email": "domkulturerazanj@gmail.com", "phone": "+381 3841 209", "website": null, "addr:street": "Новоражањска ", "addr:housenumber": "84", "ref:RS:uk": 20231 }, "geometry": null },
{ "type": "Feature", "properties": { "amenity": "library", "name": "Библиотека Мали Иђош – Kishegyesi Könyvtár", "name:sr": "Библиотека Мали Иђош – Kishegyesi Könyvtár", "name:sr-Latn": "Biblioteka Mali Iđoš – Kishegyesi Könyvtár", "name:en": "Public Library Mali Iđoš", "name:ru": "Библиотека Мали-Иджош – Kishegyesi Könyvtár", "name:zh": "小伊焦什图书馆", "email": "biblioteka.mi@gmail.com", "phone": "+381 4730 055", "website": "www.librarykh.org.rs", "addr:street": "Главна", "addr:housenumber": "30", "ref:RS:uk": 20297 }, "geometry": { "type": "Point", "coordinates": [ 19.66518, 45.70653 ] } },
{ "type": "Feature", "properties": { "amenity": "library", "name": "Библиотека Матице Српске, Нови Сад", "name:sr": "Библиотека Матице Српске, Нови Сад", "name:sr-Latn": "Biblioteka Matice Srpske, Novi Sad", "name:en": "Matica Srpska Library", "name:ru": "Библиотека Матицы Сербской, Нови-Сад", "name:zh": "诺维萨德塞尔维亚中心出版社图书馆", "email": "bms@bms.ns.ac.rs", "phone": "+381 420 199; +381 21420 198", "website": "www.bms.rs", "addr:street": "Матице српске", "addr:housenumber": "1", "ref:RS:uk": 20312 }, "geometry": { "type": "Point", "coordinates": [ 19.8453, 45.25936 ] } },
{ "type": "Feature", "properties": { "amenity": "library", "name": "Библиотека општине Лучани", "name:sr": "Библиотека општине Лучани", "name:sr-Latn": "Biblioteka opštine Lučani", "name:en": "Library - Cultural Center Guča", "name:ru": "Библиотека муниципалитета Лучани", "name:zh": "卢查尼城市图书馆", "email": "bibliotekaguca@gmail.com", "phone": "+381 855 788", "website": "www.bibliotekaguca.rs", "addr:street": "Трг слободе", "addr:housenumber": "бб", "ref:RS:uk": 20316 }, "geometry": { "type": "Point", "coordinates": [ 20.22643, 43.77732 ] } },
{ "type": "Feature", "properties": { "amenity": "library", "name": "Библиотека Српске патријаршије Београд", "name:sr": "Библиотека Српске патријаршије Београд", "name:sr-Latn": "Biblioteka Srpske patrijaršije Beograd", "name:en": "Library of Serbian Ortodoх Church Belgrade", "name:ru": null, "name:zh": null, "email": "info@spc.rs", "phone": "+381 2635 378", "website": "www.spc.rs", "addr:street": "Краља Петра", "addr:housenumber": "5", "ref:RS:uk": 20349 }, "geometry": { "type": "Point", "coordinates": [ 20.45152, 44.81733 ] } },
{ "type": "Feature", "properties": { "amenity": "library", "name": "Библиотека Српског народног позоришта", "name:sr": "Библиотека Српског народног позоришта", "name:sr-Latn": "Biblioteka Srpskog narodnog pozorišta", "name:en": "Serbian National Theatre Library", "name:ru": null, "name:zh": null, "email": "biblioteka@snp.org.rs", "phone": "+381 426 403", "website": "www.snp.org.rs ", "addr:street": "Позоришни трг", "addr:housenumber": "1", "ref:RS:uk": 20359 }, "geometry": { "type": "Point", "coordinates": [ 19.84295, 45.2551 ] } },
{ "type": "Feature", "properties": { "amenity": "library", "name": "Библиотека шабачка", "name:sr": "Библиотека шабачка", "name:sr-Latn": "Biblioteka šabačka", "name:en": "Public Library  Šabac", "name:ru": "Библиотека шабацкая", "name:zh": "沙巴池卡图书馆", "email": "office@bibliotekasabac.org.rs", "phone": "+381 345 204; +381 15345 205", "website": "www.bibliotekasabac.org.rs", "addr:street": "Масарикова", "addr:housenumber": "18", "ref:RS:uk": 20311 }, "geometry": { "type": "Point", "coordinates": [ 19.69232, 44.75562 ] } },
{ "type": "Feature", "properties": { "amenity": "library", "name": "Градска библиотека - Városi Könyvtár, Суботица", "name:sr": "Градска библиотека - Városi Könyvtár, Суботица", "name:sr-Latn": "Gradska biblioteka - Városi Könyvtár, Subotica", "name:en": "City Library  Subotica", "name:ru": "Городская библиотека - Városi Könyvtár, Суботица", "name:zh": "苏博蒂察城市图书馆", "email": "subiblioteka@gmail.com", "phone": "+381 553 115; +381 2421 385; +381 24555 115", "website": "www.subiblioteka.rs", "addr:street": "Цара Душана", "addr:housenumber": "2", "ref:RS:uk": 20270 }, "geometry": { "type": "Point", "coordinates": [ 19.66655, 46.09947 ] } },
{ "type": "Feature", "properties": { "amenity": "library", "name": "Градска библиотека „Атанасије Стојковић” Рума", "name:sr": "Градска библиотека „Атанасије Стојковић” Рума", "name:sr-Latn": "Gradska biblioteka „Atanasije Stojković” Ruma", "name:en": "City Library of Ruma", "name:ru": "Городская библиотека “Атанасие Стойкович”, Рума", "name:zh": "鲁马“阿塔那西耶维奇·斯多伊科维奇“国家图书馆", "email": "bibruma@mts.rs", "phone": "+381 495 047", "website": "www.biblruma.rs", "addr:street": "Главна", "addr:housenumber": "131", "ref:RS:uk": 20239 }, "geometry": { "type": "Point", "coordinates": [ 19.82119, 45.00817 ] } },
{ "type": "Feature", "properties": { "amenity": "library", "name": "Градска библиотека „Божидар Кнежевић” Уб", "name:sr": "Градска библиотека „Божидар Кнежевић” Уб", "name:sr-Latn": "Gradska biblioteka „Božidar Knežević” Ub", "name:en": "Library \"Božidar Knežević\" Ub", "name:ru": "Городская библиотека \"Божидар Кнежевич\", Уб", "name:zh": "乌布“波日达尔·科奈热维奇”城市图书馆", "email": "bibliotekaub@gmail.com", "phone": "+381 411 663", "website": "www.bibliotekaub.com", "addr:street": "Краља Петра  I Ослободиоца", "addr:housenumber": "29", "ref:RS:uk": 20199 }, "geometry": { "type": "Point", "coordinates": [ 20.07413, 44.45665 ] } },
{ "type": "Feature", "properties": { "amenity": "library", "name": "Градска библиотека „Владислав Петковић Дис” Чачак", "name:sr": "Градска библиотека „Владислав Петковић Дис” Чачак", "name:sr-Latn": "Gradska biblioteka „Vladislav Petković Dis” Čačak", "name:en": "Public Library \"Vladislav Petković Dis\" Čačak", "name:ru": "Городская библиотека \"Владислав Петкович Дис\", Чачак", "name:zh": "查查克“弗拉迪斯拉夫·佩特科维奇·迪斯”城市图书馆", "email": "biblioteka@cacak-dis.rs", "phone": "+381 340 960; +381 32323 608", "website": "www.cacak-dis.rs", "addr:street": "Синђелићева", "addr:housenumber": "24", "ref:RS:uk": 20229 }, "geometry": { "type": "Point", "coordinates": [ 20.34848, 43.89265 ] } },
{ "type": "Feature", "properties": { "amenity": "library", "name": "Градска библиотека „Карло Бјелицки” Сомбор", "name:sr": "Градска библиотека „Карло Бјелицки” Сомбор", "name:sr-Latn": "Gradska biblioteka „Karlo Bjelicki” Sombor", "name:en": "Town Library `Karlo Bijelicki` Sombor", "name:ru": "Городская библиотека \"Карло Бийелицки\", Сомбор", "name:zh": "松博尔“卡尔洛·比耶利茨基”城市图书馆", "email": "biblioso@eunet.rs", "phone": "+381 431 011; +381 25482 827", "website": "www.biblioso.org.rs", "addr:street": "Трг цара Лазара", "addr:housenumber": "3", "ref:RS:uk": 20234 }, "geometry": { "type": "Point", "coordinates": [ 19.11284, 45.77266 ] } },
{ "type": "Feature", "properties": { "amenity": "library", "name": "Градска библиотека Вршац", "name:sr": "Градска библиотека Вршац", "name:sr-Latn": "Gradska biblioteka Vršac", "name:en": "City Library of Vršac", "name:ru": "Городская библиотека Вршац", "name:zh": "弗尔沙茨城市图书馆", "email": "bibliotekavrsac@mts.rs", "phone": "+381 832 955", "website": "www.bibliotekavrsac.org.rs", "addr:street": "Светосавски трг", "addr:housenumber": "2", "ref:RS:uk": 20225 }, "geometry": { "type": "Point", "coordinates": [ 21.29838, 45.11944 ] } },
{ "type": "Feature", "properties": { "amenity": "library", "name": "Градска библиотека Лајковац", "name:sr": "Градска библиотека Лајковац", "name:sr-Latn": "Gradska biblioteka Lajkovac", "name:en": "City Library of Lajkovac", "name:ru": "Городская библиотека \"Лайковац\"", "name:zh": "“卢伊科瓦茨”城市图书馆", "email": "gbllajkovac@yahoo.com", "phone": "+381 3431 035", "website": "www.gbl.org.rs", "addr:street": "Трг Владике Николаја", "addr:housenumber": "6", "ref:RS:uk": 20226 }, "geometry": { "type": "Point", "coordinates": [ 20.16621, 44.37042 ] } },
{ "type": "Feature", "properties": { "amenity": "library", "name": "Градска библиотека Љиг", "name:sr": "Градска библиотека Љиг", "name:sr-Latn": "Gradska biblioteka Ljig", "name:en": "City Library of Ljig", "name:ru": "Городская библиотека \"Лиг\"", "name:zh": "“里格”城市图书馆", "email": "gradskabibliotekaljig@gmail.com", "phone": "+381 3443 462; +381 143444 221", "website": "www.bibliotekaljig.org.rs", "addr:street": "Карађорђева", "addr:housenumber": "8", "ref:RS:uk": 20304 }, "geometry": { "type": "Point", "coordinates": [ 20.23956, 44.2262 ] } },
{ "type": "Feature", "properties": { "amenity": "library", "name": "Градска библиотека Панчево", "name:sr": "Градска библиотека Панчево", "name:sr-Latn": "Gradska biblioteka Pančevo", "name:en": "City Library of Pančevo", "name:ru": "Городская библиотека Панчево", "name:zh": "潘切沃城市图书馆", "email": "paknjiga@biblioteka-pancevo.org.rs", "phone": "+381 2513 755", "website": "www.biblioteka-pancevo.org.rs", "addr:street": "Немањина", "addr:housenumber": "1", "ref:RS:uk": 20235 }, "geometry": { "type": "Point", "coordinates": [ 20.64559, 44.87183 ] } },
{ "type": "Feature", "properties": { "amenity": "library", "name": "Градска народна библиотека „Жарко Зрењанин”, Зрењанин", "name:sr": "Градска народна библиотека „Жарко Зрењанин”, Зрењанин", "name:sr-Latn": "Gradska narodna biblioteka „Žarko Zrenjanin”, Zrenjanin", "name:en": "City Public Library \"Žarko Zrenjanin\" Zrenjanin", "name:ru": "Городская народная библиотека Зренянин", "name:zh": "兹雷尼亚宁城市图书馆", "email": "biblioteka@zrbiblio.рс", "phone": "+381 566 210; +381 23562 625", "website": "www.zrbiblio.org", "addr:street": "Трг слободе", "addr:housenumber": "2", "ref:RS:uk": 20209 }, "geometry": { "type": "Point", "coordinates": [ 20.39141, 45.38069 ] } },
{ "type": "Feature", "properties": { "amenity": "library", "name": "Јавна библиотека „Сирмаи Карољ”, Темерин", "name:sr": "Јавна библиотека „Сирмаи Карољ”, Темерин", "name:sr-Latn": "Javna biblioteka „Sirmai Karolj”, Temerin", "name:en": "Public Library \"Sirmai Karalj'' Temerin", "name:ru": "Публичная библиотека \"Сирмаи Кароль\", Темерин", "name:zh": "泰梅林“西尔玛伊·卡洛利”公共图书馆", "email": "biblioteka-sirmai@parabolanet.rs", "phone": "+381 843 366; +381 21843 011", "website": "www.bibliotekasirmai.rs", "addr:street": "Новосадска", "addr:housenumber": "387", "ref:RS:uk": 20282 }, "geometry": { "type": "Point", "coordinates": [ 19.887856, 45.408565 ] } },
{ "type": "Feature", "properties": { "amenity": "library", "name": "Културни центар општине Беочин - Матична библиотека „Јован Грчић Миленко”", "name:sr": "Културни центар општине Беочин - Матична библиотека „Јован Грчић Миленко”", "name:sr-Latn": "Kulturni centar opštine Beočin - Matična biblioteka „Jovan Grčić Milenko”", "name:en": "Library \"Jovan Grčić Milenko\" Beočin", "name:ru": "Культурный центр муниципалитета Беочин - Главная библиотека \"Йован Грчич Миленко\"", "name:zh": "贝尔钦城市文化中心-“约万·戈尔契奇·米兰科”主馆", "email": "bibliotekabeocin@gmail.com", "phone": "+381 870 230", "website": null, "addr:street": "Трг цара Лазара", "addr:housenumber": "1", "ref:RS:uk": 20303 }, "geometry": { "type": "Point", "coordinates": [ 19.72265, 45.20752 ] } },
{ "type": "Feature", "properties": { "amenity": "library", "name": "Културни центар-Библиотека „Гордана Тодоровић”, Сврљиг", "name:sr": "Културни центар-Библиотека „Гордана Тодоровић”, Сврљиг", "name:sr-Latn": "Kulturni centar-Biblioteka „Gordana Todorović”, Svrljig", "name:en": "Library - Cultural Center Svrljig", "name:ru": "Культурный центр-Библиотека \"Гордана Тодорович\", Сврлиг", "name:zh": "斯弗尔利格“格尔达娜·托多洛维奇”文化中心图书馆", "email": "kcsvrljig@yahoo.com", "phone": "+381 821 059; +381 062 245 071", "website": "www.kcsvrljig.rs", "addr:street": "Боре Прице", "addr:housenumber": "2", "ref:RS:uk": 22337 }, "geometry": { "type": "Point", "coordinates": [ 22.12407, 43.41198 ] } },
{ "type": "Feature", "properties": { "amenity": "library", "name": "Културно образовни центар „Чока” - библиотека", "name:sr": "Културно образовни центар „Чока” - библиотека", "name:sr-Latn": "Kulturno obrazovni centar „Čoka” - biblioteka", "name:en": "Library - Cultural-Educational Center Čoka", "name:ru": "Культурно-образовательный центр \"Чока\" - библиотека", "name:zh": "“朝卡”文化教育中心图书馆", "email": "bibliotekacoka@gmail.com", "phone": "+381 472 156; +381 23472-442", "website": "www.coka.org.rs", "addr:street": "Маршала Тита ", "addr:housenumber": "2", "ref:RS:uk": 22332 }, "geometry": { "type": "Point", "coordinates": [ 20.14047, 45.93765 ] } },
{ "type": "Feature", "properties": { "amenity": "library", "name": "Културно-образовни центар - Библиотека, Бољевац", "name:sr": "Културно-образовни центар - Библиотека, Бољевац", "name:sr-Latn": "Kulturno-obrazovni centar - Biblioteka, Boljevac", "name:en": "Library-Cultural-Educational Center Boljevac", "name:ru": "Культурно-образовательный центр - Библиотека, Болевац", "name:zh": "波列瓦茨文化教育中心图书馆", "email": "kultura@beotel.rs", "phone": "+381 463 390; +381 19463 737", "website": null, "addr:street": "Кнеза Милоша", "addr:housenumber": "4", "ref:RS:uk": 22333 }, "geometry": { "type": "Point", "coordinates": [ 21.95868, 43.82991 ] } },
{ "type": "Feature", "properties": { "amenity": "library", "name": "Матична библиотека „Вук Караџић” Пријепоље", "name:sr": "Матична библиотека „Вук Караџић” Пријепоље", "name:sr-Latn": "Matična biblioteka „Vuk Karadžić” Prijepolje", "name:en": "Main Library \"Vuk Karadžić\" Prijepolje", "name:ru": "Главная библиотека \"Вук Караджич\", Приеполе", "name:zh": "普利耶珀列“武克·卡拉季奇”中心图书馆", "email": "info@biblioteka-prijepolje.com", "phone": "+381 712 960", "website": "www.biblioteka-prijepolje.рс", "addr:street": "Санџачких бригада", "addr:housenumber": "2", "ref:RS:uk": 20269 }, "geometry": { "type": "Point", "coordinates": [ 19.64814, 43.39119 ] } },
{ "type": "Feature", "properties": { "amenity": "library", "name": "Матична библиотека „Љубомир Ненадовић”, Ваљево", "name:sr": "Матична библиотека „Љубомир Ненадовић”, Ваљево", "name:sr-Latn": "Matična biblioteka „Ljubomir Nenadović”, Valjevo", "name:en": "Main Library \"Ljubomir Nenadović\" Valjevo", "name:ru": "Главная библиотека \"Любомир Ненадович\", Валево", "name:zh": "瓦列沃“柳波米尔·奈纳多维奇”中心图书馆", "email": "vabibli@yahoo.com", "phone": "+381 291 121; +381 14291 120; +381 14291 130; +381 14291 131", "website": "www.maticnabiblioteka-va.org.rs", "addr:street": "Војводе Мишића", "addr:housenumber": "35", "ref:RS:uk": 20255 }, "geometry": { "type": "Point", "coordinates": [ 19.88379, 44.271 ] } },
{ "type": "Feature", "properties": { "amenity": "library", "name": "Матична библиотека „Светозар Марковић” Зајечар", "name:sr": "Матична библиотека „Светозар Марковић” Зајечар", "name:sr-Latn": "Matična biblioteka „Svetozar Marković” Zaječar", "name:en": "Main Library \"Svetozar Marković\" Zaječar", "name:ru": "Главная библиотека \"Светозар Маркович\", Заечар", "name:zh": "扎耶查尔“斯维托扎尔·马尔科维奇”中心图书馆", "email": "office@bibliotekazajecar.rs", "phone": "+381 442 111; +381 19442 109 ", "website": "www.bibliotekazajecar.rs", "addr:street": "Кумановска", "addr:housenumber": "2", "ref:RS:uk": 20296 }, "geometry": { "type": "Point", "coordinates": [ 22.27629, 43.90123 ] } },
{ "type": "Feature", "properties": { "amenity": "library", "name": "Народна библиотека „Антоније Поповић” Трговиште", "name:sr": "Народна библиотека „Антоније Поповић” Трговиште", "name:sr-Latn": "Narodna biblioteka „Antonije Popović” Trgovište", "name:en": "Public Library \"Antonije Popović\" Trgovište", "name:ru": "Народная библиотека \"Антоние Попович\", Трговиште", "name:zh": "特尔格维什泰“按托尼耶·波波维奇”国家图书馆", "email": "nbapopovic@gmail.com", "phone": "+381 452 336", "website": null, "addr:street": "Краља Петра I Карађорђевића ", "addr:housenumber": "1", "ref:RS:uk": 20221 }, "geometry": { "type": "Point", "coordinates": [ 22.08545, 42.36207 ] } },
{ "type": "Feature", "properties": { "amenity": "library", "name": "Народна библиотека „Бранислав Нушић” Нови Кнежевац", "name:sr": "Народна библиотека „Бранислав Нушић” Нови Кнежевац", "name:sr-Latn": "Narodna biblioteka „Branislav Nušić” Novi Kneževac", "name:en": "Library \"Branislav Nušić\" Novi Kneževac", "name:ru": "Народная библиотека \"Бранислав Нушич\", Нови-Кнежевац", "name:zh": "新克尼热瓦茨“布兰尼斯拉夫·努西奇”国家图书馆", "email": "bibliotekank@eunet.rs", "phone": "+381 83 597; +381 2382 881", "website": null, "addr:street": "Цара Душана", "addr:housenumber": "8", "ref:RS:uk": 20224 }, "geometry": { "type": "Point", "coordinates": [ 20.08987, 46.04684 ] } },
{ "type": "Feature", "properties": { "amenity": "library", "name": "Народна библиотека „Бранко Радичевић” Оџаци", "name:sr": "Народна библиотека „Бранко Радичевић” Оџаци", "name:sr-Latn": "Narodna biblioteka „Branko Radičević” Odžaci", "name:en": "Public Library \"Branko Radičević\" Odžaci", "name:ru": "Народная библиотека \"Бранко Радичевич\", Оджаци", "name:zh": "奥扎奇“布兰科·拉蒂切维奇”国家图书馆", "email": "biljabiblioteka@gmail.com", "phone": "+381 5743 179; +381 255742 425", "website": "www.bibliotekamuzejodzaci.org.rs", "addr:street": "Железничка", "addr:housenumber": "30", "ref:RS:uk": 20257 }, "geometry": { "type": "Point", "coordinates": [ 19.26044, 45.50825 ] } },
{ "type": "Feature", "properties": { "amenity": "library", "name": "Народна библиотека „Вељко Дугошевић”, Голубац", "name:sr": "Народна библиотека „Вељко Дугошевић”, Голубац", "name:sr-Latn": "Narodna biblioteka „Veljko Dugošević”, Golubac", "name:en": "Public Library \"Veljko Dugošević\" Golubac", "name:ru": "Народная библиотека \"Велько Дугошевич\", Голубац", "name:zh": "格鲁巴茨“韦利科·杜戈舍维奇”国家图书馆", "email": "biblioteka.golubac@gmail.com", "phone": "+381 678 136", "website": null, "addr:street": "Цара Лазара", "addr:housenumber": "1", "ref:RS:uk": 20203 }, "geometry": { "type": "Point", "coordinates": [ 21.62889, 44.65341 ] } },
{ "type": "Feature", "properties": { "amenity": "library", "name": "Народна библиотека „Вељко Петровић”, Бачка Паланка", "name:sr": "Народна библиотека „Вељко Петровић”, Бачка Паланка", "name:sr-Latn": "Narodna biblioteka „Veljko Petrović”, Bačka Palanka", "name:en": "Public Library \"Veljko Petrović\" Bačka Palanka", "name:ru": "Народная библиотека \"Велько Петрович\", Бачка-Паланка", "name:zh": "巴池帕兰卡“维利科·彼得洛维奇”国家图书馆", "email": "obradno@hallsys.net", "phone": "+381 6040 292; +381 216049 904", "website": "www.bibliotekabackapalanka.com", "addr:street": "Трг Братства и јединства", "addr:housenumber": "30", "ref:RS:uk": 20264 }, "geometry": { "type": "Point", "coordinates": [ 19.38204, 45.24959 ] } },
{ "type": "Feature", "properties": { "amenity": "library", "name": "Народна библиотека „др Милован Спасић” Рековац", "name:sr": "Народна библиотека „др Милован Спасић” Рековац", "name:sr-Latn": "Narodna biblioteka „dr Milovan Spasić” Rekovac", "name:en": "Public Library \"dr Milovan Spasić\" Rekovac", "name:ru": "Народная библиотека \"Д-р Милован Спасич\", Рековац", "name:zh": "莱科瓦茨“米洛万·斯帕西奇”国家图书馆", "email": "biblioteka.rekovac@mts.rs", "phone": "+381 8411 152", "website": "www.bibliotekarekovac.rs", "addr:street": "Краља Петра I", "addr:housenumber": "56", "ref:RS:uk": 20286 }, "geometry": { "type": "Point", "coordinates": [ 21.09395, 43.86318 ] } },
{ "type": "Feature", "properties": { "amenity": "library", "name": "Народна библиотека „Влада Аксентијевић”, Обреновац", "name:sr": "Народна библиотека „Влада Аксентијевић”, Обреновац", "name:sr-Latn": "Narodna biblioteka „Vlada Aksentijević”, Obrenovac", "name:en": "Library \"Vlada Aksentijević\" Obrenovac", "name:ru": "Народная библиотека \"Влада Аксентиевич\", Обреновац", "name:zh": "奥布莱诺瓦茨”弗拉达·阿克森提耶维奇“国家图书馆", "email": "bibliotekaobrenovac@yahoo.com", "phone": "+381 8721 129", "website": "www.bibliotekaobrenovac.org", "addr:street": "Милоша Обреновића", "addr:housenumber": "182", "ref:RS:uk": 20243 }, "geometry": { "type": "Point", "coordinates": [ 20.20561, 44.65534 ] } },
{ "type": "Feature", "properties": { "amenity": "library", "name": "Народна библиотека „Вук Караџић” Крагујевац", "name:sr": "Народна библиотека „Вук Караџић” Крагујевац", "name:sr-Latn": "Narodna biblioteka „Vuk Karadžić” Kragujevac", "name:en": "Public Library \"Vuk Karadžić\" Kragujevac", "name:ru": "Народная библиотека \"Вук Караджич\", Крагуевац", "name:zh": "克拉古耶瓦茨“武克·卡拉季奇”", "email": "nbkragujevac@gmail.com", "phone": "+381 300 026; +381 34300 161", "website": "www.nbkg.rs", "addr:street": "Др Зорана Ђинђића", "addr:housenumber": "10", "ref:RS:uk": 20238 }, "geometry": { "type": "Point", "coordinates": [ 20.91991, 44.01222 ] } },
{ "type": "Feature", "properties": { "amenity": "library", "name": "Народна библиотека „Вук Караџић”, Бач", "name:sr": "Народна библиотека „Вук Караџић”, Бач", "name:sr-Latn": "Narodna biblioteka „Vuk Karadžić”, Bač", "name:en": "Public Library \"Vuk Karadžić\" Bač", "name:ru": "Народная библиотека \"Вук Караджич\", Бач", "name:zh": "巴池“武克·卡拉季奇”国家图书馆", "email": "bibliotekabac@gmail.com", "phone": "+381 6070 777; +381 216070 063; +381 064 8511 903; 064 3463 663", "website": null, "addr:street": "Трг др Зорана Ђинђића", "addr:housenumber": "4", "ref:RS:uk": 20327 }, "geometry": { "type": "Point", "coordinates": [ 19.22978, 45.39267 ] } },
{ "type": "Feature", "properties": { "amenity": "library", "name": "Народна библиотека „Вук Караџић”, Бела Паланка", "name:sr": "Народна библиотека „Вук Караџић”, Бела Паланка", "name:sr-Latn": "Narodna biblioteka „Vuk Karadžić”, Bela Palanka", "name:en": "Public Library \"Vuk Karadžić\" - Local Heritage Bel", "name:ru": "Народная библиотека \"Вук Караджич\", Бела-Паланка", "name:zh": "贝拉帕兰卡“武克卡拉季奇”国家图书馆", "email": "vukbiblioteka@gmail.com", "phone": "+381 855 005", "website": null, "addr:street": "Крсте Јоцића", "addr:housenumber": "4", "ref:RS:uk": 20329 }, "geometry": { "type": "Point", "coordinates": [ 22.31025, 43.21791 ] } },
{ "type": "Feature", "properties": { "amenity": "library", "name": "Народна библиотека „Вук Караџић”, Бојник", "name:sr": "Народна библиотека „Вук Караџић”, Бојник", "name:sr-Latn": "Narodna biblioteka „Vuk Karadžić”, Bojnik", "name:en": "Public Library \"Vuk Karadžić\" Bojnik", "name:ru": "Народная библиотека \"Вук Караджич\", Бойник", "name:zh": "波伊尼克“武克·卡拉季奇”国家图书馆", "email": "biblbojnik@mts.rs", "phone": "+381 821 138", "website": null, "addr:street": "Трг слободе", "addr:housenumber": "22", "ref:RS:uk": 20272 }, "geometry": { "type": "Point", "coordinates": [ 21.72226, 43.01244 ] } },
{ "type": "Feature", "properties": { "amenity": "library", "name": "Народна библиотека „Вук Караџић”, Велико Градиште", "name:sr": "Народна библиотека „Вук Караџић”, Велико Градиште", "name:sr-Latn": "Narodna biblioteka „Vuk Karadžić”, Veliko Gradište", "name:en": "Public Library \"Vuk Karadžić\" Veliko Gradište", "name:ru": "Народная библиотека \"Вук Караджич\", Велико-Градиште", "name:zh": "大格拉迪什泰“武克·卡拉季奇”国家图书馆", "email": "bibliotekavg@mts.rs", "phone": "+381 662 208; +381 063 207 850", "website": "www.bibliotekavg.com", "addr:street": "Кнеза Лазара", "addr:housenumber": "6", "ref:RS:uk": 20220 }, "geometry": { "type": "Point", "coordinates": [ 21.51854, 44.76646 ] } },
{ "type": "Feature", "properties": { "amenity": "library", "name": "Народна библиотека „Данило Киш”, Врбас", "name:sr": "Народна библиотека „Данило Киш”, Врбас", "name:sr-Latn": "Narodna biblioteka „Danilo Kiš”, Vrbas", "name:en": "Public Library \"Danilo Kiš\" Vrbas", "name:ru": "Народная библиотека \"Данило Киш\", Врбас", "name:zh": "弗尔巴茨“达尼洛·基什”国家图书馆", "email": "biblvrbas@mts.rs", "phone": "+381 705 638", "website": "www.vrbasbiblioteka.org.rs", "addr:street": "Маршала Тита", "addr:housenumber": "87", "ref:RS:uk": 20245 }, "geometry": { "type": "Point", "coordinates": [ 19.6393, 45.57273 ] } },
{ "type": "Feature", "properties": { "amenity": "library", "name": "Народна библиотека „Десанка Максимовић”, Власотинце", "name:sr": "Народна библиотека „Десанка Максимовић”, Власотинце", "name:sr-Latn": "Narodna biblioteka „Desanka Maksimović”, Vlasotince", "name:en": "Public Library\" Desanka Maksimović\" Vlasotince", "name:ru": "Народная библиотека \"Десанка Максимович\", Власотинце", "name:zh": "弗拉索廷策“德桑卡·马科西莫维奇”国家图书馆", "email": "biblioteka@vlasotince.org.rs", "phone": "+381 875 512", "website": "bibliotekavlasotince.org.rs", "addr:street": "Лоле Рибара", "addr:housenumber": "2", "ref:RS:uk": 20266 }, "geometry": { "type": "Point", "coordinates": [ 22.1286, 42.96478 ] } },
{ "type": "Feature", "properties": { "amenity": "library", "name": "Народна библиотека „Детко Петров”, Димитровград", "name:sr": "Народна библиотека „Детко Петров”, Димитровград", "name:sr-Latn": "Narodna biblioteka „Detko Petrov”, Dimitrovgrad", "name:en": "Public Library \"Detko Petrov\"Dimitrovgrad", "name:ru": "Народная библиотека \"Детко Петров\", Димитровград", "name:zh": "迪米特洛夫格莱德“德特科·彼得罗夫”国家图书馆", "email": "nbdetkopetrov@mts.rs", "phone": "+381 360 042; +381 18360 035; +381 066 5360 042", "website": null, "addr:street": "Сутјеска", "addr:housenumber": "14", "ref:RS:uk": 20206 }, "geometry": { "type": "Point", "coordinates": [ 22.77667, 43.01827 ] } },
{ "type": "Feature", "properties": { "amenity": "library", "name": "Народна библиотека „Доситеј Новаковић”  Неготин", "name:sr": "Народна библиотека „Доситеј Новаковић”  Неготин", "name:sr-Latn": "Narodna biblioteka „Dositej Novaković”  Negotin", "name:en": "Public Library Negotin", "name:ru": "Народная библиотека \"Досифей Новакович\", Неготин", "name:zh": "内戈廷“多西泰伊·诺瓦克维奇”国家图书馆", "email": "bibnegotin@mts.rs", "phone": "+381 542 380; +381 19546 665", "website": "www.bibliotekanegotin.org.rs", "addr:street": "ЈНА", "addr:housenumber": "2", "ref:RS:uk": 20277 }, "geometry": { "type": "Point", "coordinates": [ 22.53126, 44.22931 ] } },
{ "type": "Feature", "properties": { "amenity": "library", "name": "Народна библиотека „Др Ђорђе Натошевић”, Инђија", "name:sr": "Народна библиотека „Др Ђорђе Натошевић”, Инђија", "name:sr-Latn": "Narodna biblioteka „Dr Đorđe Natošević”, Inđija", "name:en": "Public Library \"Dr Đorđe Natošević\" Inđija", "name:ru": "Народная библиотека Инджия", "name:zh": "因吉亚国家图书馆", "email": "info.biblioteka@indjija.rs", "phone": "+381 551 378; +381 22551 847", "website": "www.bibliotekaindjija.rs", "addr:street": "Трг слободе", "addr:housenumber": "2", "ref:RS:uk": 20294 }, "geometry": { "type": "Point", "coordinates": [ 20.07935, 45.04806 ] } },
{ "type": "Feature", "properties": { "amenity": "library", "name": "Народна библиотека „Душан Матић” Ћуприја", "name:sr": "Народна библиотека „Душан Матић” Ћуприја", "name:sr-Latn": "Narodna biblioteka „Dušan Matić” Ćuprija", "name:en": "Public Library \"Dušan Matić\" Ćuprija", "name:ru": "Народная библиотека \"Душан Матич\", Чуприя", "name:zh": "丘普里亚“杜山·马蒂奇”国家图书馆", "email": "bibliotekacuprija@mts.rs", "phone": "+381 8470 843", "website": "www.biblioteka.cuprija.rs", "addr:street": "Милице Ценић", "addr:housenumber": "15", "ref:RS:uk": 20333 }, "geometry": { "type": "Point", "coordinates": [ 21.37275, 43.93585 ] } },
{ "type": "Feature", "properties": { "amenity": "library", "name": "Народна библиотека „Ђура Јакшић” Петровац", "name:sr": "Народна библиотека „Ђура Јакшић” Петровац", "name:sr-Latn": "Narodna biblioteka „Đura Jakšić” Petrovac", "name:en": "Public Library \"Đura Jakšić\" Petrovac na Mlavi", "name:ru": "Народная библиотека \"Джура Якшич\", Петровац", "name:zh": "彼得洛瓦茨“久拉·亚克西奇”国家图书馆", "email": "bibliotekapetrovac@gmail.com", "phone": "+381 331 082", "website": "www.biblioteka-djurajaksic.org.rs", "addr:street": "Радета Московлића", "addr:housenumber": "14", "ref:RS:uk": 20273 }, "geometry": { "type": "Point", "coordinates": [ 21.41949, 44.37854 ] } },
{ "type": "Feature", "properties": { "amenity": "library", "name": "Народна библиотека „Ђура Јакшић” Српска Црња", "name:sr": "Народна библиотека „Ђура Јакшић” Српска Црња", "name:sr-Latn": "Narodna biblioteka „Đura Jakšić” Srpska Crnja", "name:en": "Public Library \"Đura Jakšić\" Srpska Crnja", "name:ru": "Народная библиотека \"Джура Якшич\", Српска-Црня", "name:zh": "塞尔维亚策尔尼亚“久拉·亚克西奇”国家图书馆", "email": "bibliotekasc@gmail.com", "phone": "+381 811 326", "website": "www.bibliotekasc.org.rs", "addr:street": "Краља Александра", "addr:housenumber": "65", "ref:RS:uk": 20219 }, "geometry": { "type": "Point", "coordinates": [ 20.69551, 45.72587 ] } },
{ "type": "Feature", "properties": { "amenity": "library", "name": "Народна библиотека „Илија М. Петровић” Пожаревац", "name:sr": "Народна библиотека „Илија М. Петровић” Пожаревац", "name:sr-Latn": "Narodna biblioteka „Ilija M. Petrović” Požarevac", "name:en": "Public Library \"Ilija M. Petrović\" Požarevac", "name:ru": "Народная библиотека \"Илья М. Петрович\", Пожаревац", "name:zh": "波扎莱瓦茨“伊利亚·姆·彼得洛维奇”国家图书馆", "email": "biblioteka1847@nbpo.rs", "phone": "+381 221 957", "website": "www.nbpo.rs", "addr:street": "Дринска", "addr:housenumber": "2", "ref:RS:uk": 20237 }, "geometry": { "type": "Point", "coordinates": [ 21.18647, 44.62041 ] } },
{ "type": "Feature", "properties": { "amenity": "library", "name": "Народна библиотека „Јанко Веселиновић”, Богатић", "name:sr": "Народна библиотека „Јанко Веселиновић”, Богатић", "name:sr-Latn": "Narodna biblioteka „Janko Veselinović”, Bogatić", "name:en": "Public Library \"Janko Veselinović\"- Cultural-Educa", "name:ru": "Народная библиотека “Янко Веселинович”, Богатич", "name:zh": "波加蒂奇“杨科·维塞利诺维奇”国家图书馆", "email": "bibliotekajanko@gmail.com", "phone": "+381 7786  113", "website": "www.bibliotekajanko.rs", "addr:street": "Мике Витомировића", "addr:housenumber": "6", "ref:RS:uk": 22336 }, "geometry": { "type": "Point", "coordinates": [ 19.4812, 44.83385 ] } },
{ "type": "Feature", "properties": { "amenity": "library", "name": "Народна библиотека „Јефимија” Трстеник", "name:sr": "Народна библиотека „Јефимија” Трстеник", "name:sr-Latn": "Narodna biblioteka „Jefimija” Trstenik", "name:en": "Public Library \"Jefimija\" Trstenik", "name:ru": "Народная библиотека \"Ефимия\", Трстеник", "name:zh": "特尔斯特尼克“耶菲米亚“国家图书馆", "email": "nbjefimija@ptt.rs", "phone": "+381 711 212; +381 37710 760", "website": "www.bibliotekajefimija.rs", "addr:street": "Кнегиње Милице", "addr:housenumber": "16", "ref:RS:uk": 20313 }, "geometry": { "type": "Point", "coordinates": [ 20.99973, 43.61975 ] } },
{ "type": "Feature", "properties": { "amenity": "library", "name": "Народна библиотека „Јован Дучић” Сечањ", "name:sr": "Народна библиотека „Јован Дучић” Сечањ", "name:sr-Latn": "Narodna biblioteka „Jovan Dučić” Sečanj", "name:en": "Public Library - Cultural-Educational Center Sečanj", "name:ru": "Народная библиотека „Йован Дучич\", Сечань", "name:zh": "塞查尼“约万·杜契奇”国家图书馆", "email": "biblioteka.secanj@gmail.com", "phone": null, "website": null, "addr:street": "Партизански пут ", "addr:housenumber": "55", "ref:RS:uk": 22330 }, "geometry": { "type": "Point", "coordinates": [ 20.77178, 45.36423 ] } },
{ "type": "Feature", "properties": { "amenity": "library", "name": "Народна библиотека „Јован Поповић”, Кикинда", "name:sr": "Народна библиотека „Јован Поповић”, Кикинда", "name:sr-Latn": "Narodna biblioteka „Jovan Popović”, Kikinda", "name:en": "Public Library \"Jovan Popović\" Kikinda", "name:ru": "Народная библиотека Кикинда", "name:zh": "基金达国家图书馆", "email": "info@kibiblioteka.org.rs", "phone": "+381 316 081; +381 23316 082", "website": "www.kibiblioteka.org.rs", "addr:street": "Трг Српских добровољаца ", "addr:housenumber": "57", "ref:RS:uk": 20248 }, "geometry": { "type": "Point", "coordinates": [ 20.47045, 45.83332 ] } },
{ "type": "Feature", "properties": { "amenity": "library", "name": "Народна библиотека „Лаза Костић”, Београд", "name:sr": "Народна библиотека „Лаза Костић”, Београд", "name:sr-Latn": "Narodna biblioteka „Laza Kostić”, Beograd", "name:en": "Municipal Library \"Laza Kostić\" Beograd", "name:ru": "Народная библиотека \"Лаза Костич\", Белград", "name:zh": "贝尔格莱德“拉扎·科斯蒂奇”国家图书馆", "email": "biblioteka.cukarica@gmail.com", "phone": "+381 3555 123", "website": "www.bgb.rs", "addr:street": "Тургењевљева ", "addr:housenumber": "5", "ref:RS:uk": 20325 }, "geometry": { "type": "Point", "coordinates": [ 20.41722, 44.78361 ] } },
{ "type": "Feature", "properties": { "amenity": "library", "name": "Народна библиотека „Милош Требињац”, Бајина Башта", "name:sr": "Народна библиотека „Милош Требињац”, Бајина Башта", "name:sr-Latn": "Narodna biblioteka „Miloš Trebinjac”, Bajina Bašta", "name:en": "Public Library \"Miloš Trebinjac\" Bajina Bašta", "name:ru": "Народная библиотека \"Милош Требиняц\", Баина-Башта", "name:zh": "巴伊那·巴什塔“米洛什·特雷比尼亚茨”国家图书馆", "email": "bibliotekab.basta@mts.rs", "phone": "+381 869 048", "website": null, "addr:street": "Вука Караџића", "addr:housenumber": "13", "ref:RS:uk": 20302 }, "geometry": { "type": "Point", "coordinates": [ 19.56525, 43.97187 ] } },
{ "type": "Feature", "properties": { "amenity": "library", "name": "Народна библиотека „Миодраг Борисављевић”, Апатин", "name:sr": "Народна библиотека „Миодраг Борисављевић”, Апатин", "name:sr-Latn": "Narodna biblioteka „Miodrag Borisavljević”, Apatin", "name:en": "Public Library Apatin", "name:ru": "Народная библиотека \"Миодраг Борисавлевич\", Апатин", "name:zh": "阿帕丁“米尔德拉格·波利萨夫列维奇”国家图书馆", "email": "bibliotekaapatin@gmail.com", "phone": "+381 778 835 ; +381 25773 913", "website": "www.bibliotekaapatin.rs", "addr:street": "Трг Николе Тесле ", "addr:housenumber": "12", "ref:RS:uk": 20271 }, "geometry": { "type": "Point", "coordinates": [ 18.97909, 45.67375 ] } },
{ "type": "Feature", "properties": { "amenity": "library", "name": "Народна библиотека „Његош” Књажевац", "name:sr": "Народна библиотека „Његош” Књажевац", "name:sr-Latn": "Narodna biblioteka „Njegoš” Knjaževac", "name:en": "Public Library \"Njegoš\" Knjaževac", "name:ru": "Народная библиотека \"Негош\", Княжевац", "name:zh": "克尼亚热瓦茨“涅戈什”国家图书馆", "email": "biblio@biblio-knjazevac.org", "phone": "+381 733 157; +381 19730 153", "website": "www.biblio-knjazevac.org", "addr:street": "Бранка Радичевића", "addr:housenumber": "1", "ref:RS:uk": 20212 }, "geometry": { "type": "Point", "coordinates": [ 22.25549, 43.56869 ] } },
{ "type": "Feature", "properties": { "amenity": "library", "name": "Народна библиотека „Проф. др Александар Ивић”, Жабари", "name:sr": "Народна библиотека „Проф. др Александар Ивић”, Жабари", "name:sr-Latn": "Narodna biblioteka „Prof. dr Aleksandar Ivić”, Žabari", "name:en": "Public Library \"Prof. Dr. Aleksandar Ivić\" Žabari", "name:ru": "Народная библиотека, Жабари", "name:zh": "扎巴里国家图书馆", "email": "bibliotekazabari@hotmail.рс", "phone": "+381 250 145", "website": null, "addr:street": "Кнеза Милоша", "addr:housenumber": "93", "ref:RS:uk": 20344 }, "geometry": { "type": "Point", "coordinates": [ 21.21561, 44.35826 ] } },
{ "type": "Feature", "properties": { "amenity": "library", "name": "Народна библиотека „Радислав Никчевић”, Јагодина", "name:sr": "Народна библиотека „Радислав Никчевић”, Јагодина", "name:sr-Latn": "Narodna biblioteka „Radislav Nikčević”, Jagodina", "name:en": "Public Library `Radislav Nikčević` Jagodina", "name:ru": "Народная библиотека Ягодина", "name:zh": "雅戈蒂那国家图书馆", "email": "nbjag@ptt.rs", "phone": "+381 244 580; +381 35221 817; +381 35244 480", "website": "www.jabooka.org.rs", "addr:street": "Кнегиње Милице", "addr:housenumber": "2-4", "ref:RS:uk": 20240 }, "geometry": { "type": "Point", "coordinates": [ 21.25939, 43.97922 ] } },
{ "type": "Feature", "properties": { "amenity": "library", "name": "Народна библиотека „Радоје Домановић” Лесковац", "name:sr": "Народна библиотека „Радоје Домановић” Лесковац", "name:sr-Latn": "Narodna biblioteka „Radoje Domanović” Leskovac", "name:en": "Public Library \"Radoje Domanović\" Leskovac", "name:ru": "Народная библиотека \"Радое Доманович\", Лесковац", "name:zh": "莱斯科瓦茨“拉多耶·多玛诺维奇”国家图书馆", "email": "lebiblioteka@gmail.com", "phone": "+381 3150 080; +381 163150 084", "website": "www.nbleskovac.rs", "addr:street": "Булевар ослобођења", "addr:housenumber": "61", "ref:RS:uk": 20278 }, "geometry": { "type": "Point", "coordinates": [ 21.94757, 42.99669 ] } },
{ "type": "Feature", "properties": { "amenity": "library", "name": "Народна библиотека „Радоје Домановић” Рача", "name:sr": "Народна библиотека „Радоје Домановић” Рача", "name:sr-Latn": "Narodna biblioteka „Radoje Domanović” Rača", "name:en": "Public Library `Radoje Domanović` Rača", "name:ru": "Народная библиотека \"Радое Доманович\", Рача", "name:zh": "拉查“拉多耶·多玛诺维奇”国家图书馆", "email": "raca.biblioteka@gmail.com", "phone": "+381 751 206", "website": null, "addr:street": "Карађорђева", "addr:housenumber": "60", "ref:RS:uk": 20274 }, "geometry": { "type": "Point", "coordinates": [ 20.97889, 44.22723 ] } },
{ "type": "Feature", "properties": { "amenity": "library", "name": "Народна библиотека „Рака Драинац”, Блаце", "name:sr": "Народна библиотека „Рака Драинац”, Блаце", "name:sr-Latn": "Narodna biblioteka „Raka Drainac”, Blace", "name:en": "Public Library \"Raka Drainac\" Blace", "name:ru": "Народная библиотека \"Рака Драинац\", Блаце", "name:zh": "布拉策“拉卡·德拉伊纳茨”国家图书馆", "email": "rakadrainac@mts.rs", "phone": "+381 371 674", "website": null, "addr:street": "Краља Петра I", "addr:housenumber": "13", "ref:RS:uk": 20318 }, "geometry": { "type": "Point", "coordinates": [ 21.28935, 43.29599 ] } },
{ "type": "Feature", "properties": { "amenity": "library", "name": "Народна библиотека „Ресавска школа”, Деспотовац", "name:sr": "Народна библиотека „Ресавска школа”, Деспотовац", "name:sr-Latn": "Narodna biblioteka „Resavska škola”, Despotovac", "name:en": "Public Library \"Resava School\" Despotovac", "name:ru": "Народная библиотека \"Ресавская школа\", Деспотовац", "name:zh": "德斯波托瓦茨“莱萨夫斯卡学校”国家图书馆", "email": "resavska.skola@gmail.com", "phone": "+381 611 172; +381 061 1133 894", "website": "www.resavskaskola.rs", "addr:street": "Деспота Стевана Лазаревића", "addr:housenumber": "18", "ref:RS:uk": 20205 }, "geometry": { "type": "Point", "coordinates": [ 21.43915, 44.09478 ] } },
{ "type": "Feature", "properties": { "amenity": "library", "name": "Народна библиотека „Свети Сава” Аранђеловац", "name:sr": "Народна библиотека „Свети Сава” Аранђеловац", "name:sr-Latn": "Narodna biblioteka „Sveti Sava” Aranđelovac", "name:en": "Public Library \"Sveti Sava\" Aranđelovac", "name:ru": "Народная библиотека \"Святой Савва\", Аранджеловац", "name:zh": "阿兰杰洛瓦茨“圣萨瓦”国家图书馆", "email": "info@nbssa.rs", "phone": "+381 712 148", "website": "www.nbssa.rs", "addr:street": "Љубићка", "addr:housenumber": "1", "ref:RS:uk": 20284 }, "geometry": { "type": "Point", "coordinates": [ 20.55564, 44.30565 ] } },
{ "type": "Feature", "properties": { "amenity": "library", "name": "Народна библиотека „Симеон Пишчевић” Шид", "name:sr": "Народна библиотека „Симеон Пишчевић” Шид", "name:sr-Latn": "Narodna biblioteka „Simeon Piščević” Šid", "name:en": "Library - Cultural-Educational Center Šid", "name:ru": "Народная библиотека \"Симеон Пишчевич\", Шид", "name:zh": "西得“西梅翁·皮什切维奇”国家图书馆", "email": "bibliosid@mts.rs", "phone": "+381 716 844", "website": "www.bibliotekasid.rs", "addr:street": "Петра Кочића", "addr:housenumber": "1", "ref:RS:uk": 22331 }, "geometry": { "type": "Point", "coordinates": [ 19.22292, 45.12542 ] } },
{ "type": "Feature", "properties": { "amenity": "library", "name": "Народна библиотека „Сретен Марић”, Косјерић", "name:sr": "Народна библиотека „Сретен Марић”, Косјерић", "name:sr-Latn": "Narodna biblioteka „Sreten Marić”, Kosjerić", "name:en": "Narodna biblioteka Kosjerić", "name:ru": "Народная библиотека Косьерич", "name:zh": "科谢里奇国家图书馆", "email": "bibliokos@gmail.com", "phone": "+381 781 624", "website": null, "addr:street": "Олге Грбић", "addr:housenumber": "5", "ref:RS:uk": 22334 }, "geometry": { "type": "Point", "coordinates": [ 19.90821, 43.99696 ] } },
{ "type": "Feature", "properties": { "amenity": "library", "name": "Народна библиотека „Стеван Сремац” Ниш", "name:sr": "Народна библиотека „Стеван Сремац” Ниш", "name:sr-Latn": "Narodna biblioteka „Stevan Sremac” Niš", "name:en": "Public Library \"Stevan Sremac\" Niš", "name:ru": "Народная библиотека \"Стеван Сремац\", Ниш", "name:zh": "尼什“斯太凡·斯雷玛茨”国家图书馆", "email": "narodna.biblioteka.nis@gmail.com", "phone": "+381 511 403; +381 18511 410", "website": "www.nbss.rs", "addr:street": "Боривоја Гојковића", "addr:housenumber": "9", "ref:RS:uk": 20305 }, "geometry": { "type": "Point", "coordinates": [ 21.89272, 43.31749 ] } },
{ "type": "Feature", "properties": { "amenity": "library", "name": "Народна библиотека „Стеван Сремац” Сокобања", "name:sr": "Народна библиотека „Стеван Сремац” Сокобања", "name:sr-Latn": "Narodna biblioteka „Stevan Sremac” Sokobanja", "name:en": "Public Library \"Stevan Sremac\" Sokobanja", "name:ru": null, "name:zh": null, "email": "sbbiblioteka@mts.rs", "phone": "+381 830 251", "website": "www.bibliotekasokobanja.rs", "addr:street": "Алексе Маркишића", "addr:housenumber": "1", "ref:RS:uk": 20230 }, "geometry": { "type": "Point", "coordinates": [ 21.87063, 43.64449 ] } },
{ "type": "Feature", "properties": { "amenity": "library", "name": "Народна библиотека „Стефан Првовенчани” Краљево", "name:sr": "Народна библиотека „Стефан Првовенчани” Краљево", "name:sr-Latn": "Narodna biblioteka „Stefan Prvovenčani” Kraljevo", "name:en": "Public Library \"Stefan Prvovenčani'' Kraljevo", "name:ru": "Народная библиотека \"Стефан Первовенчанный\", Кралево", "name:zh": "克拉列沃“斯太芬·普勒沃文查尼”国家图书馆", "email": "biblioteka@tron.rs", "phone": "+381 321 377; +381 36319 750", "website": "www.kv-biblio.org.rs", "addr:street": "Цара Лазара", "addr:housenumber": "36", "ref:RS:uk": 20287 }, "geometry": { "type": "Point", "coordinates": [ 20.6881, 43.72411 ] } },
{ "type": "Feature", "properties": { "amenity": "library", "name": "Народна библиотека „Стојан Трумић” Тител", "name:sr": "Народна библиотека „Стојан Трумић” Тител", "name:sr-Latn": "Narodna biblioteka „Stojan Trumić” Titel", "name:en": "Public Library \"Stojan Trumić\"", "name:ru": "Народная библиотека \"Стоян Трумич\", Тител", "name:zh": "提泰尔“斯托扬·特鲁米奇”国家图书馆", "email": "bibliotekatitel@eunet.rs", "phone": "+381 2960 409; +381 212960 185", "website": "www.bibliotekastojantrunic.org.rs", "addr:street": "Главна", "addr:housenumber": "10-12", "ref:RS:uk": 20348 }, "geometry": { "type": "Point", "coordinates": [ 20.30967, 45.20462 ] } },
{ "type": "Feature", "properties": { "amenity": "library", "name": "Народна библиотека Бабушница", "name:sr": "Народна библиотека Бабушница", "name:sr-Latn": "Narodna biblioteka Babušnica", "name:en": "Public Library Babušnica", "name:ru": "Народная библиотека Бабушница", "name:zh": "巴布什尼查国家图书馆", "email": "bibliotekababusnica@gmail.com", "phone": "+381 385 040; +381 18383 144", "website": null, "addr:street": "Живојина Николића Брке", "addr:housenumber": "2", "ref:RS:uk": 22324 }, "geometry": { "type": "Point", "coordinates": [ 22.41241, 43.06589 ] } },
{ "type": "Feature", "properties": { "amenity": "library", "name": "Народна библиотека Бела Црква", "name:sr": "Народна библиотека Бела Црква", "name:sr-Latn": "Narodna biblioteka Bela Crkva", "name:en": "Public Library Bela Crkva", "name:ru": "Народная библиотека, Бела-Црква", "name:zh": "贝拉策尔克瓦国家图书馆", "email": "bibliotekabc@gmail.com", "phone": "+381 851 311", "website": "bibliotekabc.org.rs", "addr:street": "1. октобар", "addr:housenumber": "57", "ref:RS:uk": 20201 }, "geometry": { "type": "Point", "coordinates": [ 21.42458, 44.90242 ] } },
{ "type": "Feature", "properties": { "amenity": "library", "name": "Народна библиотека Бечеј", "name:sr": "Народна библиотека Бечеј", "name:sr-Latn": "Narodna biblioteka Bečej", "name:en": "Public Library Bečej", "name:ru": "Народная библиотека Бечей", "name:zh": "贝切伊国家图书馆", "email": "biblioteka@becej.rs", "phone": "+381 6912 747", "website": "www.biblioteka-becej.rs", "addr:street": "Главна", "addr:housenumber": "11", "ref:RS:uk": 20321 }, "geometry": { "type": "Point", "coordinates": [ 20.04641, 45.61693 ] } },
{ "type": "Feature", "properties": { "amenity": "library", "name": "Народна библиотека Бор", "name:sr": "Народна библиотека Бор", "name:sr-Latn": "Narodna biblioteka Bor", "name:en": "Public Library Bor", "name:ru": "Народная библиотека, Бор ", "name:zh": "波尔国家图书馆", "email": "nbbor@mts.rs", "phone": "+381 423 592", "website": "www.biblioteka-bor.org.rs", "addr:street": "Моше Пијаде", "addr:housenumber": "19", "ref:RS:uk": 20295 }, "geometry": { "type": "Point", "coordinates": [ 22.09943, 44.07486 ] } },
{ "type": "Feature", "properties": { "amenity": "library", "name": "Народна библиотека Брус", "name:sr": "Народна библиотека Брус", "name:sr-Latn": "Narodna biblioteka Brus", "name:en": "Public Library Brus", "name:ru": "Народная библиотека Брус", "name:zh": "布鲁斯国家图书馆", "email": "bibliotekabrus@gmail.com", "phone": "+381 3825 465", "website": "www.bibliotekabrus.rs", "addr:street": "Братиславе Петровић", "addr:housenumber": "15", "ref:RS:uk": 25314 }, "geometry": { "type": "Point", "coordinates": [ 21.03248, 43.38318 ] } },
{ "type": "Feature", "properties": { "amenity": "library", "name": "Народна библиотека Житорађа", "name:sr": "Народна библиотека Житорађа", "name:sr-Latn": "Narodna biblioteka Žitorađa", "name:en": "Public Library Žitoradja", "name:ru": "Народная библиотека Житораджа", "name:zh": "日托拉加国家图书馆", "email": "nbzito@mts.rs", "phone": "+381 8362 074; +381 062 8824 167", "website": null, "addr:street": "Топлички хероји", "addr:housenumber": "53a", "ref:RS:uk": 20208 }, "geometry": { "type": "Point", "coordinates": [ 21.71099, 43.18926 ] } },
{ "type": "Feature", "properties": { "amenity": "library", "name": "Народна библиотека Крушевац", "name:sr": "Народна библиотека Крушевац", "name:sr-Latn": "Narodna biblioteka Kruševac", "name:en": "Public Library Kruševac", "name:ru": "Народная библиотека Крушевац", "name:zh": "克鲁舍瓦茨国家图书馆", "email": "bibliotekakrusevac@gmail.com", "phone": "+381 443 168", "website": "www.nbks.org.rs", "addr:street": "Трг Косовских јунака", "addr:housenumber": "1", "ref:RS:uk": 20246 }, "geometry": { "type": "Point", "coordinates": [ 21.32837, 43.58074 ] } },
{ "type": "Feature", "properties": { "amenity": "library", "name": "Народна библиотека Кула", "name:sr": "Народна библиотека Кула", "name:sr-Latn": "Narodna biblioteka Kula", "name:en": "Public Library Kula", "name:ru": "Народная библиотека Кула", "name:zh": "库拉国际图书馆", "email": "bibliotekakula@yahoo.com", "phone": "+381 722 231; +381 25729 710", "website": "www.bibliotekakula.com", "addr:street": "Лењинова", "addr:housenumber": "17", "ref:RS:uk": 20214 }, "geometry": { "type": "Point", "coordinates": [ 19.53235, 45.60854 ] } },
{ "type": "Feature", "properties": { "amenity": "library", "name": "Народна библиотека Куршумлија", "name:sr": "Народна библиотека Куршумлија", "name:sr-Latn": "Narodna biblioteka Kuršumlija", "name:en": "Public Library Kuršumlija", "name:ru": "Народная библиотека Куршумлия", "name:zh": "库尔舒姆利亚国家图书馆", "email": "bibliotekak@mts.rs", "phone": "+381 381 754", "website": "www.nbk.org.rs", "addr:street": "Карађорђева", "addr:housenumber": "18а", "ref:RS:uk": 20252 }, "geometry": { "type": "Point", "coordinates": [ 21.27068, 43.13754 ] } },
{ "type": "Feature", "properties": { "amenity": "library", "name": "Народна библиотека Мајданпек", "name:sr": "Народна библиотека Мајданпек", "name:sr-Latn": "Narodna biblioteka Majdanpek", "name:en": "Public Library Majdanpek", "name:ru": "Народная библиотека Майданпек", "name:zh": "马伊丹佩克国家图书馆", "email": "bibliotekampek@gmail.com", "phone": "+381 582 160", "website": null, "addr:street": "28. марта", "addr:housenumber": "21", "ref:RS:uk": 20326 }, "geometry": { "type": "Point", "coordinates": [ 21.93623, 44.42395 ] } },
{ "type": "Feature", "properties": { "amenity": "library", "name": "Народна библиотека Мерошина", "name:sr": "Народна библиотека Мерошина", "name:sr-Latn": "Narodna biblioteka Merošina", "name:en": "Public Library Merošina", "name:ru": "Народная библиотека Мерошина", "name:zh": "梅洛西那国家图书馆", "email": "biblioteka.merosina@yahoo.com", "phone": "+381 4892 022", "website": null, "addr:street": "Цара Лазара", "addr:housenumber": "19", "ref:RS:uk": 20217 }, "geometry": { "type": "Point", "coordinates": [ 21.71994, 43.28281 ] } },
{ "type": "Feature", "properties": { "amenity": "library", "name": "Народна библиотека Нови Бечеј", "name:sr": "Народна библиотека Нови Бечеј", "name:sr-Latn": "Narodna biblioteka Novi Bečej", "name:en": "Public Library Novi Bečej", "name:ru": "Народная библиотека Нови-Бечей", "name:zh": "新贝切伊国家图书馆", "email": "narbibliotekanb@yahoo.com", "phone": "+381 771 331", "website": null, "addr:street": "Жарка Зрењанина", "addr:housenumber": "9", "ref:RS:uk": 20263 }, "geometry": { "type": "Point", "coordinates": [ 20.13095, 45.59622 ] } },
{ "type": "Feature", "properties": { "amenity": "library", "name": "Народна библиотека Осечина", "name:sr": "Народна библиотека Осечина", "name:sr-Latn": "Narodna biblioteka Osečina", "name:en": "Public Library Osečina Osečina", "name:ru": "Народная библиотека \"Осечина\"", "name:zh": "”奥塞契纳“国家图书馆", "email": "bibliotekaosecina@gmail.com", "phone": "+381 451 111; +381 14452 324; +381 14455 118; +381 064 3467 383", "website": "www.biblioteka-osecina.org", "addr:street": "Браће Недић", "addr:housenumber": "18", "ref:RS:uk": 20328 }, "geometry": { "type": "Point", "coordinates": [ 19.60174, 44.37336 ] } },
{ "type": "Feature", "properties": { "amenity": "library", "name": "Народна библиотека Пирот", "name:sr": "Народна библиотека Пирот", "name:sr-Latn": "Narodna biblioteka Pirot", "name:en": "Public Library Pirot", "name:ru": "Народная библиотека Пирот", "name:zh": "皮洛特国家图书馆", "email": "bibliopirot@ptt.rs", "phone": "+381 312 439; +381 10313 744; +381 10313 745", "website": "www.nbpi.org.rs", "addr:street": "Бранка Радичевића", "addr:housenumber": "10", "ref:RS:uk": 20260 }, "geometry": { "type": "Point", "coordinates": [ 22.58638, 43.15546 ] } },
{ "type": "Feature", "properties": { "amenity": "library", "name": "Народна библиотека Пландиште", "name:sr": "Народна библиотека Пландиште", "name:sr-Latn": "Narodna biblioteka Plandište", "name:en": "Public Library Plandište", "name:ru": "Народная библиотека Пландиште", "name:zh": "普兰迪什特国家图书馆", "email": "plandbiblio@hemo.net", "phone": "+381 862 234", "website": null, "addr:street": "Војводе Путника", "addr:housenumber": "58", "ref:RS:uk": 20281 }, "geometry": { "type": "Point", "coordinates": [ 21.12335, 45.22939 ] } },
{ "type": "Feature", "properties": { "amenity": "library", "name": "Народна библиотека Пожега", "name:sr": "Народна библиотека Пожега", "name:sr-Latn": "Narodna biblioteka Požega", "name:en": "Public Library Požega", "name:ru": "Народная библиотека Пожега", "name:zh": "波热加国家图书馆", "email": "pozega@ptt.rs", "phone": "+381 811 525; +381 31825 119", "website": "www.bibliotekapozega.org.rs", "addr:street": "Краља Александра", "addr:housenumber": "8", "ref:RS:uk": 20262 }, "geometry": { "type": "Point", "coordinates": [ 20.03413, 43.84586 ] } },
{ "type": "Feature", "properties": { "amenity": "library", "name": "Народна библиотека Смедерево", "name:sr": "Народна библиотека Смедерево", "name:sr-Latn": "Narodna biblioteka Smederevo", "name:en": "Public Library Smederevo", "name:ru": "Народная библиотека Смедерево", "name:zh": "斯梅代雷沃国家图书馆", "email": "smedbib@eunet.rs", "phone": "+381 4622 270; +381 114623 740", "website": "www.biblioteka-smederevo.org.rs", "addr:street": "Карађорђева", "addr:housenumber": "5", "ref:RS:uk": 20285 }, "geometry": { "type": "Point", "coordinates": [ 20.92525, 44.66421 ] } },
{ "type": "Feature", "properties": { "amenity": "library", "name": "Народна библиотека Србије", "name:sr": "Народна библиотека Србије", "name:sr-Latn": "Narodna biblioteka Srbije", "name:en": "National Library of Serbia", "name:ru": "Народная библиотека Сербии", "name:zh": "塞尔维亚国家图书馆", "email": "nbs@nb.rs", "phone": "+381 2451 242; +381 112434 091", "website": "www.nb.rs", "addr:street": "Скерлићева", "addr:housenumber": "1", "ref:RS:uk": 20292 }, "geometry": { "type": "Point", "coordinates": [ 20.46711, 44.79752 ] } },
{ "type": "Feature", "properties": { "amenity": "library", "name": "Народна библиотека Србобран", "name:sr": "Народна библиотека Србобран", "name:sr-Latn": "Narodna biblioteka Srbobran", "name:en": "Public Library Srbobran", "name:ru": "Народная библиотека Србобран", "name:zh": "塞尔博布兰国家图书馆", "email": "tekasrb@stcable.net", "phone": "+381 730 185", "website": null, "addr:street": "Светог Саве", "addr:housenumber": "19/1", "ref:RS:uk": 20232 }, "geometry": { "type": "Point", "coordinates": [ 19.78973, 45.54667 ] } },
{ "type": "Feature", "properties": { "amenity": "library", "name": "Народна библиотека Ћићевац", "name:sr": "Народна библиотека Ћићевац", "name:sr-Latn": "Narodna biblioteka Ćićevac", "name:en": "Narodna biblioteka Ćićevac", "name:ru": "Народная библиотека Чичевац", "name:zh": "契切瓦茨国家图书馆", "email": "bibliotekacicevac@gmail.com", "phone": "+381 811 117; +381 37811 763 ; +381 065 9494 800", "website": null, "addr:street": "Карађорђева", "addr:housenumber": "108", "ref:RS:uk": 20315 }, "geometry": { "type": "Point", "coordinates": [ 21.4404, 43.72037 ] } },
{ "type": "Feature", "properties": { "amenity": "library", "name": "Народна библиотека Ужице", "name:sr": "Народна библиотека Ужице", "name:sr-Latn": "Narodna biblioteka Užice", "name:en": "Public Library Užice", "name:ru": "Народная библиотека Ужице", "name:zh": "乌日策国家图书馆", "email": "nbiblio@ptt.rs", "phone": "+381 514 578; +381 062 8827 369 ", "website": "www.biblioteka-uzice.rs", "addr:street": "Трг партизана", "addr:housenumber": "12", "ref:RS:uk": 20227 }, "geometry": { "type": "Point", "coordinates": [ 19.84012, 43.85739 ] } },
{ "type": "Feature", "properties": { "amenity": "library", "name": "Народна и универзитетска библиотека „Иво Андрић”, Приштина", "name:sr": "Народна и универзитетска библиотека „Иво Андрић”, Приштина", "name:sr-Latn": "Narodna i univerzitetska biblioteka „Ivo Andrić”, Priština", "name:en": "City Library of Priština", "name:ru": "Народная и университетская библиотека \"Иво Андрич\", Приштина", "name:zh": "普里什蒂那“伊沃·安德里奇”国家大学图书馆", "email": null, "phone": "+381 2434 003", "website": null, "addr:street": "Скерлићева 1", "addr:housenumber": "10", "ref:RS:uk": 20355 }, "geometry": { "type": "Point", "coordinates": [ 20.46711, 44.79760 ] } },
{ "type": "Feature", "properties": { "amenity": "library", "name": "Општинска библиотека „Бранко Радичевић” Лебане", "name:sr": "Општинска библиотека „Бранко Радичевић” Лебане", "name:sr-Latn": "Opštinska biblioteka „Branko Radičević” Lebane", "name:en": "Public Library \"Branko Radičević\" Lebane", "name:ru": "Муниципальная библиотека \"Бранко Радичевич\" , Лебане", "name:zh": "莱巴内“布兰科·拉德切维奇”城区图书馆", "email": "bibliolebane@gmail.com", "phone": "+381 845 327", "website": "www.bible.org.rs", "addr:street": "Цара Душана", "addr:housenumber": "79", "ref:RS:uk": 20301 }, "geometry": { "type": "Point", "coordinates": [ 21.73773, 42.91762 ] } },
{ "type": "Feature", "properties": { "amenity": "library", "name": "Општинска библиотека „Вук Караџић” Алибунар", "name:sr": "Општинска библиотека „Вук Караџић” Алибунар", "name:sr-Latn": "Opštinska biblioteka „Vuk Karadžić” Alibunar", "name:en": "Municipal Library \"Vuk Karadžić\" Alibunar", "name:ru": "Муниципальная библиотека \"Вук Караджич\", Алибунар", "name:zh": "阿利布纳尔“武克·卡拉季奇”城区图书馆", "email": "biblioteka.alibunar@gmail.com", "phone": "+381 641 547", "website": null, "addr:street": "Железничка", "addr:housenumber": "2", "ref:RS:uk": 20275 }, "geometry": { "type": "Point", "coordinates": [ 20.96367, 45.07989 ] } },
{ "type": "Feature", "properties": { "amenity": "library", "name": "Општинска библиотека „Петар Петровић Његош” Медвеђа", "name:sr": "Општинска библиотека „Петар Петровић Његош” Медвеђа", "name:sr-Latn": "Opštinska biblioteka „Petar Petrović Njegoš” Medveđa", "name:en": "Municipal Library \"Petar Petrović Njegoš\" Medveđa", "name:ru": "Муниципальная библиотека “Петар Петрович Негош”, Медведжа", "name:zh": "梅德维佳“彼得·彼得洛维奇·涅戈什”城区图书馆", "email": "bibliotekamedvedja@gmail.com", "phone": "+381 891 069", "website": "www.bibliotekamedvedja.org.rs", "addr:street": "Јабланичка", "addr:housenumber": "65", "ref:RS:uk": 20216 }, "geometry": { "type": "Point", "coordinates": [ 21.58546, 42.84161 ] } },
{ "type": "Feature", "properties": { "amenity": "library", "name": "Општинска библиотека „Слово” Лапово", "name:sr": "Општинска библиотека „Слово” Лапово", "name:sr-Latn": "Opštinska biblioteka „Slovo” Lapovo", "name:en": "Municipal Library \"Slovo\" Lapovo", "name:ru": "Муниципальная библиотека \"Буква\", Лапово", "name:zh": "拉珀沃”斯洛沃“城区图书馆", "email": "biblioteka-slovo@hotmail.com", "phone": "+381 6852 198", "website": "www.lapovo.rs/main/turizam/bibliotekaslovo/", "addr:street": "Његошева", "addr:housenumber": "6а", "ref:RS:uk": 20256 }, "geometry": { "type": "Point", "coordinates": [ 21.10609, 44.18473 ] } },
{ "type": "Feature", "properties": { "amenity": "library", "name": "Општинска библиотека Ковачица", "name:sr": "Општинска библиотека Ковачица", "name:sr-Latn": "Opštinska biblioteka Kovačica", "name:en": "Municipal Library Kovačica", "name:ru": "Муниципальная библиотека Ковачица", "name:zh": "科瓦奇查城区图书馆", "email": "biblioteka.kovacica@gmail.com", "phone": "+381 662 471; +381 26660 800", "website": "www.biblioteka-kovacica.com", "addr:street": "Маршала Тита", "addr:housenumber": "48", "ref:RS:uk": 20259 }, "geometry": { "type": "Point", "coordinates": [ 20.61986, 45.112 ] } },
{ "type": "Feature", "properties": { "amenity": "library", "name": "Општинска народна библиотека „Вељко Петровић”, Жабаљ", "name:sr": "Општинска народна библиотека „Вељко Петровић”, Жабаљ", "name:sr-Latn": "Opštinska narodna biblioteka „Veljko Petrović”, Žabalj", "name:en": "Municipal Public Library \"Veljko Petrović\"  Žabalj", "name:ru": "Муниципальная народная библиотека, Жабаль", "name:zh": "扎巴利城区国家图书馆", "email": "onbveljkopetrovic@gmail.com", "phone": "+381 831 004; +381 21831 057", "website": "www.bibliotekazabalj.com", "addr:street": "Николе Тесле", "addr:housenumber": "40", "ref:RS:uk": 20314 }, "geometry": { "type": "Point", "coordinates": [ 20.06193, 45.37585 ] } },
{ "type": "Feature", "properties": { "amenity": "library", "name": "Општинска народна библиотека Опово", "name:sr": "Општинска народна библиотека Опово", "name:sr-Latn": "Opštinska narodna biblioteka Opovo", "name:en": "Municipal Public Library Opovo", "name:ru": "Муниципальная народная библиотека Опово", "name:zh": "奥珀沃城区图书馆", "email": "bibliotekaopovo@panet.rs", "phone": "+381 682 174", "website": "www.kulturnicentaropovo.rs", "addr:street": "Бориса Кидрича", "addr:housenumber": "8", "ref:RS:uk": 20204 }, "geometry": { "type": "Point", "coordinates": [ 20.42361, 45.05265 ] } },
{ "type": "Feature", "properties": { "amenity": "library", "name": "Ресавска библиотека Свилајнац", "name:sr": "Ресавска библиотека Свилајнац", "name:sr-Latn": "Resavska biblioteka Svilajnac", "name:en": "Resava Library Svilajnac", "name:ru": "Ресавская библиотека Свилайнац", "name:zh": "斯维莱纳茨莱萨夫斯卡图书馆", "email": "office@resavskabiblioteka.rs", "phone": "+381 321 531", "website": "www.resavskabiblioteka.rs", "addr:street": "Трг хероја", "addr:housenumber": "19", "ref:RS:uk": 20244 }, "geometry": { "type": "Point", "coordinates": [ 21.19896, 44.22959 ] } },
{ "type": "Feature", "properties": { "amenity": "library", "name": "Српска читаоница у Иригу", "name:sr": "Српска читаоница у Иригу", "name:sr-Latn": "Srpska čitaonica u Irigu", "name:en": "Serbian Reading Room in Irig", "name:ru": "Сербский читальный зал в Ириге", "name:zh": "伊里格塞尔维亚阅览室", "email": "scitaonica.i@mts.rs", "phone": "+381 461 275", "website": "www.biblioteke.org.rs/irig/index.html", "addr:street": "Рибарски трг", "addr:housenumber": "37", "ref:RS:uk": 20251 }, "geometry": { "type": "Point", "coordinates": [ 19.85952, 45.10099 ] } },
{ "type": "Feature", "properties": { "amenity": "library", "name": "Универзитетска библиотека „Никола Тесла” Ниш", "name:sr": "Универзитетска библиотека „Никола Тесла” Ниш", "name:sr-Latn": "Univerzitetska biblioteka „Nikola Tesla” Niš", "name:en": "University Library \"Nikola Tesla\" Niš", "name:ru": null, "name:zh": null, "email": "info-ubn@ni.ac.rs", "phone": "+381 523 119; +381 18523 421; +381 18523 117", "website": "www.ubnt.ni.ac.rs", "addr:street": "Кеј Мике Палигорића", "addr:housenumber": "2", "ref:RS:uk": 20300 }, "geometry": { "type": "Point", "coordinates": [ 21.89298, 43.32259 ] } },
{ "type": "Feature", "properties": { "amenity": "library", "name": "Универзитетска библиотека „Светозар Марковић” Београд", "name:sr": "Универзитетска библиотека „Светозар Марковић” Београд", "name:sr-Latn": "Univerzitetska biblioteka „Svetozar Marković” Beograd", "name:en": "The \"Svetozar Marković\" University Library Belgrade", "name:ru": "Университетская библиотека  \"Светозар Маркович\", Белград", "name:zh": "贝尔格莱德“斯维托扎尔·马尔科维奇”大学图书馆", "email": "dimic@unilib.bg.ac.rs", "phone": "+381 3370 509", "website": "www.unilib.bg.ac.rs", "addr:street": "Булевар Краља Александра", "addr:housenumber": "71", "ref:RS:uk": 20350 }, "geometry": { "type": "Point", "coordinates": [ 20.47477, 44.80609 ] } },
{ "type": "Feature", "properties": { "amenity": "library", "name": "Универзитетска библиотека у Крагујевцу", "name:sr": "Универзитетска библиотека у Крагујевцу", "name:sr-Latn": "Univerzitetska biblioteka u Kragujevcu", "name:en": "University Library Kragujevac", "name:ru": null, "name:zh": null, "email": "ubkg@kg.ac.rs", "phone": "+381 300 299", "website": "www.ub.kg.ac.rs", "addr:street": "Лицеја Кнежевине Србије 1А", "addr:housenumber": "бб", "ref:RS:uk": 20310 }, "geometry": { "type": "Point", "coordinates": [ 20.92121, 44.02378 ] } },
{ "type": "Feature", "properties": { "amenity": "library", "name": "Установа јавна библиотека „Бора Станковић”, Врање", "name:sr": "Установа јавна библиотека „Бора Станковић”, Врање", "name:sr-Latn": "Ustanova javna biblioteka „Bora Stanković”, Vranje", "name:en": "Public Library \"Bora Stanković\" Vranje", "name:ru": "Народная библиотека \"Бора Станкович\", Вране", "name:zh": "弗拉涅“波拉·斯坦科维奇”国家图书馆", "email": "bibliotekavranje@mts.rs", "phone": "+381 415 611", "website": "www.bibliotekavranje.rs", "addr:street": "Лоле Рибара", "addr:housenumber": "бб", "ref:RS:uk": 20280 }, "geometry": { "type": "Point", "coordinates": [ 21.89822, 42.5521 ] } },
{ "type": "Feature", "properties": { "amenity": "library", "name": "Центaр за културне делатности, туризам и библиотекарство општине Владичин Хан - Библиотека", "name:sr": "Центaр за културне делатности, туризам и библиотекарство општине Владичин Хан - Библиотека", "name:sr-Latn": "Centar za kulturne delatnosti, turizam i bibliotekarstvo opštine Vladičin Han - Biblioteka", "name:en": "Library \"Vuk Karadžić\" Vladičin Han", "name:ru": "Центр культурной деятельности, туризма и библиотечного дела муниципалитета Владичин-Хан - Библиотека", "name:zh": "弗拉迪钦汗城市文化活动旅游图书中心图书馆", "email": "bibliotakvhan@mts.rs", "phone": "+381 474 852; +381 17473 824; +381 063 623 041", "website": null, "addr:street": "Николе Тесле", "addr:housenumber": "2", "ref:RS:uk": 22325 }, "geometry": { "type": "Point", "coordinates": [ 22.06154, 42.70608 ] } },
{ "type": "Feature", "properties": { "amenity": "library", "name": "Централна библиотека Војске Србије Београд", "name:sr": "Централна библиотека Војске Србије Београд", "name:sr-Latn": "Centralna biblioteka Vojske Srbije Beograd", "name:en": "Central Library of Yugoslav Army", "name:ru": null, "name:zh": null, "email": null, "phone": "+381 3234 712", "website": null, "addr:street": "Браће Југовића", "addr:housenumber": "19", "ref:RS:uk": 20351 }, "geometry": { "type": "Point", "coordinates": [ 20.46238, 44.81709 ] } }
]
}
