{
"type": "FeatureCollection",
"name": "bioskopi",
"crs": { "type": "name", "properties": { "name": "urn:ogc:def:crs:OGC:1.3:CRS84" } },
"features": [
{ "type": "Feature", "properties": { "amenity": "cinema", "name": "Биоскоп - КЦ „Драинац”", "name:sr": "Биоскоп - КЦ „Драинац”", "name:sr-Latn": "Bioskop - KC „Drainac”", "name:en": "Cinema - Cultural Center \"Drainac\"", "name:ru": "Кинотеатр - КЦ „Драинац”", "name:zh": "“德拉伊纳茨”文化中心影院", "email": "k.c.drainac@gmail.com", "phone": "+381 371 709; +381 064 8099 444", "addr:street": "Краља Петра I", "addr:housenumber": "70", "ref:RS:uk": 22590 }, "geometry": { "type": "Point", "coordinates": [ 21.2933, 43.29591 ] } },
{ "type": "Feature", "properties": { "amenity": "cinema", "name": "Биоскоп „Стенли Кјубрик”", "name:sr": "Биоскоп „Стенли Кјубрик”", "name:sr-Latn": "Bioskop „Stenli Kjubrik”", "name:en": "Stenli Kjubrik Cinema", "name:ru": "Кинотеатр „Стенли Кьюбрик”", "name:zh": "“斯腾利·科有布里克“影院", "email": "info@mecavnik.info", "phone": "+381 800 686; +381 064 8830 212", "addr:street": "Мећавник", "addr:housenumber": "/", "ref:RS:uk": 22676 }, "geometry": { "type": "Point", "coordinates": [ 19.50754, 43.79542 ] } },
{ "type": "Feature", "properties": { "amenity": "cinema", "name": "Cineplexx Niš", "name:sr": "Cineplexx Niš", "name:sr-Latn": "Cineplexx Niš", "name:en": "Cineplexx Niš", "email": "bioskop@cineplexx.rs", "phone": "+381 300 340; +381 064 8279 739", "website": "https://www.cineplexx.rs/center/cineplexx-nis", "addr:street": "Булевар Медијана", "addr:housenumber": "21", "ref:RS:uk": 25236 }, "geometry": { "type": "Point", "coordinates": [ 21.93576, 43.31127 ] } },
{ "type": "Feature", "properties": { "amenity": "cinema", "name": "Cineplexx BEO Shopping Center", "name:sr": "Cineplexx BEO Shopping Center", "name:sr-Latn": "Cineplexx BEO Shopping Center", "name:en": "Cineplexx BEO Shopping Center", "email": "bioskop@cineplexx.rs", "phone": "+381 4231 110; +381 064 8279 739", "website": "www.cineplexx.rs", "addr:street": "Војислава Илића", "addr:housenumber": "141", "ref:RS:uk": 25379 }, "geometry": { "type": "Point", "coordinates": [ 20.50227, 44.78645 ] } },
{ "type": "Feature", "properties": { "amenity": "cinema", "name": "Cineplexx BIG Beograd", "name:sr": "Cineplexx BIG Beograd", "name:sr-Latn": "Cineplexx BIG Beograd", "name:en": "Cineplexx BIG Beograd", "email": "bioskop@cineplexx.rs", "phone": "+381 4040 780; +381 064 8279 739", "website": "https://www.cineplexx.rs/center/cineplexx-big-beograd/", "addr:street": "Вишњичка", "addr:housenumber": "84", "ref:RS:uk": 25237 }, "geometry": { "type": "Point", "coordinates": [ 20.50757, 44.81694 ] } },
{ "type": "Feature", "properties": { "amenity": "cinema", "name": "Cineplexx Galerija Belgrade", "name:sr": "Cineplexx Galerija Belgrade", "name:sr-Latn": "Cineplexx Galerija Belgrade", "name:en": "Cineplexx Galerija Belgrade", "email": "bioskop@cineplexx.rs", "phone": "+381 4500 999; +381 064 8279 739", "website": "www.cineplexx.rs", "addr:street": "Булевар Вудроа Вилсона", "addr:housenumber": "12", "ref:RS:uk": 25377 }, "geometry": { "type": "Point", "coordinates": [ 20.44789, 44.80368 ] } },
{ "type": "Feature", "properties": { "amenity": "cinema", "name": "Cineplexx Promenada", "name:sr": "Cineplexx Promenada", "name:sr-Latn": "Cineplexx Promenada", "name:en": "Cineplexx Promenada", "email": "bioskop@cineplexx.rs", "phone": "+381 3833 999; +381 064 8279 739", "website": "www.cineplexx.rs", "addr:street": "Булевар ослобођења", "addr:housenumber": "119", "ref:RS:uk": 25376 }, "geometry": { "type": "Point", "coordinates": [ 19.84242, 45.24493 ] } },
{ "type": "Feature", "properties": { "amenity": "cinema", "name": "CineStar 4DX Beograd Ada Mall", "name:sr": "CineStar 4DX Beograd Ada Mall", "name:sr-Latn": "CineStar 4DX Beograd Ada Mall", "name:en": "CineStar 4DX  Ada Mall", "email": "aleksandar.jovic@cinestarcinemas.eu", "phone": "+381 7565 721  ; +381 066 22 80 22", "website": "https://www.cinestarcinemas.rs", "addr:street": "Радничка", "addr:housenumber": "9", "ref:RS:uk": 25375 }, "geometry": { "type": "Point", "coordinates": [ 20.41821, 44.78775 ] } },
{ "type": "Feature", "properties": { "amenity": "cinema", "name": "Биоскоп - Дом културе „Студентски град“", "name:sr": "Биоскоп - Дом културе „Студентски град“", "name:sr-Latn": "Bioskop - Dom kulture „Studentski grad“", "email": "office@dksg.rs", "phone": "+381 2691442; +381 064 8667 173", "website": "https://www.dksg.rs", "addr:street": "Булевар Зорaна Ђинђића", "addr:housenumber": "179", "ref:RS:uk": 22592 }, "geometry": { "type": "Point", "coordinates": [ 20.40408, 44.82355 ] } },
{ "type": "Feature", "properties": { "amenity": "cinema", "name": "Биоскоп - Општински културни центар Апатин", "name:sr": "Биоскоп - Општински културни центар Апатин", "name:sr-Latn": "Bioskop - Opštinski kulturni centar Apatin", "name:en": "Cinema - Municipality Cultural Center Apatin", "name:ru": "Кинотеатр - Муниципальный культурный центр Апатин", "name:zh": "阿帕丁城区文化中心影院", "email": "info@kulturaapatin.com", "phone": "+381 773 923", "website": "https://www.kulturaapatin.com", "addr:street": "Трг Николе Тесле ", "addr:housenumber": "12", "ref:RS:uk": 22647 }, "geometry": { "type": "Point", "coordinates": [ 18.9791, 45.67375 ] } },
{ "type": "Feature", "properties": { "amenity": "cinema", "name": "Arena Cinepleх", "name:sr": "Arena Cinepleх", "name:sr-Latn": "Arena Cinepleh", "name:en": "Arena Cineplex", "name:ru": "Арена Синеплекс", "name:zh": "体育馆影院", "email": "office@artvista.rs", "phone": "+381 3545 925; +381 062 250 565", "addr:street": "Пожешка", "addr:housenumber": "83а", "ref:RS:uk": 22739 }, "geometry": { "type": "Point", "coordinates": [ 20.41436, 44.77417 ] } },
{ "type": "Feature", "properties": { "amenity": "cinema", "name": "Bioskop Fontana", "name:sr": "Bioskop Fontana", "name:sr-Latn": "Bioskop Fontana", "name:en": "Cinema Fontana", "name:ru": "Кинотеатр Фонтан", "name:zh": "喷泉影院", "email": "info@artandpopcorn.com", "phone": "+381 2672 004; +381 063 8424 690", "website": "https://www.bioskopfontana.rs", "addr:street": "Париске комуне", "addr:housenumber": "13", "ref:RS:uk": 22319 }, "geometry": { "type": "Point", "coordinates": [ 20.4089, 44.82567 ] } },
{ "type": "Feature", "properties": { "amenity": "cinema", "name": "Cineplexx Delta City", "name:sr": "Cineplexx Delta City", "name:sr-Latn": "Cineplexx Delta City", "name:en": "Cineplexx Delta City", "name:ru": "Синеплекс Дельта Сити", "name:zh": "代尔塔影院", "email": "bioskop@cineplexx.rs", "phone": "+381 2203 400; +381 064 8279 739", "website": "www.cineplexx.rs", "addr:street": "Јурија Гагарина", "addr:housenumber": "16", "ref:RS:uk": 25205 }, "geometry": { "type": "Point", "coordinates": [ 20.40468, 44.80492 ] } },
{ "type": "Feature", "properties": { "amenity": "cinema", "name": "Cineplexx Kragujevac Plaza", "name:sr": "Cineplexx Kragujevac Plaza", "name:sr-Latn": "Cineplexx Kragujevac Plaza", "name:en": "Cineplexx Kragujevac Plaza", "name:ru": "Синеплекс Крагуевац Плаза", "name:zh": "克拉古耶瓦茨广场影院", "email": "bioskop@cineplexx.rs", "phone": "+381 6195 030; +381 064 8279 739", "website": "https://www.cineplexx.rs/center/cineplexx-kragujevac-plaza", "addr:street": "Булевар Краљице Марије", "addr:housenumber": "23", "ref:RS:uk": 22675 }, "geometry": { "type": "Point", "coordinates": [ 20.9005, 44.01339 ] } },
{ "type": "Feature", "properties": { "amenity": "cinema", "name": "Cineplexx Ušće Shopping Center", "name:sr": "Cineplexx Ušće Shopping Center", "name:sr-Latn": "Cineplexx Ušće Shopping Center", "name:en": "Cineplexx Ušće Shopping Center", "name:ru": "Синеплекс Устье Торговый центр", "name:zh": "乌什切购物中心影院", "email": "bioskop@cineplexx.rs", "phone": "+381 3113 370; +381 064 8279 739", "website": "www.cineplexx.rs", "addr:street": "Булевар Михајла Пупина", "addr:housenumber": "4", "ref:RS:uk": 25206 }, "geometry": { "type": "Point", "coordinates": [ 20.436, 44.81543 ] } },
{ "type": "Feature", "properties": { "amenity": "cinema", "name": "CineStar Novi Sad", "name:sr": "CineStar Novi Sad", "name:sr-Latn": "CineStar Novi Sad", "name:en": "CineStar Novi Sad", "email": "jelena.zecevic@cinestarcinemas.eu", "phone": "+381 2156 602; +381 063 302 454; 065 2156 602", "website": "https://www.cinestarcinemas.rs", "addr:street": "BIG CEE Нови сад, Сентандрејски пут", "addr:housenumber": "11", "ref:RS:uk": 25249 }, "geometry": { "type": "Point", "coordinates": [ 19.82879, 45.27475 ] } },
{ "type": "Feature", "properties": { "amenity": "cinema", "name": "CineStar Pančevo", "name:sr": "CineStar Pančevo", "name:sr-Latn": "CineStar Pančevo", "name:en": "CineStar Pančevo", "email": "zoran.stulic@cinestarcinemas.eu", "phone": "+381 2155 504; +381 063 302 454; 065 21 555 04", "website": "https://www.cinestarcinemas.rs", "addr:street": "Aviv park, Милоша Обреновића", "addr:housenumber": "12", "ref:RS:uk": 25248 }, "geometry": { "type": "Point", "coordinates": [ 20.66061, 44.86946 ] } },
{ "type": "Feature", "properties": { "amenity": "cinema", "name": "CineStar Zrenjanin", "name:sr": "CineStar Zrenjanin", "name:sr-Latn": "CineStar Zrenjanin", "name:en": "CineStar Zrenjanin", "email": "ivana.siljanovski@cinestarcinemas.rs", "phone": "+381 3155 161; +381 063 302 454; 065 3155 161", "website": "https://www.cinestarcinemas.rs", "addr:street": "Aviv park, Багљаш Запад", "addr:housenumber": "5", "ref:RS:uk": 25250 }, "geometry": { "type": "Point", "coordinates": [ 20.3549, 45.37817 ] } },
{ "type": "Feature", "properties": { "amenity": "cinema", "name": "Tuckwood", "name:sr": "Tuckwood", "name:sr-Latn": "Tuckwood", "name:en": "Tuckwood Cineplex", "name:ru": "Таквуд", "name:zh": "塔克伍德", "email": "office@tuckwood.rs", "phone": "+381 3236 517; +381 064 120 98 78", "website": "https://www.tuck.rs", "addr:street": "Кнеза Милоша", "addr:housenumber": "7а", "ref:RS:uk": 22597 }, "geometry": { "type": "Point", "coordinates": [ 20.46534, 44.80964 ] } },
{ "type": "Feature", "properties": { "amenity": "cinema", "name": "АРТ БИОСКОП „Александар Лифка” Суботица", "name:sr": "АРТ БИОСКОП „Александар Лифка” Суботица", "name:sr-Latn": "ART BIOSKOP „Aleksandar Lifka” Subotica", "name:en": "Art Cinema \"Lifka\"", "name:ru": "АРТ КИНОТЕАТР „Александр Лифка” Суботица", "name:zh": "苏博蒂察“阿莱克桑达尔·利弗卡”艺术影院", "email": "lifka.cinema@gmail.com", "phone": "+381 527 110; +381 069 5271 105", "website": "https://www.alifka.org", "addr:street": "Трг жртава фашизма", "addr:housenumber": "5", "ref:RS:uk": 22621 }, "geometry": { "type": "Point", "coordinates": [ 19.65985, 46.09804 ] } },
{ "type": "Feature", "properties": { "amenity": "cinema", "name": "АРТ биоскоп Muzeum", "name:sr": "АРТ биоскоп Muzeum", "name:sr-Latn": "ART bioskop Muzeum", "name:en": "Art Cinema \"Muzeum\"", "name:ru": "АРТ кинотеатр Музеум", "name:zh": "艺术影院博物馆", "email": "info@etnografskimuzej.rs", "phone": "+381 3281 888", "addr:street": "Узун Миркова", "addr:housenumber": "2", "ref:RS:uk": 22645 }, "geometry": { "type": "Point", "coordinates": [ 20.45605, 44.81993 ] } },
{ "type": "Feature", "properties": { "amenity": "cinema", "name": "Биоскоп - „Екран\" доо", "name:sr": "Биоскоп - „Екран\" доо", "name:sr-Latn": "Bioskop - „Ekran\" doo", "name:en": "Ekran Cinema LLC", "name:ru": "Кинотеатр - „Экран\" ООО", "name:zh": "“埃克朗”公司影院", "email": "bioskop.so@gmail.com", "phone": "+381 412 056; +381 063 389 940", "website": "http://www.bioskopsombor.com", "addr:street": "Краља Петра", "addr:housenumber": "I/4", "ref:RS:uk": 22315 }, "geometry": { "type": "Point", "coordinates": [ 19.11409, 45.77428 ] } },
{ "type": "Feature", "properties": { "amenity": "cinema", "name": "Биоскоп - Академија 28", "name:sr": "Биоскоп - Академија 28", "name:sr-Latn": "Bioskop - Akademija 28", "name:en": "Cinema of Academy Club 28", "name:ru": "Кинотеатр - Академия 28", "name:zh": "28研究院影院", "email": "akademija28@yahoo.com", "phone": "+381 3621 787; +381 063 423 657", "website": "https://www.akademija28.com", "addr:street": "Немањина", "addr:housenumber": "28", "ref:RS:uk": 25309 }, "geometry": { "type": "Point", "coordinates": [ 20.46331, 44.8036 ] } },
{ "type": "Feature", "properties": { "amenity": "cinema", "name": "Биоскоп - Библиотека „Милован Глишић”", "name:sr": "Биоскоп - Библиотека „Милован Глишић”", "name:sr-Latn": "Bioskop - Biblioteka „Milovan Glišić”", "name:en": "Cinema - Library \"Milovan Glisic\"", "name:ru": "Кинотеатр - Библиотека „Милован Глишич”", "name:zh": "“米洛万·格里希奇”图书馆影院", "email": "office@biblioteka-ljubovija.org.rs", "phone": "+381 561 842; +381 062 8871 200", "addr:street": "Трг Војводе Мишића", "addr:housenumber": "бб", "ref:RS:uk": 22642 }, "geometry": { "type": "Point", "coordinates": [ 19.37292, 44.18786 ] } },
{ "type": "Feature", "properties": { "amenity": "cinema", "name": "Биоскоп - Библиотека „Политика”", "name:sr": "Биоскоп - Библиотека „Политика”", "name:sr-Latn": "Bioskop - Biblioteka „Politika”", "name:en": "Library \"Politika\"", "name:ru": "Кинотеатр - Библиотека „Политика”", "name:zh": "“政治”图书馆影院", "email": "bibliotekapolitikakrupanj@gmail.com", "phone": "+381 581 033; +381 15581 203; +381 064 3169 788", "addr:street": "Мачков камен", "addr:housenumber": "3", "ref:RS:uk": 22641 }, "geometry": { "type": "Point", "coordinates": [ 19.3631, 44.3638 ] } },
{ "type": "Feature", "properties": { "amenity": "cinema", "name": "Биоскоп - Дворана Културног центра Београда", "name:sr": "Биоскоп - Дворана Културног центра Београда", "name:sr-Latn": "Bioskop - Dvorana Kulturnog centra Beograda", "name:en": "The Cultural Centre of Belgrade Movie Theatre", "name:ru": "Кинотеатр - Зал Культурного центра", "name:zh": "文化中心礼堂影院", "email": "bioskop@kcb.rs", "phone": "+381 2632 534; +381 062 8005 812", "website": "https://www.kcb.org.rs/category/filmski-program/?script=cir", "addr:street": "Коларчева", "addr:housenumber": "6", "ref:RS:uk": 22608 }, "geometry": { "type": "Point", "coordinates": [ 20.4603, 44.81542 ] } },
{ "type": "Feature", "properties": { "amenity": "cinema", "name": "Биоскоп - Дом културе „Вук Караџић”", "name:sr": "Биоскоп - Дом културе „Вук Караџић”", "name:sr-Latn": "Bioskop - Dom kulture „Vuk Karadžić”", "name:en": "Cinema - Cultural center \"Vuk Karadzic\"", "name:ru": "Кинотеатр - Дом культуры  „Вук Караджич\"", "name:zh": "“武克·卡拉季奇”文化之家影院", "email": "dkomoljica@gmail.com", "phone": "+381 617 005; +381 061 515 0981", "website": "http://www.zisel.rs", "addr:street": "Трг Светог Саве", "addr:housenumber": "1", "ref:RS:uk": 22631 }, "geometry": { "type": "Point", "coordinates": [ 20.73659, 44.75778 ] } },
{ "type": "Feature", "properties": { "amenity": "cinema", "name": "Биоскоп - Дом културе „Јован Томић”", "name:sr": "Биоскоп - Дом културе „Јован Томић”", "name:sr-Latn": "Bioskop - Dom kulture „Jovan Tomić”", "name:en": "Cinema - Cultural center \"Jovan Tomic\"", "name:ru": "Кинотеатр - Дом культуры  „Йован Томич”", "name:zh": "“约万·托米奇”文化之家影院", "email": "domkulturenv@gmail.com", "phone": "+381 61 130", "addr:street": "Трг војводе Петра Бојовића", "addr:housenumber": "5", "ref:RS:uk": 22664 }, "geometry": { "type": "Point", "coordinates": [ 19.81524, 43.46063 ] } },
{ "type": "Feature", "properties": { "amenity": "cinema", "name": "Биоскоп - Дом културе „Михајло Пупин”", "name:sr": "Биоскоп - Дом културе „Михајло Пупин”", "name:sr-Latn": "Bioskop - Dom kulture „Mihajlo Pupin”", "name:en": "Cinema - Cultural center \"Mihajlo Pupin\"", "name:ru": "Кинотеатр - Дом культуры  „Михайло Пупин”", "name:zh": "“米哈伊尔·普平”文化之家影院", "email": "domkultureidvor@gmail.com", "phone": "+381 676 240; +381 062 256 341", "website": "https://www.muzejpupina.rs", "addr:street": "Иве Лоле Рибара", "addr:housenumber": "47", "ref:RS:uk": 22629 }, "geometry": { "type": "Point", "coordinates": [ 20.62616, 45.11455 ] } },
{ "type": "Feature", "properties": { "amenity": "cinema", "name": "Биоскоп - Дом културе „Радан”", "name:sr": "Биоскоп - Дом културе „Радан”", "name:sr-Latn": "Bioskop - Dom kulture „Radan”", "name:en": "Cinema - Cultural center\"Radan\"", "name:ru": "Кинотеатр - Дом культуры  „Радан”", "name:zh": "“拉丹”文化之家影院", "email": "domkultureradan@gmail.com", "phone": "+381 843 920", "addr:street": "Цара Душана", "addr:housenumber": "79", "ref:RS:uk": 22663 }, "geometry": { "type": "Point", "coordinates": [ 21.73773, 42.91761 ] } },
{ "type": "Feature", "properties": { "amenity": "cinema", "name": "Биоскоп - Дом културе Бачка Топола", "name:sr": "Биоскоп - Дом културе Бачка Топола", "name:sr-Latn": "Bioskop - Dom kulture Bačka Topola", "name:en": "Cinema - Cultural center Backa Topola", "name:ru": "Кинотеатр - Дом культуры  Бачка-Топола", "name:zh": "巴池托珀拉文化回家影院", "email": "kultura@stcable.net", "phone": "+381 713 515", "addr:street": "Главна", "addr:housenumber": "12", "ref:RS:uk": 22625 }, "geometry": { "type": "Point", "coordinates": [ 19.63136, 45.81305 ] } },
{ "type": "Feature", "properties": { "amenity": "cinema", "name": "Биоскоп - Дом културе Ивањица", "name:sr": "Биоскоп - Дом културе Ивањица", "name:sr-Latn": "Bioskop - Dom kulture Ivanjica", "name:en": "Cinema - Cultural center Ivanjica", "name:ru": "Кинотеатр - Дом культуры  Иваница", "name:zh": "伊瓦尼查文化之家影院", "email": "domkultureivanjica@mts.rs", "phone": "+381 661 087; +381 065 2606 229", "addr:street": "Венијамина Маринковића", "addr:housenumber": "бб", "ref:RS:uk": 22593 }, "geometry": { "type": "Point", "coordinates": [ 20.23111, 43.58055 ] } },
{ "type": "Feature", "properties": { "amenity": "cinema", "name": "Биоскоп - Дом културе Књажевац", "name:sr": "Биоскоп - Дом културе Књажевац", "name:sr-Latn": "Bioskop - Dom kulture Knjaževac", "name:en": "Cinema - Cultural center Knjazevac", "name:ru": "Кинотеатр - Дом культуры  Княжевац", "name:zh": "克尼亚热瓦茨文化之家影院", "email": "dkknjaz@mts.rs", "phone": "+381 731 804; +381 064 8992 732", "addr:street": "Бранка Радичевића", "addr:housenumber": "1", "ref:RS:uk": 22662 }, "geometry": { "type": "Point", "coordinates": [ 22.25549, 43.56869 ] } },
{ "type": "Feature", "properties": { "amenity": "cinema", "name": "Биоскоп - Дом културе Пријепоље", "name:sr": "Биоскоп - Дом културе Пријепоље", "name:sr-Latn": "Bioskop - Dom kulture Prijepolje", "name:en": "Cinema - Cultural centre Prijepolje", "name:ru": "Кинотеатр - Дом культуры  Приеполе", "name:zh": "普利耶珀列文化之家影院", "email": "domkulturepp@gmail.com", "phone": "+381 711 566; +381 064 8560 415", "addr:street": "Санџачких бригада", "addr:housenumber": "2", "ref:RS:uk": 22652 }, "geometry": { "type": "Point", "coordinates": [ 19.64815, 43.3913 ] } },
{ "type": "Feature", "properties": { "amenity": "cinema", "name": "Биоскоп - Дом културе Чачак", "name:sr": "Биоскоп - Дом културе Чачак", "name:sr-Latn": "Bioskop - Dom kulture Čačak", "name:en": "Cinema - Cultural Center Čačak", "name:ru": "Кинотеатр - Дом культуры  Чачак", "name:zh": "查查克文化之家影院", "email": "d.jerotijevic@domkulturecacak.org", "phone": "+381 325 073; +381 064 80 40 240", "website": "https://www.domkulturecacak.org", "addr:street": "Трг народног устанка", "addr:housenumber": "2", "ref:RS:uk": 22671 }, "geometry": { "type": "Point", "coordinates": [ 20.3498, 43.892 ] } },
{ "type": "Feature", "properties": { "amenity": "cinema", "name": "Биоскоп - Дом омладине", "name:sr": "Биоскоп - Дом омладине", "name:sr-Latn": "Bioskop - Dom omladine", "name:en": "Belgrade Youth Centre Cinema", "name:ru": "Кинотеатр - Дом молодежи", "name:zh": "青年之家影院", "email": "dobinfo@domomladine.org", "phone": "+381 3220 127", "website": "https://www.domomladine.org", "addr:street": "Македонска", "addr:housenumber": "22/4", "ref:RS:uk": 22665 }, "geometry": { "type": "Point", "coordinates": [ 20.46282, 44.81553 ] } },
{ "type": "Feature", "properties": { "amenity": "cinema", "name": "Биоскоп - Јавна библиотека Општине Дољевац", "name:sr": "Биоскоп - Јавна библиотека Општине Дољевац", "name:sr-Latn": "Bioskop - Javna biblioteka Opštine Doljevac", "name:en": "Cinema - Public Librery", "name:ru": "Кинотеатр - Публичная библиотека муниципалитета Долевац", "name:zh": "多列瓦茨城区公共图书馆影院", "email": "n.bibliotekadoljevac@yahoo.com", "phone": "+381 870 814", "website": "https://www.bibliotekadoljevac.org", "addr:street": "Николе Тесле", "addr:housenumber": "28", "ref:RS:uk": 22639 }, "geometry": { "type": "Point", "coordinates": [ 21.83381, 43.19779 ] } },
{ "type": "Feature", "properties": { "amenity": "cinema", "name": "Биоскоп - ЈП Сава Центар", "name:sr": "Биоскоп - ЈП Сава Центар", "name:sr-Latn": "Bioskop - JP Sava Centar", "name:en": "Sava Center Cinema", "name:ru": "Кинотеатр - ГП  Центр Савва", "name:zh": "萨瓦中心国有公司影院", "email": "film@savacentar.net", "phone": "+381 2206 768; +381 064 8229 326", "addr:street": "Милентија Поповића", "addr:housenumber": "9", "ref:RS:uk": 22669 }, "geometry": { "type": "Point", "coordinates": [ 20.43191, 44.80927 ] } },
{ "type": "Feature", "properties": { "amenity": "cinema", "name": "Биоскоп - Културни центар ,,Светозар Марковић”", "name:sr": "Биоскоп - Културни центар ,,Светозар Марковић”", "name:sr-Latn": "Bioskop - Kulturni centar ,,Svetozar Marković”", "name:en": "Cultural Centre Jagodina", "name:ru": "Кинотеатр - КЦ С. Маркович", "name:zh": "斯·马尔科维奇文化中心影院", "email": "kultcentar@gmail.com", "phone": "+381 221 921; +381 065 2529 843", "website": "https://kcjagodina.rs", "addr:street": "Кнегиње Милице", "addr:housenumber": "25", "ref:RS:uk": 22611 }, "geometry": { "type": "Point", "coordinates": [ 21.26215, 43.97769 ] } },
{ "type": "Feature", "properties": { "amenity": "cinema", "name": "Биоскоп - Културни центар „Брана Црнчевић” Рума", "name:sr": "Биоскоп - Културни центар „Брана Црнчевић” Рума", "name:sr-Latn": "Bioskop - Kulturni centar „Brana Crnčević” Ruma", "name:en": "Cultural center \"Brana Crncevic\" Ruma", "name:ru": "Кинотеатр - КЦ Рума", "name:zh": "鲁马文化中心影院", "email": "kulturnicentarruma@gmail.com", "phone": "+381 471 212; +381 069 715 765", "website": "https://www.kcruma.co.rs", "addr:street": "Вељка Дугошевића", "addr:housenumber": "102", "ref:RS:uk": 22615 }, "geometry": { "type": "Point", "coordinates": [ 19.82074, 45.00913 ] } },
{ "type": "Feature", "properties": { "amenity": "cinema", "name": "Биоскоп - Културни центар Вршац", "name:sr": "Биоскоп - Културни центар Вршац", "name:sr-Latn": "Bioskop - Kulturni centar Vršac", "name:en": "Cinema - Cultural Center Vrsac", "name:ru": "Кинотеатр - Культурный центр Вршац", "name:zh": "弗尔沙茨文化中心影院", "email": "office@kulcentar.com", "phone": "+381 839 190; +381 26830 900; +381 606050623", "website": "https://www.kulcentar.com", "addr:street": "Стеријина", "addr:housenumber": "62", "ref:RS:uk": 22600 }, "geometry": { "type": "Point", "coordinates": [ 21.29859, 45.11611 ] } },
{ "type": "Feature", "properties": { "amenity": "cinema", "name": "Биоскоп - Културни центар Инђија", "name:sr": "Биоскоп - Културни центар Инђија", "name:sr-Latn": "Bioskop - Kulturni centar Inđija", "name:en": "Cinema - Cultural centre of Indjija", "name:ru": "Кинотеатр - Культурный центр Инджия", "name:zh": "因吉亚文化中心影院", "email": "kci@indjija.net", "phone": "+381 2150 148; +381 646491049", "website": "https://www.kcindjija.com", "addr:street": "Војводе Степе", "addr:housenumber": "40a", "ref:RS:uk": 22610 }, "geometry": { "type": "Point", "coordinates": [ 20.08652, 45.051 ] } },
{ "type": "Feature", "properties": { "amenity": "cinema", "name": "Биоскоп - Културни центар Младеновац", "name:sr": "Биоскоп - Културни центар Младеновац", "name:sr-Latn": "Bioskop - Kulturni centar Mladenovac", "name:en": "Cinema - Cultural and Tourisam Centar Mladenovac", "name:ru": "Кинотеатр - Культурный центр Младеновац", "name:zh": "姆拉德诺瓦茨文化中心影院", "email": "info@ckm.co.rs", "phone": "+381 8231 230", "website": "https://www.ckm.co.rs", "addr:street": "Војводе Путника", "addr:housenumber": "7", "ref:RS:uk": 22609 }, "geometry": { "type": "Point", "coordinates": [ 20.69334, 44.44121 ] } },
{ "type": "Feature", "properties": { "amenity": "cinema", "name": "Биоскоп - Културни центар Нови Сад", "name:sr": "Биоскоп - Културни центар Нови Сад", "name:sr-Latn": "Bioskop - Kulturni centar Novi Sad", "name:en": "Cinema - Cultural Centre of Novi Sad", "name:ru": "Кинотеатр - Культурный центр Нови-Сад", "name:zh": "诺维萨德文化中心影院", "email": "filmkcns@gmail.com", "phone": "+381 528 346; +381 064 1635 251", "website": "https://www.kcns.org.rs", "addr:street": "Католичка порта", "addr:housenumber": "5", "ref:RS:uk": 22612 }, "geometry": { "type": "Point", "coordinates": [ 19.84529, 45.2563 ] } },
{ "type": "Feature", "properties": { "amenity": "cinema", "name": "Биоскоп - Културни центар општине Беочин", "name:sr": "Биоскоп - Културни центар општине Беочин", "name:sr-Latn": "Bioskop - Kulturni centar opštine Beočin", "name:en": "Cinema - Cultural Center Beočin", "name:ru": "Кинотеатр - Культурный центр муниципалитета Беочин", "name:zh": "贝尔钦城区文化影院", "email": "kcentar1@mts.rs", "phone": "+381 870 230; +381 065 8054 203", "website": "https://kcobeocin.rs", "addr:street": "Трг Цара Лазара", "addr:housenumber": "1", "ref:RS:uk": 22653 }, "geometry": { "type": "Point", "coordinates": [ 19.72274, 45.20755 ] } },
{ "type": "Feature", "properties": { "amenity": "cinema", "name": "Биоскоп - Културно образовни центар Бољевац", "name:sr": "Биоскоп - Културно образовни центар Бољевац", "name:sr-Latn": "Bioskop - Kulturno obrazovni centar Boljevac", "name:en": "Cinema - Cultural-Educational Center Boljevac", "name:ru": "Кинотеатр - Культурно-образовательный центр Болевац", "name:zh": "波列瓦茨文化教育中心影院", "email": "kultura@beotel.rs", "phone": "+381 463 737", "addr:street": "Кнеза Милоша", "addr:housenumber": "4", "ref:RS:uk": 22678 }, "geometry": { "type": "Point", "coordinates": [ 21.95868, 43.82991 ] } },
{ "type": "Feature", "properties": { "amenity": "cinema", "name": "Биоскоп - КЦ Врњачка Бања", "name:sr": "Биоскоп - КЦ Врњачка Бања", "name:sr-Latn": "Bioskop - KC Vrnjačka Banja", "name:en": "Cinema - Cultural Center Vrnjačka Banja", "name:ru": "Кинотеатр - КЦ Врнячка-Баня", "name:zh": "弗拉涅巴尼亚文化中心影院", "email": "kulturnicentar.vb@gmail.com", "phone": "+381 611 153; +381 064 8854 282", "addr:street": "Врњачка", "addr:housenumber": "20", "ref:RS:uk": 22644 }, "geometry": { "type": "Point", "coordinates": [ 20.89324, 43.61944 ] } },
{ "type": "Feature", "properties": { "amenity": "cinema", "name": "Биоскоп - КЦ Панчево", "name:sr": "Биоскоп - КЦ Панчево", "name:sr-Latn": "Bioskop - KC Pančevo", "name:en": "Cinema - Cultural Centre of Pancevo", "name:ru": "Кинотеатр - КЦ Панчево", "name:zh": "潘切沃文化中心影院", "email": "kcp@kcp.rs", "phone": "+381 440 940; +381 062 8008 780", "addr:street": "Војводе Живојина Мишића", "addr:housenumber": "4", "ref:RS:uk": 22613 }, "geometry": { "type": "Point", "coordinates": [ 20.64227, 44.87027 ] } },
{ "type": "Feature", "properties": { "amenity": "cinema", "name": "Биоскоп - УКД Центар за културу", "name:sr": "Биоскоп - УКД Центар за културу", "name:sr-Latn": "Bioskop - UKD Centar za kulturu", "name:en": "Cinema - Cultural Center", "name:ru": "Кинотеатр - УКД Культурный центр", "name:zh": "UKD文化中心影院", "email": "ukdczk@gmail.com", "phone": "+381 851 173; +381 060 3851 439", "addr:street": "Пролетерска", "addr:housenumber": "4", "ref:RS:uk": 22619 }, "geometry": { "type": "Point", "coordinates": [ 21.42374, 44.90292 ] } },
{ "type": "Feature", "properties": { "amenity": "cinema", "name": "Биоскоп - КЦ Пожега", "name:sr": "Биоскоп - КЦ Пожега", "name:sr-Latn": "Bioskop - KC Požega", "name:en": "Cinema - Cultural Center Pozega", "name:ru": "Кинотеатр - КЦ Пожега", "name:zh": "珀热加文化中心影院", "email": "skcpozega@gmail.com", "phone": "+381 3825 551; +381 31812 421; +381 069 750 849", "addr:street": "Књаза Милоша", "addr:housenumber": "8", "ref:RS:uk": 22655 }, "geometry": { "type": "Point", "coordinates": [ 20.03693, 43.84611 ] } },
{ "type": "Feature", "properties": { "amenity": "cinema", "name": "Биоскоп - Мултимедијални центар  „МР Кварт”", "name:sr": "Биоскоп - Мултимедијални центар  „МР Кварт”", "name:sr-Latn": "Bioskop - Multimedijalni centar  „MR Kvart”", "name:en": "Multimedial centre \"МR KVart\" ltd", "name:ru": "Кинотеатр - Мультимедиа центр  „МР Кварт”", "name:zh": "“MP科瓦尔特”多媒体中心影院", "email": "mmckvart@gmail.com", "phone": "+381 312 227", "website": "https://www.kvart.rs", "addr:street": "Цара Лазара", "addr:housenumber": "34", "ref:RS:uk": 22312 }, "geometry": { "type": "Point", "coordinates": [ 20.6874, 43.72445 ] } },
{ "type": "Feature", "properties": { "amenity": "cinema", "name": "Биоскоп - Народна библиотека \"Вук Караџић\" Бач", "name:sr": "Биоскоп - Народна библиотека \"Вук Караџић\" Бач", "name:sr-Latn": "Bioskop - Narodna biblioteka \"Vuk Karadžić\" Bač", "name:en": "Cinema - Public Library Bac", "name:ru": "Кинотеатр - Народная библиотека Бач", "name:zh": "巴池国家图书馆影院", "email": "bibliotekabac@gmail.com", "phone": "+381 0216070 777; +381 210216070 063; +381 064 8511 903", "addr:street": "Трг др Зорана Ђинђића", "addr:housenumber": "4", "ref:RS:uk": 22634 }, "geometry": { "type": "Point", "coordinates": [ 19.22978, 45.39267 ] } },
{ "type": "Feature", "properties": { "amenity": "cinema", "name": "Биоскоп - Народна библиотека Ариље", "name:sr": "Биоскоп - Народна библиотека Ариље", "name:sr-Latn": "Bioskop - Narodna biblioteka Arilje", "name:en": "Cinema - Public Library Arilje", "name:ru": "Кинотеатр - Народная библиотека Ариле", "name:zh": "阿利列国家图书馆影院", "email": "bibliotekaariljska@gmail.com", "phone": "+381 3895 269; +381 064 8497 369", "website": "https://www.visitarilje.com", "addr:street": "Светог Ахилија", "addr:housenumber": "33", "ref:RS:uk": 22633 }, "geometry": { "type": "Point", "coordinates": [ 20.09913, 43.75153 ] } },
{ "type": "Feature", "properties": { "amenity": "cinema", "name": "Биоскоп - Народна библиотека Житорађа", "name:sr": "Биоскоп - Народна библиотека Житорађа", "name:sr-Latn": "Bioskop - Narodna biblioteka Žitorađa", "name:en": "Cinema - Public Library Zitoradja", "name:ru": "Кинотеатр - Народная библиотека Житораджа", "name:zh": "日托拉加国家图书馆影院", "email": "nbzito@mts.rs", "phone": "+381 8362 074; +381 062 8824 167", "addr:street": "Топлички хероји", "addr:housenumber": "53а", "ref:RS:uk": 22637 }, "geometry": { "type": "Point", "coordinates": [ 21.71099, 43.18926 ] } },
{ "type": "Feature", "properties": { "amenity": "cinema", "name": "Биоскоп - Народна библиотека Осечина", "name:sr": "Биоскоп - Народна библиотека Осечина", "name:sr-Latn": "Bioskop - Narodna biblioteka Osečina", "name:en": "Cinema - Public Library Osečina of Osečina", "name:ru": "Кинотеатр - Народная библиотека Осечина", "name:zh": "奥塞切纳国家图书馆影院", "email": "bibliotekaosecina@gmail.com", "phone": "+381 451 111; +381 064 3467 383", "website": "https://biblioteka-osecina.org", "addr:street": "Браће Недић", "addr:housenumber": "18", "ref:RS:uk": 22636 }, "geometry": { "type": "Point", "coordinates": [ 19.60174, 44.37336 ] } },
{ "type": "Feature", "properties": { "amenity": "cinema", "name": "Биоскоп - Народна библиотека Ћићевац", "name:sr": "Биоскоп - Народна библиотека Ћићевац", "name:sr-Latn": "Bioskop - Narodna biblioteka Ćićevac", "name:en": "Cinema - Public Library Cicevac", "name:ru": "Кинотеатр - Народная библиотека Чичевац", "name:zh": "契切瓦茨国家图书馆影院", "email": "bibliotekacicevac@gmail.com", "phone": "+381 811 117", "addr:street": "Карађорђева", "addr:housenumber": "108", "ref:RS:uk": 22640 }, "geometry": { "type": "Point", "coordinates": [ 21.4404, 43.72037 ] } },
{ "type": "Feature", "properties": { "amenity": "cinema", "name": "Биоскоп - Народни универзитет Трстеник", "name:sr": "Биоскоп - Народни универзитет Трстеник", "name:sr-Latn": "Bioskop - Narodni univerzitet Trstenik", "name:en": "Cinema - Public University Trstenik", "name:ru": "Кинотеатр - Народный университет Трстеник", "name:zh": "特尔斯特尼克国立大学影院", "email": "narodnits.kultura@sbb.rs", "phone": "+381 712 065; +381 069 607 530", "website": "https://www.narodnits.rs", "addr:street": "Кнегиње Милице", "addr:housenumber": "16", "ref:RS:uk": 22656 }, "geometry": { "type": "Point", "coordinates": [ 20.99936, 43.61979 ] } },
{ "type": "Feature", "properties": { "amenity": "cinema", "name": "Биоскоп - Образовно културни центар Сечањ", "name:sr": "Биоскоп - Образовно културни центар Сечањ", "name:sr-Latn": "Bioskop - Obrazovno kulturni centar Sečanj", "name:en": "Cinema - ECC Secanj", "name:ru": "Кинотеатр - Образовательно-культурный центр Сечань", "name:zh": "塞查尼教育文化中心影院", "email": "okcsecanj@beotel.net", "phone": "+381 3841471", "addr:street": "Вожда Карађорђа", "addr:housenumber": "94", "ref:RS:uk": 22657 }, "geometry": { "type": "Point", "coordinates": [ 20.77178, 45.36423 ] } },
{ "type": "Feature", "properties": { "amenity": "cinema", "name": "Биоскоп - Спортско-културни центар Обреновац", "name:sr": "Биоскоп - Спортско-културни центар Обреновац", "name:sr-Latn": "Bioskop - Sportsko-kulturni centar Obrenovac", "name:en": "Cinema - SCC Obrenovac", "name:ru": "Кинотеатр - Спортивно-культурный центр Обреновац", "name:zh": "奥布雷诺瓦茨运动文化中心影院", "email": "info@obrenovac-info.co.rs", "phone": "+381 8721 361", "addr:street": "Краља Александра I", "addr:housenumber": "63", "ref:RS:uk": 22648 }, "geometry": { "type": "Point", "coordinates": [ 20.20015, 44.6581 ] } },
{ "type": "Feature", "properties": { "amenity": "cinema", "name": "Биоскоп - Сурдулички културни центар", "name:sr": "Биоскоп - Сурдулички културни центар", "name:sr-Latn": "Bioskop - Surdulički kulturni centar", "name:en": "Cinema - Cultural Center Surdulica", "name:ru": "Кинотеатр - Сурдулицкий культурный центр", "name:zh": "苏尔杜利查文化中心影院", "email": "surdulica.kc@gmail.com", "phone": "+381 815 018; +381 064 8431 681", "website": "http://www.surdulickikulturnicentar.rs", "addr:street": "Омладинска", "addr:housenumber": "1", "ref:RS:uk": 22603 }, "geometry": { "type": "Point", "coordinates": [ 22.17104, 42.69159 ] } },
{ "type": "Feature", "properties": { "amenity": "cinema", "name": "Биоскоп - Установа за културу Уб", "name:sr": "Биоскоп - Установа за културу Уб", "name:sr-Latn": "Bioskop - Ustanova za kulturu Ub", "name:en": "Cinema - Cultural and Sport Center Ub", "name:ru": "Кинотеатр - Учреждение культуры и спорта Уб", "name:zh": "乌布文化体育机构影院", "email": "ksc_ub@yahoo.com", "phone": "+381 411 111; +381 064 8198 848", "website": "https://www.kulturnicentarub.rs", "addr:street": "Вука Караџића", "addr:housenumber": "19", "ref:RS:uk": 22606 }, "geometry": { "type": "Point", "coordinates": [ 20.07285, 44.45592 ] } },
{ "type": "Feature", "properties": { "amenity": "cinema", "name": "Биоскоп - Установа културе", "name:sr": "Биоскоп - Установа културе", "name:sr-Latn": "Bioskop - Ustanova kulture", "name:en": "Cinema - Cultural Center", "name:ru": "Кинотеатр - Учреждение культуры ", "name:zh": "文化机构影院", "email": "ustanovakulture@live.com", "phone": "+381 741 047", "addr:street": "Краља Твртка Првог", "addr:housenumber": "5", "ref:RS:uk": 22605 }, "geometry": null },
{ "type": "Feature", "properties": { "amenity": "cinema", "name": "Биоскоп - Центар за културне делатности, туризам и библиотекарство", "name:sr": "Биоскоп - Центар за културне делатности, туризам и библиотекарство", "name:sr-Latn": "Bioskop - Centar za kulturne delatnosti, turizam i bibliotekarstvo", "name:en": "Cinema - Center for cultural activities, tourism and librarianship", "name:ru": "Кинотеатр - Центр культурной деятельности, туризма и библиотечного дела", "name:zh": "文化活动旅游图书馆中心影院", "email": "centarkulturevhan@gmail.com", "phone": "+381 473 824; +381 063 623 041", "addr:street": "Николе Тесле", "addr:housenumber": "2", "ref:RS:uk": 22318 }, "geometry": { "type": "Point", "coordinates": [ 22.06154, 42.70608 ] } },
{ "type": "Feature", "properties": { "amenity": "cinema", "name": "Биоскоп - Центар за културу Бор, биоскоп „ЗВЕЗДА”", "name:sr": "Биоскоп - Центар за културу Бор, биоскоп „ЗВЕЗДА”", "name:sr-Latn": "Bioskop - Centar za kulturu Bor, bioskop „ZVEZDA”", "name:en": "Cinema - Cultural Center Bor - \"Zvezda\" Cinema", "name:ru": "Кинотеатр - Культурный центр Бор, Кинотеатр „ЗВЕЗДА”", "name:zh": "波尔文化中心星星电影院", "email": "bioskopzvezdabor@gmail.com", "phone": "+381 421 259; +381 063 8380 786", "addr:street": "Ђуре Ђаковића", "addr:housenumber": "1", "ref:RS:uk": 22628 }, "geometry": { "type": "Point", "coordinates": [ 22.0979, 44.07855 ] } },
{ "type": "Feature", "properties": { "amenity": "cinema", "name": "Биоскоп - Центар за културу Ваљево", "name:sr": "Биоскоп - Центар за културу Ваљево", "name:sr-Latn": "Bioskop - Centar za kulturu Valjevo", "name:en": "Cinema - Cultural Center Valjevo", "name:ru": "Кинотеатр - Культурный центр Валево", "name:zh": "瓦列沃文化中心影院", "email": "sladjanamarkovic@yahoo.com", "phone": "+381 223 219; +381 14221 660", "addr:street": "Чика Љубина", "addr:housenumber": "5", "ref:RS:uk": 22672 }, "geometry": { "type": "Point", "coordinates": [ 19.88738, 44.26923 ] } },
{ "type": "Feature", "properties": { "amenity": "cinema", "name": "Биоскоп - Центар за културу Градац", "name:sr": "Биоскоп - Центар за културу Градац", "name:sr-Latn": "Bioskop - Centar za kulturu Gradac", "name:en": "Cinema - Cultural Center Gradac", "name:ru": "Кинотеатр - Культурный центр Градац", "name:zh": "格拉达茨文化中心影院", "email": "ckgradac@ptt.rs", "phone": "+381 736 273; +381 065 9766 615", "addr:street": "Ибарска", "addr:housenumber": "6", "ref:RS:uk": 22643 }, "geometry": { "type": "Point", "coordinates": [ 20.61415, 43.28852 ] } },
{ "type": "Feature", "properties": { "amenity": "cinema", "name": "Биоскоп - Центар за културу и образовање општине Аранђеловац", "name:sr": "Биоскоп - Центар за културу и образовање општине Аранђеловац", "name:sr-Latn": "Bioskop - Centar za kulturu i obrazovanje opštine Aranđelovac", "name:en": "Center for Culture and Education Arandjelovac", "name:ru": "Кинотеатр - Центр культуры и образования муниципалитета Аранджеловац", "name:zh": "阿兰杰洛瓦茨城区文化教育中心影院", "email": "arcult.ar@gmail.com", "phone": "+381 711 035; +381 34711 118; +381 064 8669 250", "website": "http://www.arkultura.rs", "addr:street": "Књаза Милоша", "addr:housenumber": "293", "ref:RS:uk": 22624 }, "geometry": { "type": "Point", "coordinates": [ 20.55743, 44.30758 ] } },
{ "type": "Feature", "properties": { "amenity": "cinema", "name": "Биоскоп - Центар за културу и спорт општине Лучани у Гучи", "name:sr": "Биоскоп - Центар за културу и спорт општине Лучани у Гучи", "name:sr-Latn": "Bioskop - Centar za kulturu i sport opštine Lučani u Guči", "name:en": "Cinema - CSC Lucani", "name:ru": "Кинотеатр - Центр культуры и спорта муниципалитета Лучани в Гуче", "name:zh": "古查鲁查尼城区文化运动中心影院", "email": "info@kcguca.rs", "phone": "+381 854 110", "website": "http://www.cksguca.rs", "addr:street": "Трг слободе 1", "addr:housenumber": "бб", "ref:RS:uk": 22661 }, "geometry": { "type": "Point", "coordinates": [ 20.22723, 43.77693 ] } },
{ "type": "Feature", "properties": { "amenity": "cinema", "name": "Биоскоп - Центар за културу и уметност", "name:sr": "Биоскоп - Центар за културу и уметност", "name:sr-Latn": "Bioskop - Centar za kulturu i umetnost", "name:en": "Cinema - Cultural and Art Center", "name:ru": "Кинотеатр - Центр культуры и искусства", "name:zh": "文化艺术中心影院", "email": "office@ckualeksinac.rs", "phone": "+381 804 618; +381 18804 822; +381 064 8115 057", "website": "http://www.centarzakulturu.aleksinac.org", "addr:street": "Душана Тривунца", "addr:housenumber": "15", "ref:RS:uk": 22622 }, "geometry": { "type": "Point", "coordinates": [ 21.70802, 43.54043 ] } },
{ "type": "Feature", "properties": { "amenity": "cinema", "name": "Биоскоп - Центар за културу Ковин", "name:sr": "Биоскоп - Центар за културу Ковин", "name:sr-Latn": "Bioskop - Centar za kulturu Kovin", "name:en": "Cinema - Cultural Center Kovin", "name:ru": "Кинотеатр - Культурный центр Ковин", "name:zh": "科文文化中心影院", "email": "kulturakovin@gmail.com", "phone": "+381 742 592", "website": "https://www.kulturakovin.rs", "addr:street": "Цара Лазара", "addr:housenumber": "85", "ref:RS:uk": 22630 }, "geometry": { "type": "Point", "coordinates": [ 20.97818, 44.74162 ] } },
{ "type": "Feature", "properties": { "amenity": "cinema", "name": "Биоскоп - Центар за културу Лазаревац", "name:sr": "Биоскоп - Центар за културу Лазаревац", "name:sr-Latn": "Bioskop - Centar za kulturu Lazarevac", "name:en": "Cinema - Cultural Center Lazarevac", "name:ru": "Кинотеатр - Культурный центр Лазаревац", "name:zh": "拉扎莱瓦茨文化中心影院", "email": "kinooperativa@gmail.com", "phone": "+381 8123 344; +381 060 6767 629", "website": "https://www.czklazarevac.rs", "addr:street": "Хиландарска", "addr:housenumber": "2", "ref:RS:uk": 22627 }, "geometry": { "type": "Point", "coordinates": [ 20.26225, 44.38142 ] } },
{ "type": "Feature", "properties": { "amenity": "cinema", "name": "Биоскоп - Центар за културу Пожаревац", "name:sr": "Биоскоп - Центар за културу Пожаревац", "name:sr-Latn": "Bioskop - Centar za kulturu Požarevac", "name:en": "Cultural Center Pozarevac", "name:ru": "Кинотеатр - Культурный центр Пожаревац", "name:zh": "波扎莱瓦茨文化中心影院", "email": "centarpozarevac@gmail.com", "phone": "+381 522 481; +381 12541 350; +381 12526 988; +381 064 8918 444", "website": "https://www.czkpo.rs", "addr:street": "Јована Шербановића", "addr:housenumber": "1", "ref:RS:uk": 22607 }, "geometry": { "type": "Point", "coordinates": [ 21.18763, 44.61906 ] } },
{ "type": "Feature", "properties": { "amenity": "cinema", "name": "Биоскоп - Центар за културу Смедерево", "name:sr": "Биоскоп - Центар за културу Смедерево", "name:sr-Latn": "Bioskop - Centar za kulturu Smederevo", "name:en": "Cultural Center Smederevo- Cinema", "name:ru": "Кинотеатр - Культурный центр Смедерево", "name:zh": "斯梅代雷沃文化中心影院", "email": "centar@sdkultura.org.rs", "phone": "+381 640 360; +381 064 8295 334", "website": "http://www.sdkultura.org.rs", "addr:street": "Карађорђева", "addr:housenumber": "5-7", "ref:RS:uk": 22594 }, "geometry": { "type": "Point", "coordinates": [ 20.92496, 44.66417 ] } },
{ "type": "Feature", "properties": { "amenity": "cinema", "name": "Биоскоп - Центар за културу Сопот", "name:sr": "Биоскоп - Центар за културу Сопот", "name:sr-Latn": "Bioskop - Centar za kulturu Sopot", "name:en": "Cinema - Cultural center Sopot", "name:ru": "Кинотеатр - Культурный центр Сопот", "name:zh": "索珀特文化中心影院", "email": "czksopot@gmail.com", "phone": "+381 8251 238; +381 063 256 599", "addr:street": "Космајски трг", "addr:housenumber": "7", "ref:RS:uk": 22599 }, "geometry": { "type": "Point", "coordinates": [ 20.57702, 44.51921 ] } },
{ "type": "Feature", "properties": { "amenity": "cinema", "name": "Биоскоп - ЦК „Вук Караџић”", "name:sr": "Биоскоп - ЦК „Вук Караџић”", "name:sr-Latn": "Bioskop - CK „Vuk Karadžić”", "name:en": "Cinema - Cultural center \"Vuk Karadzic\"", "name:ru": "Кинотеатр - КЦ „Вук Караджич”", "name:zh": "“武克·卡拉季奇”文化中心影院", "email": "centarkultureloznica@gmail.com", "phone": "+381 875 871; +381 15882 718; +381 15882 327", "website": "https://www.ckvkaradzic.org.rs", "addr:street": "Саве Ковачевића", "addr:housenumber": "1", "ref:RS:uk": 22646 }, "geometry": { "type": "Point", "coordinates": [ 19.2251, 44.53089 ] } },
{ "type": "Feature", "properties": { "amenity": "cinema", "name": "Биоскоп - ЦК Стара Пазова", "name:sr": "Биоскоп - ЦК Стара Пазова", "name:sr-Latn": "Bioskop - CK Stara Pazova", "name:en": "Cinema - Cultural center Stara Pazova", "name:ru": "Кинотеатр - КЦ Стара-Пазова", "name:zh": "老帕佐瓦文化中心影院", "email": "centarzakulturu.starapazova@gmail.com", "phone": "+381 311 022; +381 22311 104; +381 063 552 381", "website": "https://www.czkstarapazova.com", "addr:street": "Ћирила и Методија", "addr:housenumber": "11", "ref:RS:uk": 22680 }, "geometry": { "type": "Point", "coordinates": [ 20.15735, 44.9842 ] } },
{ "type": "Feature", "properties": { "amenity": "cinema", "name": "Биоскоп „Култура” - ОКУ „Cnesa” КАЊИЖА", "name:sr": "Биоскоп „Култура” - ОКУ „Cnesa” КАЊИЖА", "name:sr-Latn": "Bioskop „Kultura” - OKU „Cnesa” KANjIŽA", "name:en": "Kultura Cinema - ECI \"Cnesa\" Kanjiza", "name:ru": "Кинотеатр „Культура” - Образовательно-культурное учреждение „Цнеса” КАНИЖА", "name:zh": "卡尼扎“策奈沙”教育文化机构“文化”影院", "email": "cnesa@cnesa.rs", "phone": "+381 873 043; +381 063 80 82 550", "website": "https://www.cnesa.rs", "addr:street": "Главни трг", "addr:housenumber": "9", "ref:RS:uk": 22591 }, "geometry": { "type": "Point", "coordinates": [ 20.05949, 46.06547 ] } },
{ "type": "Feature", "properties": { "amenity": "cinema", "name": "Биоскоп „Мика Ђорђевић” - Центар за културу Брус", "name:sr": "Биоскоп „Мика Ђорђевић” - Центар за културу Брус", "name:sr-Latn": "Bioskop „Mika Đorđević” - Centar za kulturu Brus", "name:en": "Mika Djordjevic Cinema - Cultural center Brus", "name:ru": "Кинотеатр „Мика Джорджевич” - Культурный центр Брус", "name:zh": "布鲁斯文化中心“米卡·焦尔杰维奇”影院", "email": "centarzakulturu2013@gmail.com", "phone": "+381 3825 254", "addr:street": "Братиславе Петровић", "addr:housenumber": "15", "ref:RS:uk": 22670 }, "geometry": { "type": "Point", "coordinates": [ 21.03249, 43.38317 ] } },
{ "type": "Feature", "properties": { "amenity": "cinema", "name": "Биоскоп Аполо", "name:sr": "Биоскоп Аполо", "name:sr-Latn": "Bioskop Apolo", "name:en": "Bioskop Apolo", "email": "info@domomladinepancevo.rs", "phone": "+381 311315; +381 060 4656 663", "website": "https://www.domomladinepancevo.rs", "addr:street": "Светог Саве", "addr:housenumber": "10", "ref:RS:uk": 25252 }, "geometry": { "type": "Point", "coordinates": [ 20.64663, 44.87332 ] } },
{ "type": "Feature", "properties": { "amenity": "cinema", "name": "Биоскоп Вилин Град д.о.о", "name:sr": "Биоскоп Вилин Град д.о.о", "name:sr-Latn": "Bioskop Vilin Grad d.o.o", "name:en": "Vilin Grad Cinema LLC", "name:ru": "Кинотеатр Вилин-Град ООО", "name:zh": "维林城市公司影院", "email": "vilingrad.nis@vilingrad.rs", "phone": "+381 251 520; +381 064 8279 722", "website": "https://www.vilingrad.rs", "addr:street": "Обреновићева", "addr:housenumber": "19", "ref:RS:uk": 22314 }, "geometry": { "type": "Point", "coordinates": [ 21.89512, 43.31902 ] } },
{ "type": "Feature", "properties": { "amenity": "cinema", "name": "Биоскоп Јадран - ЈУ „Културни центар”", "name:sr": "Биоскоп Јадран - ЈУ „Културни центар”", "name:sr-Latn": "Bioskop Jadran - JU „Kulturni centar”", "name:en": "Jadran Cinema - PI \"Cultural centre\"", "name:ru": "Кинотеатр Ядран - ГУ „Культурный центр”", "name:zh": "“文化中心\"公共机构”雅德兰影院", "email": "kulturnicentarvg@gmail.com", "phone": "+381 661 179", "addr:street": "Кнеза Лазара", "addr:housenumber": "28", "ref:RS:uk": 22617 }, "geometry": { "type": "Point", "coordinates": [ 21.51783, 44.76546 ] } },
{ "type": "Feature", "properties": { "amenity": "cinema", "name": "Биоскоп Крајина - Дом културе „Стеван Мокрањац”", "name:sr": "Биоскоп Крајина - Дом културе „Стеван Мокрањац”", "name:sr-Latn": "Bioskop Krajina - Dom kulture „Stevan Mokranjac”", "name:en": "Krajina Cinema - Cultural centre \"Stevan Mokranjac\"", "name:ru": "Кинотеатр Крайина - Дом культуры  „Стеван Мокраняц”", "name:zh": "“斯特万·莫克拉尼亚茨“文化之家克拉依那影院", "email": "dkmokranjac@gmail.com", "phone": "+381 543 676", "addr:street": "Трг Ђорђа Станојевића", "addr:housenumber": "5", "ref:RS:uk": 22616 }, "geometry": { "type": "Point", "coordinates": [ 22.53016, 44.228 ] } },
{ "type": "Feature", "properties": { "amenity": "cinema", "name": "Биоскоп Лесковачког културног центра", "name:sr": "Биоскоп Лесковачког културног центра", "name:sr-Latn": "Bioskop Leskovačkog kulturnog centra", "name:en": "Cinema of the Leskovac Cultural Centre", "name:ru": "Кинотеатр Лесковацкого культурного центра", "name:zh": "莱斯科瓦茨文化中心影院", "email": "lkc@lkc.org.rs", "phone": "+381 248 302; +381 064 876 33 88", "website": "https://www.lkc.org.rs", "addr:street": "Булевар ослобођења", "addr:housenumber": "101", "ref:RS:uk": 22602 }, "geometry": { "type": "Point", "coordinates": [ 21.95177, 42.99607 ] } },
{ "type": "Feature", "properties": { "amenity": "cinema", "name": "Биоскоп СЦ Чајетина", "name:sr": "Биоскоп СЦ Чајетина", "name:sr-Latn": "Bioskop SC Čajetina", "name:en": "Bioskop SC Čajetina", "email": "ksc.cajetina@gmail.com", "phone": "+381 3832 014; +381 313832 256; +381 313831 160;; +381 062 289 730", "addr:street": "Александра Карађорђевића", "addr:housenumber": "3", "ref:RS:uk": 22601 }, "geometry": { "type": "Point", "coordinates": [ 19.71919, 43.75207 ] } },
{ "type": "Feature", "properties": { "amenity": "cinema", "name": "Велика сала за дигиталне пројекције у згради Југословенске кинотеке", "name:sr": "Велика сала за дигиталне пројекције у згради Југословенске кинотеке", "name:sr-Latn": "Velika sala za digitalne projekcije u zgradi Jugoslovenske kinoteke", "name:en": "Yugoslav Film Archives", "name:ru": "Большой зал и малый зал для цифровых проекций в здании Югославской кинотеки", "name:zh": "南斯拉夫电影馆数码项目大厅小厅", "email": "kinoteka@kinoteka.org.rs", "phone": "+381 2622 555; +381 112622 434; +381 112622 587; +381 063 1057 414", "website": "https://www.kinoteka.org.rs", "addr:street": "Узун Миркова", "addr:housenumber": "1", "ref:RS:uk": 25197 }, "geometry": { "type": "Point", "coordinates": [ 20.45594, 44.81963 ] } },
{ "type": "Feature", "properties": { "amenity": "cinema", "name": "Комбанк дворана", "name:sr": "Комбанк дворана", "name:sr-Latn": "Kombank dvorana", "email": "info@mcf.rs", "phone": "+381 011 7821 227; +381 064 6105 517", "website": "https://www.kombankdvorana.rs", "addr:street": "Дечанска", "addr:housenumber": "14", "ref:RS:uk": 22666 }, "geometry": { "type": "Point", "coordinates": [ 20.46288, 44.81348 ] } },
{ "type": "Feature", "properties": { "amenity": "cinema", "name": "Културни центар Горњи Милановац - Биоскоп", "name:sr": "Културни центар Горњи Милановац - Биоскоп", "name:sr-Latn": "Kulturni centar Gornji Milanovac - Bioskop", "name:en": "Cinema - Cultural center Gornji Milanovac", "name:ru": "Культурный центр Горни-Милановац - Кинотеатр", "name:zh": "上米拉诺瓦茨文化中心影院", "email": "office@kcgm.org.rs", "phone": "+381 711 118", "website": "https://www.kcgm.org.rs", "addr:street": "Кнез Михаилов трг", "addr:housenumber": "1", "ref:RS:uk": 22654 }, "geometry": { "type": "Point", "coordinates": [ 20.45907, 44.0242 ] } },
{ "type": "Feature", "properties": { "amenity": "cinema", "name": "ЛМ Биоскоп Шабац", "name:sr": "ЛМ Биоскоп Шабац", "name:sr-Latn": "LM Bioskop Šabac", "name:en": "LM Cinema", "name:ru": "Лм кинотеатр Шабац", "name:zh": "沙巴茨LM影院", "email": "marica.lazarevic@gmail.com", "phone": "+381 344 141; +381 063 8985 038", "addr:street": "Косте Абрашевића", "addr:housenumber": "2", "ref:RS:uk": 22323 }, "geometry": { "type": "Point", "coordinates": [ 19.69179, 44.75582 ] } },
{ "type": "Feature", "properties": { "amenity": "cinema", "name": "Музеј Југословенске кинотеке - Биоскоп", "name:sr": "Музеј Југословенске кинотеке - Биоскоп", "name:sr-Latn": "Muzej Jugoslovenske kinoteke - Bioskop", "name:en": "Yugoslav Film Archives", "name:ru": "Музей Югославской кинотеки - Кинотеатр", "name:zh": "南斯拉夫电影博物馆影院", "email": "kinoteka@kinoteka.org.rs", "phone": "+381 3248 250; +381 063 1057 414", "website": "https://www.kinoteka.org.rs", "addr:street": "Косовска", "addr:housenumber": "11", "ref:RS:uk": 22632 }, "geometry": { "type": "Point", "coordinates": [ 20.46394, 44.81405 ] } },
{ "type": "Feature", "properties": { "amenity": "cinema", "name": "Отворени универзитет Суботица - Биоскоп Еуросинема", "name:sr": "Отворени универзитет Суботица - Биоскоп Еуросинема", "name:sr-Latn": "Otvoreni univerzitet Subotica - Bioskop Eurosinema", "name:en": "Open University Subotica", "name:ru": "Открытый университет Суботица - Кинотеатр Еуросинема", "name:zh": "苏博蒂察公开大学欧洲影院", "email": "еva@openunsubotica.rs", "phone": "+381 554 600", "website": "https://www.eurocinema.rs", "addr:street": "Трг цара Јована Ненада", "addr:housenumber": "15", "ref:RS:uk": 25311 }, "geometry": { "type": "Point", "coordinates": [ 19.66511, 46.10193 ] } },
{ "type": "Feature", "properties": { "amenity": "cinema", "name": "Предузеће „АРТ” доо", "name:sr": "Предузеће „АРТ” доо", "name:sr-Latn": "Preduzeće „ART” doo", "name:en": "Art company LLC", "name:ru": "Предприятие „АРТ” ООО", "name:zh": "“艺术”公司", "email": "arti@mts.rs", "phone": "+381 515 181; +381 064 1614 005", "website": "https://www.bioskopart.rs", "addr:street": "Петра Ћеловића", "addr:housenumber": "4", "ref:RS:uk": 22316 }, "geometry": { "type": "Point", "coordinates": [ 19.84114, 43.85665 ] } },
{ "type": "Feature", "properties": { "amenity": "cinema", "name": "Рода Cinepleх", "name:sr": "Рода Cinepleх", "name:sr-Latn": "Roda Cinepleh", "name:en": "Roda Cineplex", "name:ru": "Рода Синеплекс", "name:zh": "罗达影院", "email": "office@artvista.rs", "phone": "+381 3545 925; +381 062 250 565", "website": "https://www.rodacineplex.com", "addr:street": "Пожешка", "addr:housenumber": "83а", "ref:RS:uk": 22598 }, "geometry": { "type": "Point", "coordinates": [ 20.41436, 44.77417 ] } }
]
}
