{
"type": "FeatureCollection",
"name": "kulturni centri",
"crs": { "type": "name", "properties": { "name": "urn:ogc:def:crs:OGC:1.3:CRS84" } },
"features": [
{ "type": "Feature", "properties": { "amenity": "community_centre", "name": "Дом омладине Панчево", "name:sr": "Дом омладине Панчево", "name:sr-Latn": "Dom omladine Pančevo", "name:en": "Youth Cultural Center Pančevo", "name:ru": "Дом молодежи Панчево", "name:zh": "潘切沃青年之家", "email": "info@domomladinepancevo.rs", "phone": "+381 311 314; +381 13331 073", "website": "www.domomladinepancevo.rs", "addr:street": "Светог Саве", "addr:housenumber": "10", "ref:RS:uk": 21738 }, "geometry": { "type": "Point", "coordinates": [ 20.64663, 44.87332 ] } },
{ "type": "Feature", "properties": { "amenity": "community_centre", "name": "Културни центар Кула", "name:sr": "Културни центар Кула", "name:sr-Latn": "Kulturni centar Kula", "name:en": "Cultural Center Kula", "name:ru": "Культурный центр Кула", "name:zh": "库拉文化中心", "email": "pozoristekula@yahoo.com", "phone": "+381 722 477; +381  ", "website": null, "addr:street": "Јосипа Крамера", "addr:housenumber": "3", "ref:RS:uk": 21723 }, "geometry": { "type": "Point", "coordinates": [ 19.53123, 45.6084 ] } },
{ "type": "Feature", "properties": { "amenity": "community_centre", "name": "Нишки културни центар", "name:sr": "Нишки културни центар", "name:sr-Latn": "Niški kulturni centar", "name:en": "Cultural Center Niš", "name:ru": "Нишский культурный центр", "name:zh": "尼什文化中心", "email": "info@nkc.rs", "phone": "+381 595 740; +381 18595 744", "website": "www.nkc.rs", "addr:street": "Станоја Бунушевца", "addr:housenumber": "бб", "ref:RS:uk": 21778 }, "geometry": { "type": "Point", "coordinates": [ 21.8993, 43.31098 ] } },
{ "type": "Feature", "properties": { "amenity": "community_centre", "name": "ЈУ Културни центар „Властимир Павловић Царевац\" Велико Градиште", "name:sr": "ЈУ Културни центар „Властимир Павловић Царевац\" Велико Градиште", "name:sr-Latn": "JU Kulturni centar „Vlastimir Pavlović Carevac\" Veliko Gradište", "name:en": null, "name:ru": null, "name:zh": null, "email": "kulturnicentarvg@gmail.com", "phone": "+381 661 179; +381 060 5055 732", "website": "www.kcvg.org.rs", "addr:street": "Кнеза Лазара", "addr:housenumber": "28", "ref:RS:uk": 25312 }, "geometry": null },
{ "type": "Feature", "properties": { "amenity": "community_centre", "name": "Банатски културни центар „Ново Милошево“", "name:sr": "Банатски културни центар „Ново Милошево“", "name:sr-Latn": "Banatski kulturni centar „Novo Miloševo“", "name:en": "Banat Cultural Center", "name:ru": "Банатский культурный центр „Ново Милошево“", "name:zh": "巴纳特“新米洛舍沃”文化中心", "email": "banatskikulturnicentar@gmail.com", "phone": "+381 783 155", "website": "www.banatskikulturnicentar.blogspot.com", "addr:street": "Ј.Н.А.", "addr:housenumber": "35", "ref:RS:uk": 23700 }, "geometry": { "type": "Point", "coordinates": [ 20.14347, 45.59084 ] } },
{ "type": "Feature", "properties": { "amenity": "community_centre", "name": "Градски културни центар Ужице", "name:sr": "Градски културни центар Ужице", "name:sr-Latn": "Gradski kulturni centar Užice", "name:en": "Uzice City Cultural Centre", "name:ru": "Городской культурный центр Ужице", "name:zh": "乌日策城市文化中心", "email": "direktor@gkcuzice.rs", "phone": "+381 3100 201; +381 313100 202", "website": "www.gkcuzice.rs", "addr:street": "Трг Светог Саве", "addr:housenumber": "11", "ref:RS:uk": 23707 }, "geometry": { "type": "Point", "coordinates": [ 19.84149, 43.85646 ] } },
{ "type": "Feature", "properties": { "amenity": "community_centre", "name": "Гуарнериус, Центар лепих уметности Јована Колунџије Београд", "name:sr": "Гуарнериус, Центар лепих уметности Јована Колунџије Београд", "name:sr-Latn": "Guarnerius, Centar lepih umetnosti Jovana Kolundžije Beograd", "name:en": "Guarnerius Art Centre", "name:ru": "Гуарнериус, Центр изящных искусств Йована Колунджии Белград", "name:zh": "贝尔格莱德“约万·科隆知亚”古阿尔内利乌斯美术中心", "email": "info@guarnerius.rs", "phone": "+381 3346 807; +381 113345 237", "website": "www.guarnerius.rs", "addr:street": "Џорџа Вашингтона", "addr:housenumber": "12", "ref:RS:uk": 21890 }, "geometry": { "type": "Point", "coordinates": [ 20.46748, 44.81772 ] } },
{ "type": "Feature", "properties": { "amenity": "community_centre", "name": "Дечији културни центар - Ниш", "name:sr": "Дечији културни центар - Ниш", "name:sr-Latn": "Dečiji kulturni centar - Niš", "name:en": "Children's Cultural Center Niš", "name:ru": "Детский культурно центр Ниш", "name:zh": "尼什儿童文化教育创新中心", "email": "decijicentarucairu@gmail.com", "phone": "+381 514 748", "website": "www.decijicentarnis.org.rs", "addr:street": "IX бригаде", "addr:housenumber": "10", "ref:RS:uk": 21811 }, "geometry": { "type": "Point", "coordinates": [ 21.90556, 43.31597 ] } },
{ "type": "Feature", "properties": { "amenity": "community_centre", "name": "Дечији културни центар „Мајдан” Београд", "name:sr": "Дечији културни центар „Мајдан” Београд", "name:sr-Latn": "Dečiji kulturni centar „Majdan” Beograd", "name:en": "Children’s Cultural Center Majdan", "name:ru": "Детский культурный центр „Майдан” Белград", "name:zh": "贝尔格莱德“马伊丹”儿童文化中心", "email": "office@dkcmajdan.org.rs", "phone": "+381 3692 645", "website": "www.dkcmajdan.org.rs", "addr:street": "Козјачка", "addr:housenumber": "3-5", "ref:RS:uk": 21689 }, "geometry": { "type": "Point", "coordinates": [ 20.44665, 44.79407 ] } },
{ "type": "Feature", "properties": { "amenity": "community_centre", "name": "Дечији културни центар Београд", "name:sr": "Дечији културни центар Београд", "name:sr-Latn": "Dečiji kulturni centar Beograd", "name:en": "Children's Cultural Center Belgrade", "name:ru": "Детский культурный центр Белград", "name:zh": "贝尔格莱德儿童文化中心", "email": "info@dkcb.rs", "phone": "+381 3242 011; +381 113242 012; +381 060 6673 324", "website": "www.dkcb.rs", "addr:street": "Таковска", "addr:housenumber": "8", "ref:RS:uk": 21692 }, "geometry": { "type": "Point", "coordinates": [ 20.46986, 44.81138 ] } },
{ "type": "Feature", "properties": { "amenity": "community_centre", "name": "Дом културе \"Бојник\", Бојник", "name:sr": "Дом културе \"Бојник\", Бојник", "name:sr-Latn": "Dom kulture \"Bojnik\", Bojnik", "name:en": null, "name:ru": null, "name:zh": null, "email": "domkulture@bojnik.rs", "phone": "+381 820 820; +381 063 8899 933", "website": "www.domkulture.bojnik.rs", "addr:street": "Трг слободе 22", "addr:housenumber": "", "ref:RS:uk": 25302 }, "geometry": { "type": "Point", "coordinates": [ 21.72225, 43.01242 ] } },
{ "type": "Feature", "properties": { "amenity": "community_centre", "name": "Дом културе „25.мај” Долово", "name:sr": "Дом културе „25.мај” Долово", "name:sr-Latn": "Dom kulture „25.maj” Dolovo", "name:en": "Cultural Center \"25.maj\"", "name:ru": "Дом культуры  „25-е мая” Долово", "name:zh": "多洛沃“五月二十五日”文化之家", "email": "dk.dolovo@yahoo.com", "phone": "+381 2634 006; +381 060 5688 879; 063 7098 054", "website": "www.dkdolovo.rs", "addr:street": "Краља Петра Првог", "addr:housenumber": "36", "ref:RS:uk": 21909 }, "geometry": { "type": "Point", "coordinates": [ 20.87607, 44.89965 ] } },
{ "type": "Feature", "properties": { "amenity": "community_centre", "name": "Дом културе „3. октобар” Банатско Ново Село", "name:sr": "Дом културе „3. октобар” Банатско Ново Село", "name:sr-Latn": "Dom kulture „3. oktobar” Banatsko Novo Selo", "name:en": "Cultural Center  \"Third October\"  Banatsko Novo Selo", "name:ru": "Дом культуры  „3-е октября” Банатско-Ново-Село", "name:zh": "巴纳特新村“十月三日”文化之家", "email": "dkbnselo@gmail.com", "phone": "+381 615 488; +381 060 0691 020; 061 1415 707", "website": "domkulturebns.rs", "addr:street": "Маршала Тита", "addr:housenumber": "73", "ref:RS:uk": 21684 }, "geometry": { "type": "Point", "coordinates": [ 20.78421, 44.99143 ] } },
{ "type": "Feature", "properties": { "amenity": "community_centre", "name": "Дом културе „3. октобар” Ковачица", "name:sr": "Дом културе „3. октобар” Ковачица", "name:sr-Latn": "Dom kulture „3. oktobar” Kovačica", "name:en": "Cultural Center  \"Third October\" Kovačica", "name:ru": "Дом культуры  „3-е октября” Ковачица", "name:zh": "科瓦奇查“十月三日”文化之家", "email": "dkulture@gmail.com", "phone": "+381 661 112; +381 062 8850 814; 062 8850 813", "website": "www.kultura-kovacica.com", "addr:street": "Маршала Тита", "addr:housenumber": "46", "ref:RS:uk": 21775 }, "geometry": { "type": "Point", "coordinates": [ 20.61943, 45.11173 ] } },
{ "type": "Feature", "properties": { "amenity": "community_centre", "name": "Дом културе „Абдула Крашница” Прешево", "name:sr": "Дом културе „Абдула Крашница” Прешево", "name:sr-Latn": "Dom kulture „Abdula Krašnica” Preševo", "name:en": "Cultural Center \"Abdula Krašnica\" Preševo", "name:ru": "Дом культуры  „Абдула Крашница” Прешево", "name:zh": "普莱舍沃“阿卜杜拉·科拉什尼查”文化之家", "email": "naser_nuredini@hotmail.com", "phone": "+381 668 546; +381 17660 326", "website": null, "addr:street": "15 новембар", "addr:housenumber": "90", "ref:RS:uk": 21784 }, "geometry": { "type": "Point", "coordinates": [ 21.6542, 42.30505 ] } },
{ "type": "Feature", "properties": { "amenity": "community_centre", "name": "Дом културе „Братство-јединство”, Качарево", "name:sr": "Дом културе „Братство-јединство”, Качарево", "name:sr-Latn": "Dom kulture „Bratstvo-jedinstvo”, Kačarevo", "name:en": "Cultural Center Kacarevo", "name:ru": "Дом культуры  Качарево", "name:zh": "卡查莱沃文化之家", "email": "domkulture.kacarevo@gmail.com", "phone": "+381 602 050; +381 064 8171 570", "website": null, "addr:street": "Маршала Тита", "addr:housenumber": "37", "ref:RS:uk": 21879 }, "geometry": { "type": "Point", "coordinates": [ 20.69841, 44.96683 ] } },
{ "type": "Feature", "properties": { "amenity": "community_centre", "name": "Дом културе „Владимир М. Фијат” Самош", "name:sr": "Дом културе „Владимир М. Фијат” Самош", "name:sr-Latn": "Dom kulture „Vladimir M. Fijat” Samoš", "name:en": "Cultural Centre \"Vladimir M. Fijat\" Samos", "name:ru": "Дом культуры  „Владимир М. Фият” Самош", "name:zh": "萨莫什“弗拉迪米尔·姆·菲亚特”文化之家", "email": null, "phone": "+381 675 323", "website": "www.vmfsamos.business.site", "addr:street": "Маршала Тита", "addr:housenumber": "23", "ref:RS:uk": 21898 }, "geometry": { "type": "Point", "coordinates": [ 20.77119, 45.20205 ] } },
{ "type": "Feature", "properties": { "amenity": "community_centre", "name": "Дом културе „Вук Караџић” Омољица", "name:sr": "Дом културе „Вук Караџић” Омољица", "name:sr-Latn": "Dom kulture „Vuk Karadžić” Omoljica", "name:en": "Culture centre Omoljica", "name:ru": "Дом культуры  „Вук Караджич” Омолица", "name:zh": "奥姆利查“武克·卡拉季奇”文化之家", "email": "dkomoljica@gmail.com", "phone": "+381 617 005; +381 061 5150 981", "website": null, "addr:street": "Трг Светог Саве", "addr:housenumber": "1", "ref:RS:uk": 21876 }, "geometry": { "type": "Point", "coordinates": [ 20.73651, 44.75788 ] } },
{ "type": "Feature", "properties": { "amenity": "community_centre", "name": "Дом културе „Жарко Зрењанин” Иваново", "name:sr": "Дом културе „Жарко Зрењанин” Иваново", "name:sr-Latn": "Dom kulture „Žarko Zrenjanin” Ivanovo", "name:en": "Cultural Center \"Žarko Zrenjanin\" Ivanovo", "name:ru": "Дом культуры  „Жарко Зренянин” Иваново", "name:zh": "伊万诺沃“扎尔科·兹雷尼亚宁”文化之家", "email": "dkivanovo@gmail.com", "phone": "+381 629 129; +381 064 1804 208", "website": null, "addr:street": "Доже Ђерђа", "addr:housenumber": "62", "ref:RS:uk": 21702 }, "geometry": { "type": "Point", "coordinates": [ 20.69901, 44.74121 ] } },
{ "type": "Feature", "properties": { "amenity": "community_centre", "name": "Дом културе „Јован Томић” Нова Варош", "name:sr": "Дом културе „Јован Томић” Нова Варош", "name:sr-Latn": "Dom kulture „Jovan Tomić” Nova Varoš", "name:en": "Cultural Center \"Jovan Tomić\" Nova Varoš", "name:ru": "Дом культуры  „Йован Томич” Нова-Варош", "name:zh": "新瓦洛什“约万·托米奇”文化之家", "email": "domkulturenv@gmail.com", "phone": "+381 61 130; +381 063 1172 163", "website": "www.dknv.rs", "addr:street": "Трг војводе Петра Бојовића", "addr:housenumber": "5", "ref:RS:uk": 21674 }, "geometry": { "type": "Point", "coordinates": [ 19.81526, 43.46055 ] } },
{ "type": "Feature", "properties": { "amenity": "community_centre", "name": "Дом културе „Јожеф Атила” Дебељача", "name:sr": "Дом културе „Јожеф Атила” Дебељача", "name:sr-Latn": "Dom kulture „Jožef Atila” Debeljača", "name:en": "Cultural Center \"Jožef Atila\"  Debeljača", "name:ru": "Дом культуры  „Йожеф Атила” Дебеляча", "name:zh": "德贝利亚查“约热夫·阿提拉”文化之家", "email": "dk.debeljaca@yahoo.de", "phone": "+381 665 264", "website": "www.dkdebeljaca.com", "addr:street": "Трг Маршала Тита", "addr:housenumber": "18", "ref:RS:uk": 21796 }, "geometry": { "type": "Point", "coordinates": [ 20.6013, 45.06854 ] } },
{ "type": "Feature", "properties": { "amenity": "community_centre", "name": "Дом културе „Кочо Рацин” Јабука", "name:sr": "Дом културе „Кочо Рацин” Јабука", "name:sr-Latn": "Dom kulture „Kočo Racin” Jabuka", "name:en": "Cultural center \"Kočo Racin\"", "name:ru": "Дом культуры  „Кочо Рацин” Ябука", "name:zh": "亚布卡“科朝·拉钦“文化之家", "email": "dkjabuka@gmail.com", "phone": "+381 2624 067", "website": null, "addr:street": "Лоле Рибара", "addr:housenumber": "2", "ref:RS:uk": 21708 }, "geometry": { "type": "Point", "coordinates": [ 20.59465, 44.94611 ] } },
{ "type": "Feature", "properties": { "amenity": "community_centre", "name": "Дом културе „Мита Живков Лала” Црепаја", "name:sr": "Дом културе „Мита Живков Лала” Црепаја", "name:sr-Latn": "Dom kulture „Mita Živkov Lala” Crepaja", "name:en": "Cultural Center \"Mita Živkov Lala\" Crepaja", "name:ru": "Дом культуры  „Мита Живков Лала” Црепая", "name:zh": "茨莱帕亚“米塔·日夫科夫·拉拉”文化之家", "email": null, "phone": "+381 671 507", "website": "www.domkulturecrepaja.co.nf", "addr:street": "Трг ослобођења", "addr:housenumber": "9", "ref:RS:uk": 21795 }, "geometry": { "type": "Point", "coordinates": [ 20.63505, 45.01039 ] } },
{ "type": "Feature", "properties": { "amenity": "community_centre", "name": "Дом културе „Михаил Бабинка” Падина", "name:sr": "Дом културе „Михаил Бабинка” Падина", "name:sr-Latn": "Dom kulture „Mihail Babinka” Padina", "name:en": "Cultural Center \"Mihail Babinka\" Padina", "name:ru": "Дом культуры  „Михаил Бабинка” Падина", "name:zh": "帕迪娜“米哈伊尔·巴宾卡”文化之家", "email": "dkmb@gmail.com", "phone": "+381 667 235", "website": null, "addr:street": "Трг ослобођења", "addr:housenumber": "1", "ref:RS:uk": 21797 }, "geometry": { "type": "Point", "coordinates": [ 20.72672, 45.11877 ] } },
{ "type": "Feature", "properties": { "amenity": "community_centre", "name": "Дом културе „Михајло Пупин” Идвор", "name:sr": "Дом културе „Михајло Пупин” Идвор", "name:sr-Latn": "Dom kulture „Mihajlo Pupin” Idvor", "name:en": "Cultural Center\"Mihajlo Pupin\"", "name:ru": "Дом культуры  „Михайло Пупин”", "name:zh": "“米哈伊尔·普平”文化之家", "email": "domkultureidvor@gmail.com", "phone": "+381 676 240; +381 062 256 341", "website": "www.muzejpupina.rs", "addr:street": "Иве Лоле Рибара ", "addr:housenumber": "49", "ref:RS:uk": 22682 }, "geometry": { "type": "Point", "coordinates": [ 20.51166, 45.19076 ] } },
{ "type": "Feature", "properties": { "amenity": "community_centre", "name": "Дом културе „Младост” Глогоњ", "name:sr": "Дом културе „Младост” Глогоњ", "name:sr-Latn": "Dom kulture „Mladost” Glogonj", "name:en": "Cultural Center \"Mladost\" Glogonj", "name:ru": "Дом культуры  „Молодость” Глогонь", "name:zh": "格洛格尼“青年”文化之家", "email": "dkmladost@yahoo.com", "phone": "+381 627 115; +381 063 8787 850", "website": null, "addr:street": "Први мај ", "addr:housenumber": "82", "ref:RS:uk": 21877 }, "geometry": { "type": "Point", "coordinates": [ 20.52797, 44.98514 ] } },
{ "type": "Feature", "properties": { "amenity": "community_centre", "name": "Дом културе „Пиво Караматијевић” Прибој", "name:sr": "Дом културе „Пиво Караматијевић” Прибој", "name:sr-Latn": "Dom kulture „Pivo Karamatijević” Priboj", "name:en": "Cultural Center  \"Pivo Karamatijević\" Priboj", "name:ru": "Дом культуры  „Пиво Караматиевич” Прибой", "name:zh": "普利波伊“皮沃·卡拉玛提耶维奇”文化之家", "email": "dkulturepb@gmail.com", "phone": "+381 2454 802; +381 069 1223 005", "website": "domkulturepriboj.rs", "addr:street": "12. јануара", "addr:housenumber": "86", "ref:RS:uk": 21668 }, "geometry": { "type": "Point", "coordinates": [ 19.52596, 43.58242 ] } },
{ "type": "Feature", "properties": { "amenity": "community_centre", "name": "Дом културе „Политика” Крупањ", "name:sr": "Дом културе „Политика” Крупањ", "name:sr-Latn": "Dom kulture „Politika” Krupanj", "name:en": null, "name:ru": null, "name:zh": null, "email": "bibliotekapolitika@gmail.com", "phone": "+381 581 033, 581 203", "website": "www.krupanj.org.rs/prezentacija/kultura_i_umetnost.html", "addr:street": "Мачков камен", "addr:housenumber": "3", "ref:RS:uk": 25291 }, "geometry": { "type": "Point", "coordinates": [ 19.3631, 44.36379 ] } },
{ "type": "Feature", "properties": { "amenity": "community_centre", "name": "Дом културе „Радан” Лебане", "name:sr": "Дом културе „Радан” Лебане", "name:sr-Latn": "Dom kulture „Radan” Lebane", "name:en": "Cultural Center \"Radan\" Lebane", "name:ru": "Дом культуры  „Радан” Лебане", "name:zh": "莱巴内“拉丹”文化之家", "email": "domkultureradan@gmail.com", "phone": "+381 843 920; +381 066 8772 780", "website": null, "addr:street": "Цара Душана", "addr:housenumber": "79", "ref:RS:uk": 21752 }, "geometry": { "type": "Point", "coordinates": [ 21.73773, 42.91762 ] } },
{ "type": "Feature", "properties": { "amenity": "community_centre", "name": "Дом културе „Радивој Увалић Бата” Прокупље", "name:sr": "Дом културе „Радивој Увалић Бата” Прокупље", "name:sr-Latn": "Dom kulture „Radivoj Uvalić Bata” Prokuplje", "name:en": "Cultural Center  \"Radivoj Uvalić Bata\" Prokuplje", "name:ru": "Дом культуры  „Радивой Увалич Бата” Прокупле", "name:zh": "普罗库普列“拉迪沃伊·乌瓦利奇·巴塔“文化之家", "email": "domkulturepk@gmail.com", "phone": "+381 324370; +381 060 7117 355", "website": "domkulturepk.com", "addr:street": "Косте Војиновића", "addr:housenumber": "1", "ref:RS:uk": 21812 }, "geometry": { "type": "Point", "coordinates": [ 21.58314, 43.23141 ] } },
{ "type": "Feature", "properties": { "amenity": "community_centre", "name": "Дом културе „Стеван Мокрањац” Неготин", "name:sr": "Дом културе „Стеван Мокрањац” Неготин", "name:sr-Latn": "Dom kulture „Stevan Mokranjac” Negotin", "name:en": "Cultural Center \"Stevan Mokranjac\" Negotin", "name:ru": "Дом культуры  „Стеван Мокраняц” Неготин", "name:zh": "内戈廷“斯太凡·莫克拉尼亚茨”文化之家", "email": "dkmokranjac@gmail.com", "phone": "+381 543 676; +381 19542 334; +381 063 416 430", "website": "www.domkulture-negotin.rs", "addr:street": "Трг Ђорђа Станојевића", "addr:housenumber": "5", "ref:RS:uk": 21787 }, "geometry": { "type": "Point", "coordinates": [ 22.53016, 44.228 ] } },
{ "type": "Feature", "properties": { "amenity": "community_centre", "name": "Дом културе „Студеница” Ушће", "name:sr": "Дом културе „Студеница” Ушће", "name:sr-Latn": "Dom kulture „Studenica” Ušće", "name:en": "Cultural Center \"Studenica\" Kraljevo", "name:ru": "Дом культуры  „Студеница” Ушче", "name:zh": "乌什切“斯图丹尼查”文化中心", "email": "domusce@mts.rs", "phone": "+381 5430 056", "website": null, "addr:street": "23. новембар", "addr:housenumber": "12", "ref:RS:uk": 21672 }, "geometry": { "type": "Point", "coordinates": [ 20.61762, 43.46831 ] } },
{ "type": "Feature", "properties": { "amenity": "community_centre", "name": "Дом културе „Студентски град”", "name:sr": "Дом културе „Студентски град”", "name:sr-Latn": "Dom kulture „Studentski grad”", "name:en": "`Students’ City` Cultural Center", "name:ru": "Дом культуры  Студенческий городок", "name:zh": "大学生城文化之家", "email": "office@dksg.rs", "phone": "+381 2671 525; +381 062 267 856", "website": "www.dksg.rs", "addr:street": "Булевар Зорана Ђинђића", "addr:housenumber": "179", "ref:RS:uk": 21665 }, "geometry": { "type": "Point", "coordinates": [ 20.40073, 44.8249 ] } },
{ "type": "Feature", "properties": { "amenity": "community_centre", "name": "Дом културе „Тихомир Ракић - Вељко” Печењевце", "name:sr": "Дом културе „Тихомир Ракић - Вељко” Печењевце", "name:sr-Latn": "Dom kulture „Tihomir Rakić - Veljko” Pečenjevce", "name:en": "Cultural Center \"Tihomir Rakic - Veljko\" Pecenjevce", "name:ru": "Дом культуры  „Тихомир Ракич - Велько” Печеневце", "name:zh": "佩切涅夫策“提霍米尔·拉基奇-韦利科”文化之家", "email": "domkulturepecenjevce@gmail.com", "phone": "+381 791 003; +381 064 8965 226", "website": "www.domkulturepecenjevce.rs", "addr:street": "Маршала Тита ", "addr:housenumber": "10", "ref:RS:uk": 21913 }, "geometry": { "type": "Point", "coordinates": [ 21.92637, 43.10116 ] } },
{ "type": "Feature", "properties": { "amenity": "community_centre", "name": "Дом културе Бабушница", "name:sr": "Дом културе Бабушница", "name:sr-Latn": "Dom kulture Babušnica", "name:en": "Cultural Center Babušnica", "name:ru": "Дом культуры  Бабушница", "name:zh": "巴布什尼查文化之家", "email": "domkulturebabusnica@yahoo.com", "phone": "+381 385 154", "website": null, "addr:street": "Саше Ивковића", "addr:housenumber": "1", "ref:RS:uk": 21711 }, "geometry": { "type": "Point", "coordinates": [ 22.41168, 43.06604 ] } },
{ "type": "Feature", "properties": { "amenity": "community_centre", "name": "Дом културе Бачка Топола", "name:sr": "Дом културе Бачка Топола", "name:sr-Latn": "Dom kulture Bačka Topola", "name:en": "Cultural Center Bačka Topola", "name:ru": "Дом культуры  Бачка Топола", "name:zh": "巴池托珀拉文化之家", "email": "kultura@stcable.net", "phone": "+381 713 515; +381 063 1087 713", "website": "www.domkulturebt.org", "addr:street": "Главна", "addr:housenumber": "12", "ref:RS:uk": 21703 }, "geometry": { "type": "Point", "coordinates": [ 19.63146, 45.813 ] } },
{ "type": "Feature", "properties": { "amenity": "community_centre", "name": "Дом културе Грделица", "name:sr": "Дом културе Грделица", "name:sr-Latn": "Dom kulture Grdelica", "name:en": "Cultural Centre Grdelica", "name:ru": "Дом культуры  Грделица", "name:zh": "格尔德利查文化之家", "email": "dkgrdelica@mts.rs", "phone": "+381 3426 117", "website": "www.domkulture.co.rs", "addr:street": "29. Новембар", "addr:housenumber": "1", "ref:RS:uk": 21893 }, "geometry": { "type": "Point", "coordinates": [ 22.07345, 42.89242 ] } },
{ "type": "Feature", "properties": { "amenity": "community_centre", "name": "Дом културе Доина Уздин", "name:sr": "Дом културе Доина Уздин", "name:sr-Latn": "Dom kulture Doina Uzdin", "name:en": "Cultural Center \"Doina\" Uzdin", "name:ru": "Дом культуры Доина Уздин", "name:zh": "乌兹丁多伊纳文化之家", "email": "ccdoinauzdin@yahoo.com", "phone": "+381 673 102; +381 062 8982 763", "website": null, "addr:street": "Тудор Владимиреску", "addr:housenumber": "168", "ref:RS:uk": 21781 }, "geometry": { "type": "Point", "coordinates": [ 20.62138, 45.20672 ] } },
{ "type": "Feature", "properties": { "amenity": "community_centre", "name": "Дом културе Књажевац", "name:sr": "Дом културе Књажевац", "name:sr-Latn": "Dom kulture Knjaževac", "name:en": "Cultural Center Knjaževac", "name:ru": "Дом культуры  Княжевац", "name:zh": "克尼亚热瓦茨文化之家", "email": "dkknjazevac@ptt.rs", "phone": "+381 732 520; +381 064 8992 733; 064 8992 732", "website": "www.dkknjazevac.net", "addr:street": "Бранка Радичевића", "addr:housenumber": "1", "ref:RS:uk": 21782 }, "geometry": { "type": "Point", "coordinates": [ 22.25549, 43.56869 ] } },
{ "type": "Feature", "properties": { "amenity": "community_centre", "name": "Дом културе Мали Зворник", "name:sr": "Дом културе Мали Зворник", "name:sr-Latn": "Dom kulture Mali Zvornik", "name:en": "Cultural Center Zvornik", "name:ru": "Дом культуры  Мали Зворник", "name:zh": "小兹沃尔尼克文化之家", "email": "bibli@gmail.com", "phone": "+381 471 298", "website": null, "addr:street": "Краља Петра I", "addr:housenumber": "26", "ref:RS:uk": 22465 }, "geometry": { "type": "Point", "coordinates": [ 19.10598, 44.37524 ] } },
{ "type": "Feature", "properties": { "amenity": "community_centre", "name": "Дом културе Пирот", "name:sr": "Дом културе Пирот", "name:sr-Latn": "Dom kulture Pirot", "name:en": "Cultural Center Pirot", "name:ru": "Дом культуры  Пирот", "name:zh": "皮洛特文化之家", "email": "domkulturepirot@gmail.com", "phone": "+381 321 666; +381 10322 634; +381 10321 341; +381 060 2215 132", "website": "www.dkpirot.rs", "addr:street": "Српских владара", "addr:housenumber": "77", "ref:RS:uk": 21814 }, "geometry": { "type": "Point", "coordinates": [ 22.58572, 43.15568 ] } },
{ "type": "Feature", "properties": { "amenity": "community_centre", "name": "Дом културе Пријепоље", "name:sr": "Дом културе Пријепоље", "name:sr-Latn": "Dom kulture Prijepolje", "name:en": "Cultural Centre Prijepolje", "name:ru": "Дом культуры  Приеполе", "name:zh": "普利耶珀列文化之家", "email": "domkulturepp@gmail.com", "phone": "+381 711 566; +381 064 4459 100", "website": "www.dkp.rs", "addr:street": "Санџачких бригада", "addr:housenumber": "2", "ref:RS:uk": 21862 }, "geometry": { "type": "Point", "coordinates": [ 21.54782, 43.39124 ] } },
{ "type": "Feature", "properties": { "amenity": "community_centre", "name": "Дом културе Прњавор", "name:sr": "Дом културе Прњавор", "name:sr-Latn": "Dom kulture Prnjavor", "name:en": "Cultural Center Prnjavor", "name:ru": "Дом культуры  Прнявор", "name:zh": "普勒尼亚沃尔文化之家", "email": "domkultureprnjavor2001@gmail.com", "phone": "+381 283 312; +381 060 3547 133", "website": "www.domkultureprnjavor.org", "addr:street": "Карађорђева", "addr:housenumber": "2", "ref:RS:uk": 21867 }, "geometry": { "type": "Point", "coordinates": [ 19.38812, 44.69883 ] } },
{ "type": "Feature", "properties": { "amenity": "community_centre", "name": "Дом културе Ражањ", "name:sr": "Дом културе Ражањ", "name:sr-Latn": "Dom kulture Ražanj", "name:en": "Cultural Center Ražanj", "name:ru": "Дом культуры  Ражань", "name:zh": "拉扎尼文化之家", "email": "domkulturerazanj@gmail.com", "phone": "+381 3841 209; +381 064 8658 949", "website": "www.domkulturerazanj.rs", "addr:street": "Новоражањска", "addr:housenumber": "50", "ref:RS:uk": 21759 }, "geometry": { "type": "Point", "coordinates": [ 21.54781, 43.68325 ] } },
{ "type": "Feature", "properties": { "amenity": "community_centre", "name": "Дом културе Руски Крстур", "name:sr": "Дом културе Руски Крстур", "name:sr-Latn": "Dom kulture Ruski Krstur", "name:en": "Cultural Center Ruski Krstur", "name:ru": "Дом культуры  Руски-Крстур", "name:zh": "罗斯库尔斯图尔文化之家", "email": "dk.kerestur@gmail.com", "phone": "+381 703 357; +381 25703 032; +381 064 6182 124", "website": "www.domkultureruskikrstur.com", "addr:street": "Русинска", "addr:housenumber": "75", "ref:RS:uk": 21678 }, "geometry": { "type": "Point", "coordinates": [ 19.41667, 45.56246 ] } },
{ "type": "Feature", "properties": { "amenity": "community_centre", "name": "Дом културе Сивац", "name:sr": "Дом културе Сивац", "name:sr-Latn": "Dom kulture Sivac", "name:en": "Cultural Center Sivac", "name:ru": "Дом культуры  Сивац", "name:zh": "西瓦茨文化之家", "email": "domkulture.sivac@gmail.com", "phone": "+381 711 055; +381 064 3063 663", "website": "www.domkulture-sivac.net", "addr:street": "Маршала Тита", "addr:housenumber": "195", "ref:RS:uk": 21799 }, "geometry": { "type": "Point", "coordinates": [ 19.38152, 45.70138 ] } },
{ "type": "Feature", "properties": { "amenity": "community_centre", "name": "Дом културе Србобран", "name:sr": "Дом културе Србобран", "name:sr-Latn": "Dom kulture Srbobran", "name:en": "Cultural Center Srbobran", "name:ru": "Дом культуры  Србобран", "name:zh": "塞尔博布兰文化之家", "email": "dk@srbobran48.rs", "phone": "+381 731 919; +381 063 411 451", "website": "dk-srbobran.rs", "addr:street": "Цара Лазара", "addr:housenumber": "6", "ref:RS:uk": 21734 }, "geometry": { "type": "Point", "coordinates": [ 19.79287, 45.54699 ] } },
{ "type": "Feature", "properties": { "amenity": "community_centre", "name": "Дом културе Старчево", "name:sr": "Дом културе Старчево", "name:sr-Latn": "Dom kulture Starčevo", "name:en": "Cultural Center Starčevo", "name:ru": "Дом культуры  Старчево", "name:zh": "斯塔尔切沃文化之家", "email": null, "phone": "+381 631 913", "website": null, "addr:street": "Панчевачки пут", "addr:housenumber": "2", "ref:RS:uk": 21740 }, "geometry": { "type": "Point", "coordinates": [ 20.70586, 44.80687 ] } },
{ "type": "Feature", "properties": { "amenity": "community_centre", "name": "Дом културе Црвенка", "name:sr": "Дом културе Црвенка", "name:sr-Latn": "Dom kulture Crvenka", "name:en": "Cultural Center Crvenka", "name:ru": "Дом культуры  Црвенка", "name:zh": "策尔文卡文化之家", "email": "domkulturecrvenka025@gmail.com", "phone": "+381 731 713; +381 060 4945 855", "website": "www.domkulture-crvenka.com", "addr:street": "Маршала Тита", "addr:housenumber": "108", "ref:RS:uk": 21724 }, "geometry": { "type": "Point", "coordinates": [ 19.45858, 45.65804 ] } },
{ "type": "Feature", "properties": { "amenity": "community_centre", "name": "Дом културе Чачак", "name:sr": "Дом културе Чачак", "name:sr-Latn": "Dom kulture Čačak", "name:en": "Cultural Center Čačak", "name:ru": "Дом культуры  Чачак", "name:zh": "查查克文化之家", "email": "direktor@domkulturecacak.org", "phone": "+381 325 073; +381 064 1911 906; 064 8040 253", "website": "www.domkulturecacak.org", "addr:street": "Трг народног устанка", "addr:housenumber": "2", "ref:RS:uk": 21753 }, "geometry": { "type": "Point", "coordinates": [ 20.34986, 43.89193 ] } },
{ "type": "Feature", "properties": { "amenity": "community_centre", "name": "Дом омладине Београда", "name:sr": "Дом омладине Београда", "name:sr-Latn": "Dom omladine Beograda", "name:en": "Belgrade Youth Cultural Center", "name:ru": "Дом молодежи Белграда", "name:zh": "贝尔格莱德青年之家", "email": "dobinfo@domomladine.org", "phone": "+381 3220 127; +381 060 5102 062", "website": "www.domomladine.org", "addr:street": "Македонска ", "addr:housenumber": "22/IV", "ref:RS:uk": 21704 }, "geometry": { "type": "Point", "coordinates": [ 20.46279, 44.81556 ] } },
{ "type": "Feature", "properties": { "amenity": "community_centre", "name": "Дом омладине Вршац", "name:sr": "Дом омладине Вршац", "name:sr-Latn": "Dom omladine Vršac", "name:en": "Youth Centre Vrsac", "name:ru": "Дом молодежи Вршац", "name:zh": "弗尔沙茨青年之家", "email": "dovrsac@gmail.com", "phone": "+381 834 233; +381 26838 833", "website": null, "addr:street": "Дворска", "addr:housenumber": "28", "ref:RS:uk": 21709 }, "geometry": { "type": "Point", "coordinates": [ 21.29483, 45.11845 ] } },
{ "type": "Feature", "properties": { "amenity": "community_centre", "name": "Дом омладине Крагујевац", "name:sr": "Дом омладине Крагујевац", "name:sr-Latn": "Dom omladine Kragujevac", "name:en": "Youth Cultural Center Kragujevac", "name:ru": "Дом молодежи Крагуевац", "name:zh": "克拉古耶瓦茨青年之家", "email": "domomladinekg@yahoo.com", "phone": "+381 302 427; +381 34302 428 ", "website": "www.domomladine.com", "addr:street": "Бранка Радичевића", "addr:housenumber": "1", "ref:RS:uk": 21805 }, "geometry": { "type": "Point", "coordinates": [ 20.91195, 44.01131 ] } },
{ "type": "Feature", "properties": { "amenity": "community_centre", "name": "Задужбина Илије Милосављевића Коларца Београд", "name:sr": "Задужбина Илије Милосављевића Коларца Београд", "name:sr-Latn": "Zadužbina Ilije Milosavljevića Kolarca Beograd", "name:en": "Ilija M. Kolarac Endowment", "name:ru": "Задужбина Ильи Милосавлевича Колараца Белград", "name:zh": "贝尔格莱德伊利亚·米洛萨夫列维奇·科拉尔查遗赠基金会", "email": "pravna.sluzba@kolarac.rs", "phone": "+381 2635 073; +381 064 3030 008", "website": "www.kolarac.rs", "addr:street": "Студентски трг", "addr:housenumber": "5", "ref:RS:uk": 21693 }, "geometry": { "type": "Point", "coordinates": [ 20.45663, 44.81927 ] } },
{ "type": "Feature", "properties": { "amenity": "community_centre", "name": "ЈП Спортско културни центар „Обреновац”", "name:sr": "ЈП Спортско културни центар „Обреновац”", "name:sr-Latn": "JP Sportsko kulturni centar „Obrenovac”", "name:en": "Cultural-Leisure Center Obrenovac", "name:ru": "Госпредприятие спортивно-культурный центр „Обреновац\"", "name:zh": "奥布雷诺瓦茨运动文化中心国有公司", "email": "info@obrenovac-info.co.rs", "phone": "+381 8721 361", "website": "www.skcobrenovac.rs", "addr:street": "Краља Александра I", "addr:housenumber": "63", "ref:RS:uk": 21847 }, "geometry": { "type": "Point", "coordinates": [ 20.20031, 44.6581 ] } },
{ "type": "Feature", "properties": { "amenity": "community_centre", "name": "ЈУ Народни универзитет Врање", "name:sr": "ЈУ Народни универзитет Врање", "name:sr-Latn": "JU Narodni univerzitet Vranje", "name:en": "PI Public University Vranje", "name:ru": "ГУ Народный университет Вране", "name:zh": "弗拉涅国立大学文化机构", "email": "narodniuniverzitet@gmail.com", "phone": "+381 422 367; +381 17412 319; +381 064 8228 218; 064 3395 214", "website": "www.narodniuniverzitetvranje.edu.rs", "addr:street": "Кнеза Милоша ", "addr:housenumber": "26", "ref:RS:uk": 21815 }, "geometry": { "type": "Point", "coordinates": [ 21.89478, 42.55548 ] } },
{ "type": "Feature", "properties": { "amenity": "community_centre", "name": "Културни центар „Брана Црнчевић” Рума", "name:sr": "Културни центар „Брана Црнчевић” Рума", "name:sr-Latn": "Kulturni centar „Brana Crnčević” Ruma", "name:en": "Cultural center Ruma", "name:ru": "Культурный центр Рума", "name:zh": "鲁马文化中心", "email": "kulturnicentarruma@gmail.com", "phone": "+381 471 212; +381 069 715 765", "website": null, "addr:street": "Вељка Дугошевића ", "addr:housenumber": "102", "ref:RS:uk": 21701 }, "geometry": { "type": "Point", "coordinates": [ 19.82074, 45.00913 ] } },
{ "type": "Feature", "properties": { "amenity": "community_centre", "name": "Културни центар „Драинац”", "name:sr": "Културни центар „Драинац”", "name:sr-Latn": "Kulturni centar „Drainac”", "name:en": "Cultural Center  \"Drainac\" Blace", "name:ru": "Культурный центр „Драинац”", "name:zh": "“德拉伊纳茨”文化中心", "email": "k.c.drainac@gmail.com", "phone": "+381 371 709; +381 066 6209 179", "website": "www.drainac.com", "addr:street": "Краља Петра Првог", "addr:housenumber": "70", "ref:RS:uk": 21771 }, "geometry": { "type": "Point", "coordinates": [ 21.2933, 43.29591 ] } },
{ "type": "Feature", "properties": { "amenity": "community_centre", "name": "Културни центар „Лаза Костић” Сомбор", "name:sr": "Културни центар „Лаза Костић” Сомбор", "name:sr-Latn": "Kulturni centar „Laza Kostić” Sombor", "name:en": "Cultural Center \"Laza Kostić\" Sombor", "name:ru": "Культурный центр „Лаза Костич” Сомбор", "name:zh": "松博尔“拉扎·科斯蒂奇”文化中心", "email": "kulturnicentarsombor@gmail.com", "phone": "+381 468 328; +381 063 7236 907", "website": "www.kcsombor.org.rs", "addr:street": "Венац Радомира Путника", "addr:housenumber": "2", "ref:RS:uk": 21712 }, "geometry": { "type": "Point", "coordinates": [ 19.1095, 45.77294 ] } },
{ "type": "Feature", "properties": { "amenity": "community_centre", "name": "Културни центар „Радоје Домановић” Рача", "name:sr": "Културни центар „Радоје Домановић” Рача", "name:sr-Latn": "Kulturni centar „Radoje Domanović” Rača", "name:en": "Cultural Center \"Radoje Domanović\" Rača", "name:ru": "Культурный центр „Радое Доманович” Рача", "name:zh": "拉查“拉多耶·多玛诺维奇”文化中心", "email": "kcraca@gmail.com", "phone": "+381 751 275; +381 069 8084 193; 069 8084 191", "website": null, "addr:street": "Карађорђева", "addr:housenumber": "60", "ref:RS:uk": 21681 }, "geometry": { "type": "Point", "coordinates": [ 20.97889, 44.22723 ] } },
{ "type": "Feature", "properties": { "amenity": "community_centre", "name": "Културни центар „Рибница” Краљево", "name:sr": "Културни центар „Рибница” Краљево", "name:sr-Latn": "Kulturni centar „Ribnica” Kraljevo", "name:en": "Cultural Center \"Ribnica\" Kraljevo", "name:ru": "Культурный центр „Рибница” Кралево", "name:zh": "克拉列沃“利布尼查”文化中心", "email": "direktor@kcribnica.rs", "phone": "+381 375 757; +381 36375 759; +381 064 8207 297; 064 8207 296", "website": null, "addr:street": "Излетничка", "addr:housenumber": "2", "ref:RS:uk": 21669 }, "geometry": { "type": "Point", "coordinates": [ 20.69275, 43.71101 ] } },
{ "type": "Feature", "properties": { "amenity": "community_centre", "name": "Културни центар „Светозар Марковић” Јагодина", "name:sr": "Културни центар „Светозар Марковић” Јагодина", "name:sr-Latn": "Kulturni centar „Svetozar Marković” Jagodina", "name:en": "Cultural Centre Jagodina", "name:ru": "Культурный центр „Светозар Маркович” Ягодина", "name:zh": "雅戈蒂那“斯维托扎尔·马尔科维奇“文化中心", "email": "kultcentar@gmail.com", "phone": "+381 221 921; +381 35243 863; +381 064 8197 837", "website": "kcjagodina.rs", "addr:street": "Кнегиње Милице", "addr:housenumber": "25", "ref:RS:uk": 21699 }, "geometry": { "type": "Point", "coordinates": [ 21.26215, 43.97769 ] } },
{ "type": "Feature", "properties": { "amenity": "community_centre", "name": "Културни центар „Хаџи Рувим” Лајковац", "name:sr": "Културни центар „Хаџи Рувим” Лајковац", "name:sr-Latn": "Kulturni centar „Hadži Ruvim” Lajkovac", "name:en": "Cultural centre Lajkovac", "name:ru": "Культурный центр „Хаджи Рувим” Лайковац", "name:zh": "拉伊科瓦茨“哈吉·鲁维姆”文化中心", "email": "office@kclajkovac.rs", "phone": "+381 3431 176", "website": "www.kclajkovac.rs", "addr:street": "Војводе Мишића", "addr:housenumber": "2", "ref:RS:uk": 21866 }, "geometry": { "type": "Point", "coordinates": [ 20.16754, 44.37097 ] } },
{ "type": "Feature", "properties": { "amenity": "community_centre", "name": "Културни центар „Чукарица”", "name:sr": "Културни центар „Чукарица”", "name:sr-Latn": "Kulturni centar „Čukarica”", "name:en": "Cultural Center Cukarica", "name:ru": "Культурный центр Чукарица", "name:zh": "丘卡利查文化中心", "email": "office@kccukarica.rs", "phone": "+381 3552 678 ; +381 064 8258 526", "website": "www.kccukarica.rs", "addr:street": "Тургењевљева", "addr:housenumber": "5", "ref:RS:uk": 21881 }, "geometry": { "type": "Point", "coordinates": [ 20.41741, 44.78345 ] } },
{ "type": "Feature", "properties": { "amenity": "community_centre", "name": "Културни центар Апатин", "name:sr": "Културни центар Апатин", "name:sr-Latn": "Kulturni centar Apatin", "name:en": "Cultural center of Apatin", "name:ru": "Муниципальный культурный центр Апатин", "name:zh": "城区文化中心", "email": "info@kulturaapatin.com", "phone": "+381 773 303", "website": "www.kulturaapatin.com", "addr:street": "Трг Николе Тесле ", "addr:housenumber": "12", "ref:RS:uk": 21722 }, "geometry": { "type": "Point", "coordinates": [ 18.9791, 45.67375 ] } },
{ "type": "Feature", "properties": { "amenity": "community_centre", "name": "Културни центар Бачка Паланка", "name:sr": "Културни центар Бачка Паланка", "name:sr-Latn": "Kulturni centar Bačka Palanka", "name:en": "Cultural Center  Backa Palanka", "name:ru": "Культурный центр Бачка Паланка", "name:zh": "巴池帕兰卡文化中心", "email": "kulturnicentarbp@gmail.com", "phone": "+381 6041 644; +381 063 403 224", "website": "www.kcbp.rs", "addr:street": "Југословенске армије", "addr:housenumber": "19", "ref:RS:uk": 21720 }, "geometry": { "type": "Point", "coordinates": [ 19.38542, 45.24813 ] } },
{ "type": "Feature", "properties": { "amenity": "community_centre", "name": "Културни центар Београда", "name:sr": "Културни центар Београда", "name:sr-Latn": "Kulturni centar Beograda", "name:en": "Cultural Center of Belgrade", "name:ru": "Культурный центр Белграда", "name:zh": "贝尔格莱德文化中心", "email": "aleksandar.ilic@kcb.rs", "phone": "+381 2621 469; +381 063 7144 201; 062 800 5811; 062 800 5812", "website": "www.kcb.org.rs", "addr:street": "Кнез Михаилова", "addr:housenumber": "6/1", "ref:RS:uk": 21705 }, "geometry": { "type": "Point", "coordinates": [ 20.45978, 44.81547 ] } },
{ "type": "Feature", "properties": { "amenity": "community_centre", "name": "Културни центар Брус", "name:sr": "Културни центар Брус", "name:sr-Latn": "Kulturni centar Brus", "name:en": "Center for Cultural Activities and Librarianship Brus", "name:ru": "Центр культурной деятельности и библиотечного дела", "name:zh": "文化活动图书馆中心", "email": "centarzakulturu2013@gmail.com", "phone": "+381 825 254", "website": null, "addr:street": "Братиславе Петровић", "addr:housenumber": "15", "ref:RS:uk": 21917 }, "geometry": { "type": "Point", "coordinates": [ 21.03247, 43.38317 ] } },
{ "type": "Feature", "properties": { "amenity": "community_centre", "name": "Културни центар Власотинце", "name:sr": "Културни центар Власотинце", "name:sr-Latn": "Kulturni centar Vlasotince", "name:en": "Cultural Center Vlasotince", "name:ru": "Культурный центр Власотинце", "name:zh": "弗拉索廷策文化中心", "email": "kcentarvl@mts.rs", "phone": "+381 875 314; +381 16877 466; +381  064 8806 902", "website": "www.kcvlasotince.rs", "addr:street": "АВНОЈ-а", "addr:housenumber": "1", "ref:RS:uk": 21666 }, "geometry": { "type": "Point", "coordinates": [ 22.12814, 42.96623 ] } },
{ "type": "Feature", "properties": { "amenity": "community_centre", "name": "Културни центар Војводине „Милош Црњански”, Нови Сад", "name:sr": "Културни центар Војводине „Милош Црњански”, Нови Сад", "name:sr-Latn": "Kulturni centar Vojvodine „Miloš Crnjanski”, Novi Sad", "name:en": null, "name:ru": null, "name:zh": null, "email": "office@zkv.rs", "phone": "+381 4754 128; +381 214754 148; +381 062 606 207", "website": "www.zkv.rs; www.kcvmc.rs", "addr:street": "Војводе Путника", "addr:housenumber": "2", "ref:RS:uk": 25293 }, "geometry": { "type": "Point", "coordinates": [ 19.85315, 45.25535 ] } },
{ "type": "Feature", "properties": { "amenity": "community_centre", "name": "Културни центар Врбас", "name:sr": "Културни центар Врбас", "name:sr-Latn": "Kulturni centar Vrbas", "name:en": "Cultural Center Vrbas", "name:ru": "Культурный центр Врбас", "name:zh": "弗尔巴茨文化中心", "email": "info@kcvrbas.org", "phone": "+381 706 054; +381 064 8577 075", "website": null, "addr:street": "Маршала Тита", "addr:housenumber": "87", "ref:RS:uk": 21732 }, "geometry": { "type": "Point", "coordinates": [ 19.64008, 45.57268 ] } },
{ "type": "Feature", "properties": { "amenity": "community_centre", "name": "Културни центар Вршац", "name:sr": "Културни центар Вршац", "name:sr-Latn": "Kulturni centar Vršac", "name:en": "Cultural Center Vrsac", "name:ru": "Культурный центр Вршац", "name:zh": "弗尔沙茨文化中心", "email": "office@kulcentar.com", "phone": "+381 830 900; +381 060 6050 630", "website": "www.kulcentar.com", "addr:street": "Стеријина", "addr:housenumber": "62", "ref:RS:uk": 21770 }, "geometry": { "type": "Point", "coordinates": [ 21.29859, 45.11611 ] } },
{ "type": "Feature", "properties": { "amenity": "community_centre", "name": "Културни центар Зрењанина", "name:sr": "Културни центар Зрењанина", "name:sr-Latn": "Kulturni centar Zrenjanina", "name:en": "Cultural Center Zrenjanin", "name:ru": "Культурный центр Зренянин", "name:zh": "兹雷尼亚宁文化中心", "email": "kczr@kczr.org", "phone": "+381 566 712; +381 064 8116 995 ", "website": "www.kczr.org", "addr:street": "Народне омладине", "addr:housenumber": "1", "ref:RS:uk": 21686 }, "geometry": { "type": "Point", "coordinates": [ 20.39, 45.37818 ] } },
{ "type": "Feature", "properties": { "amenity": "community_centre", "name": "Културни центар Инђија", "name:sr": "Културни центар Инђија", "name:sr-Latn": "Kulturni centar Inđija", "name:en": "Cultural centre of Indjija", "name:ru": "Культурный центр Инджия", "name:zh": "因吉亚文化中心", "email": "racunovodstvokci@gmail.com", "phone": "+381 2150 148; +381 22515 005; +381 22510 915; +381 064 6491 048", "website": "www.kcindjija.rs", "addr:street": "Војводе Степе", "addr:housenumber": "40а", "ref:RS:uk": 21707 }, "geometry": { "type": "Point", "coordinates": [ 20.08652, 45.051 ] } },
{ "type": "Feature", "properties": { "amenity": "community_centre", "name": "Културни центар Кикинда", "name:sr": "Културни центар Кикинда", "name:sr-Latn": "Kulturni centar Kikinda", "name:en": "Cultural Center  Kikinda", "name:ru": "Культурный центр Кикинда", "name:zh": "基金达文化中心", "email": "kulturni.centar@kikinda.org.rs; kckikinda@gmail.com", "phone": "+381 422 544; +381 064 8688 346", "website": "www.kck.rs ", "addr:street": "Трг српских добровољаца", "addr:housenumber": "23", "ref:RS:uk": 21901 }, "geometry": { "type": "Point", "coordinates": [ 20.46641, 45.8309 ] } },
{ "type": "Feature", "properties": { "amenity": "community_centre", "name": "Културни центар Крушевац", "name:sr": "Културни центар Крушевац", "name:sr-Latn": "Kulturni centar Kruševac", "name:en": "Cultural Center Kruševac", "name:ru": "Культурный центр Крушевац", "name:zh": "克鲁舍瓦茨文化中心", "email": "kck@kck.org.rs", "phone": "+381 421 877", "website": "www.kck.org.rs", "addr:street": "Топличина", "addr:housenumber": "2", "ref:RS:uk": 21810 }, "geometry": { "type": "Point", "coordinates": [ 21.32911, 43.58051 ] } },
{ "type": "Feature", "properties": { "amenity": "community_centre", "name": "Културни центар Мионица", "name:sr": "Културни центар Мионица", "name:sr-Latn": "Kulturni centar Mionica", "name:en": "Cultural-Educational Center \"Tika Marić\" Mionica", "name:ru": "Культурный центр Мионица", "name:zh": "米奥尼查文化中心", "email": "kcmionica@gmail.com", "phone": "+381 3422 773; +381 062 317 082", "website": null, "addr:street": "Др Јове Алексића", "addr:housenumber": "12", "ref:RS:uk": 21743 }, "geometry": { "type": "Point", "coordinates": [ 20.08081, 44.25322 ] } },
{ "type": "Feature", "properties": { "amenity": "community_centre", "name": "Културни центар Нови Пазар", "name:sr": "Културни центар Нови Пазар", "name:sr-Latn": "Kulturni centar Novi Pazar", "name:en": "Cultural center of Novi Pazar", "name:ru": "Культурный центр Нови-Пазар", "name:zh": "新帕扎尔文化中心", "email": "galerija.mmc.np@gmail.com", "phone": "+381 335 444; +381 063 8145 044", "website": "www.kcnovipazar.com", "addr:street": "Стевана Немање", "addr:housenumber": "2", "ref:RS:uk": 21731 }, "geometry": { "type": "Point", "coordinates": [ 20.51849, 43.14061 ] } },
{ "type": "Feature", "properties": { "amenity": "community_centre", "name": "Културни центар Новог Сада", "name:sr": "Културни центар Новог Сада", "name:sr-Latn": "Kulturni centar Novog Sada", "name:en": "Cultural Center Novi Sad", "name:ru": "Культурный центр Нови-Сада", "name:zh": "诺维萨德文化中心", "email": "info@kcns.org.rs", "phone": "+381 528 972; +381 063 522 003", "website": "www.kcns.org.rs", "addr:street": "Католичка порта", "addr:housenumber": "5", "ref:RS:uk": 21700 }, "geometry": { "type": "Point", "coordinates": [ 19.84531, 45.25629 ] } },
{ "type": "Feature", "properties": { "amenity": "community_centre", "name": "Културни центар општине Лучани у Гучи", "name:sr": "Културни центар општине Лучани у Гучи", "name:sr-Latn": "Kulturni centar opštine Lučani u Guči", "name:en": "Cultural Center Lučani Guča", "name:ru": "Центр культуры и спорта општине Лучани в Гуче", "name:zh": "古奇卢查尼城区文化运动中心", "email": "info@kcguca.rs", "phone": "+381 854 110; +381 064 8115 653", "website": "www.kcguca.rs", "addr:street": "Трг слободе", "addr:housenumber": "бб", "ref:RS:uk": 21768 }, "geometry": { "type": "Point", "coordinates": [ 20.22723, 43.77693 ] } },
{ "type": "Feature", "properties": { "amenity": "community_centre", "name": "Културни центар општине Медвеђа", "name:sr": "Културни центар општине Медвеђа", "name:sr-Latn": "Kulturni centar opštine Medveđa", "name:en": null, "name:ru": null, "name:zh": null, "email": "kcmedvedja@gmail.com", "phone": "+381 891 961; +381 064 8654 173", "website": "www.kcmedvedja.rs", "addr:street": "Краља Милана ", "addr:housenumber": "65", "ref:RS:uk": 25294 }, "geometry": { "type": "Point", "coordinates": [ 21.58581, 42.84288 ] } },
{ "type": "Feature", "properties": { "amenity": "community_centre", "name": "Културни центар општине Рековац", "name:sr": "Културни центар општине Рековац", "name:sr-Latn": "Kulturni centar opštine Rekovac", "name:en": "Cultural Center of Rekovac Municipality", "name:ru": "Культурный центр муниципалитета Рековац", "name:zh": "雷科瓦茨城区文化中心", "email": "kulturnicentarrekovac@hotmail.rs", "phone": "+381 8411 817; +381 060 3713 117", "website": null, "addr:street": "Краља Петра I", "addr:housenumber": "60", "ref:RS:uk": 21923 }, "geometry": { "type": "Point", "coordinates": [ 21.09372, 43.86312 ] } },
{ "type": "Feature", "properties": { "amenity": "community_centre", "name": "Културни центар Панчева", "name:sr": "Културни центар Панчева", "name:sr-Latn": "Kulturni centar Pančeva", "name:en": "Cultural Centre of Pancevo", "name:ru": "Культурный центр Панчево", "name:zh": "潘切沃文化中心", "email": "kcp@kcp.rs", "phone": "+381 440 944; +381 064 4381 211", "website": "www.kulturnicentarpanceva.rs", "addr:street": "Војводе Живојина Мишића", "addr:housenumber": "4", "ref:RS:uk": 21706 }, "geometry": { "type": "Point", "coordinates": [ 20.64227, 44.87027 ] } },
{ "type": "Feature", "properties": { "amenity": "community_centre", "name": "Културни центар Параћин", "name:sr": "Културни центар Параћин", "name:sr-Latn": "Kulturni centar Paraćin", "name:en": "Cultural Center Paracin", "name:ru": "Культурный центр Парачин", "name:zh": "帕拉钦文化中心", "email": "kcp@beotel.net", "phone": "+381 565 832; +381 063 616 523", "website": "www.kcp.org.rs", "addr:street": "Бранка Крсмановића", "addr:housenumber": "45", "ref:RS:uk": 21807 }, "geometry": { "type": "Point", "coordinates": [ 21.40798, 43.86237 ] } },
{ "type": "Feature", "properties": { "amenity": "community_centre", "name": "Културни центар Пећинци", "name:sr": "Културни центар Пећинци", "name:sr-Latn": "Kulturni centar Pećinci", "name:en": "Cultural Center Pećinci", "name:ru": "Культурный центр Печинци", "name:zh": "佩钦奇文化中心", "email": "kulturnicentarpecinci@gmail.com", "phone": "+381 2436 237, 2436 766", "website": null, "addr:street": "Слободана Бајића", "addr:housenumber": "1", "ref:RS:uk": 21765 }, "geometry": { "type": "Point", "coordinates": [ 19.96673, 44.90887 ] } },
{ "type": "Feature", "properties": { "amenity": "community_centre", "name": "Културни центар Руменка, Нови Сад", "name:sr": "Културни центар Руменка, Нови Сад", "name:sr-Latn": "Kulturni centar Rumenka, Novi Sad", "name:en": null, "name:ru": null, "name:zh": null, "email": "kulturnicentarrumenka@gmail.com", "phone": "+381 6216 297; +381 064 8461 621", "website": "www.kulturnicentarrumenka.rs", "addr:street": "Ослобођења ", "addr:housenumber": "26", "ref:RS:uk": 25292 }, "geometry": { "type": "Point", "coordinates": [ 19.74302, 45.2924 ] } },
{ "type": "Feature", "properties": { "amenity": "community_centre", "name": "Културни центар Шабац", "name:sr": "Културни центар Шабац", "name:sr-Latn": "Kulturni centar Šabac", "name:en": "Cultural Center \"Vera Blagojević\" Šabac", "name:ru": "Культурный центр Шабац", "name:zh": "沙巴茨文化中心", "email": "kcentar17@gmail.com", "phone": "+381 346 936; +381 15346 929", "website": "www.kulturni-centar.rs", "addr:street": "Господар Јевремова", "addr:housenumber": "12", "ref:RS:uk": 21802 }, "geometry": { "type": "Point", "coordinates": [ 19.69263, 44.75772 ] } },
{ "type": "Feature", "properties": { "amenity": "community_centre", "name": "Културни центар, Врњачка Бања", "name:sr": "Културни центар, Врњачка Бања", "name:sr-Latn": "Kulturni centar, Vrnjačka Banja", "name:en": "Cultural Center Vrnjačka Banja", "name:ru": "Культурный центр Врнячка-Баня", "name:zh": "弗拉涅巴尼亚文化中心", "email": "kulturnicentar.vb@gmail.com", "phone": "+381 611 153; +381 36611 152; +381 069 8854 288; 064 8854 282", "website": null, "addr:street": "Врњачка", "addr:housenumber": "20", "ref:RS:uk": 21719 }, "geometry": { "type": "Point", "coordinates": [ 20.89324, 43.61944 ] } },
{ "type": "Feature", "properties": { "amenity": "community_centre", "name": "Културно - образовни центар „Топлица”, Прокупље", "name:sr": "Културно - образовни центар „Топлица”, Прокупље", "name:sr-Latn": "Kulturno - obrazovni centar „Toplica”, Prokuplje", "name:en": null, "name:ru": null, "name:zh": null, "email": "koctoplicapk@gmail.com", "phone": "+381 321 113; +381 064 0777 660", "website": "www.koctoplica.com", "addr:street": "Кнез Михајлова ", "addr:housenumber": "55", "ref:RS:uk": 25303 }, "geometry": { "type": "Point", "coordinates": [ 21.58808, 43.23307 ] } },
{ "type": "Feature", "properties": { "amenity": "community_centre", "name": "Културно информативни центар „Лукијан Мушицки” Темерин", "name:sr": "Културно информативни центар „Лукијан Мушицки” Темерин", "name:sr-Latn": "Kulturno informativni centar „Lukijan Mušicki” Temerin", "name:en": "Cultural-Information Center \"Lukijan Musicki\" Temerin", "name:ru": "Культурно-информационный центр „Лукиян Мушицки” Темерин", "name:zh": "泰梅林“鲁基扬·姆西茨基”文化信息中心", "email": "kctemerin@gmail.com", "phone": "+381 843 695; +381 069 718 055", "website": "www.kctemerin.org", "addr:street": "Новосадска", "addr:housenumber": "324", "ref:RS:uk": 21920 }, "geometry": { "type": "Point", "coordinates": [ 19.88792, 45.40684 ] } },
{ "type": "Feature", "properties": { "amenity": "community_centre", "name": "Културно-издавачки центар „Српска кућа” д.о.о. Пожаревац", "name:sr": "Културно-издавачки центар „Српска кућа” д.о.о. Пожаревац", "name:sr-Latn": "Kulturno-izdavački centar „Srpska kuća” d.o.o. Požarevac", "name:en": "Cultural and publishing center `Serbianhouse`", "name:ru": "Культурно-издательский центр „Сербский дом” Пожаревац", "name:zh": "波扎莱瓦茨“塞尔维亚之家”文化出版中心", "email": "srpskakuca@gmail.com", "phone": "+381 211 099; +381 063 226 046", "website": "www.srpskakuca.org.rs", "addr:street": "Хајдук Вељкова", "addr:housenumber": "23", "ref:RS:uk": 21863 }, "geometry": { "type": "Point", "coordinates": [ 21.19059, 44.61967 ] } },
{ "type": "Feature", "properties": { "amenity": "community_centre", "name": "Културно-образовни центар „Вук Караџић” Пландиште", "name:sr": "Културно-образовни центар „Вук Караџић” Пландиште", "name:sr-Latn": "Kulturno-obrazovni centar „Vuk Karadžić” Plandište", "name:en": "Cultural-Educational Center \"Vuk Karadžić\" Plandište", "name:ru": "Культурно-образовательный центр „Вук Караджич” Пландиште", "name:zh": "普兰迪什泰“武克·卡拉季奇”文化教育中心", "email": "kultura.plandiste@hotmail.com", "phone": "+381 862 318", "website": null, "addr:street": "Војводе Путника", "addr:housenumber": "58", "ref:RS:uk": 21855 }, "geometry": { "type": "Point", "coordinates": [ 21.12341, 45.22944 ] } },
{ "type": "Feature", "properties": { "amenity": "community_centre", "name": "Културно-образовни центар „Турзо Лајош” Сента", "name:sr": "Културно-образовни центар „Турзо Лајош” Сента", "name:sr-Latn": "Kulturno-obrazovni centar „Turzo Lajoš” Senta", "name:en": "Cultural-Educational Center \"Turzo Lajoš\" Senta", "name:ru": "Культурно-образовательный центр „Турзо Лайош” Сента", "name:zh": "森塔“图兹洛·拉约什”文化教育中心", "email": "konyvtar@tlkk.org", "phone": "+381 811 334; +381 064 8473040", "website": "www.tlkk.org", "addr:street": "Поштанска", "addr:housenumber": "18", "ref:RS:uk": 21772 }, "geometry": { "type": "Point", "coordinates": [ 20.08616, 45.92961 ] } },
{ "type": "Feature", "properties": { "amenity": "community_centre", "name": "Културно-образовни центар Богатић", "name:sr": "Културно-образовни центар Богатић", "name:sr-Latn": "Kulturno-obrazovni centar Bogatić", "name:en": "Cultural-Educational Center Bogatić", "name:ru": "Культурно-образовательный центр Богатич", "name:zh": "波加蒂奇文化教育中心", "email": "kocbogatic2016@gmail.com", "phone": "+381 7786 148", "website": "kocbogatic.rs", "addr:street": "Мике Витомировића", "addr:housenumber": "6", "ref:RS:uk": 21742 }, "geometry": { "type": "Point", "coordinates": [ 19.48119, 44.83385 ] } },
{ "type": "Feature", "properties": { "amenity": "community_centre", "name": "Културно-образовни центар Бољевац", "name:sr": "Културно-образовни центар Бољевац", "name:sr-Latn": "Kulturno-obrazovni centar Boljevac", "name:en": "Cultural-Educational Center Boljevac", "name:ru": "Культурно-образовательный центр Болевац", "name:zh": "波列瓦茨文化教育中心", "email": "kultura@beotel.rs", "phone": "+381 463 737", "website": "www.kocboljevac.org.rs", "addr:street": "Кнеза Милоша", "addr:housenumber": "4", "ref:RS:uk": 21751 }, "geometry": { "type": "Point", "coordinates": [ 21.95868, 43.82991 ] } },
{ "type": "Feature", "properties": { "amenity": "community_centre", "name": "Културно-образовни центар Чока", "name:sr": "Културно-образовни центар Чока", "name:sr-Latn": "Kulturno-obrazovni centar Čoka", "name:en": "Cultural-Educational Center Čoka", "name:ru": "Культурно-образовательный центр Чока", "name:zh": "朝卡文化教育中心", "email": "adminkurs@gmail.com", "phone": "+381 71 046; +381 2372 442", "website": "www.koccoka.rs, www.coka.org.rs", "addr:street": "Маршала Тита", "addr:housenumber": "2", "ref:RS:uk": 21786 }, "geometry": { "type": "Point", "coordinates": [ 20.14091, 45.93775 ] } },
{ "type": "Feature", "properties": { "amenity": "community_centre", "name": "Културно-образовни центар Шид", "name:sr": "Културно-образовни центар Шид", "name:sr-Latn": "Kulturno-obrazovni centar Šid", "name:en": "Cultural-Educational Center Šid", "name:ru": "Культурно-образовательный центр Шид", "name:zh": "西得文化教育中心", "email": "kocsid@gmail.com", "phone": "+381 712 527; +381 069 718 778", "website": "www.kocsid.org.rs", "addr:street": "Карађорђева", "addr:housenumber": "42", "ref:RS:uk": 21737 }, "geometry": { "type": "Point", "coordinates": [ 19.22344, 45.12548 ] } },
{ "type": "Feature", "properties": { "amenity": "community_centre", "name": "Културно-просветна заједница Житиште", "name:sr": "Културно-просветна заједница Житиште", "name:sr-Latn": "Kulturno-prosvetna zajednica Žitište", "name:en": "Cultural-Educational community Zitiste", "name:ru": "Культурно-образовательное объединение Житиште", "name:zh": "日蒂什泰文化教育协会", "email": "zitiste.kpz@gmail.com", "phone": "+381 8222 203", "website": "www.kulturazitiste.org", "addr:street": "Цара Душана", "addr:housenumber": "15", "ref:RS:uk": 21790 }, "geometry": { "type": "Point", "coordinates": [ 20.55011, 45.48507 ] } },
{ "type": "Feature", "properties": { "amenity": "community_centre", "name": "Културно-просветни центар „Јован Шербановић”", "name:sr": "Културно-просветни центар „Јован Шербановић”", "name:sr-Latn": "Kulturno-prosvetni centar „Jovan Šerbanović”", "name:en": "Cultural-Educational center \"Jovan Serbanovic\"", "name:ru": "Культурно-просветительский центр „Йован Шербанович”", "name:zh": "“约万·舍尔巴诺维奇”文化教育协会", "email": "kpczagubica@gmail.com", "phone": "+381 643 835", "website": null, "addr:street": "Краља Милана", "addr:housenumber": "25", "ref:RS:uk": 21676 }, "geometry": { "type": "Point", "coordinates": [ 21.78658, 44.1981 ] } },
{ "type": "Feature", "properties": { "amenity": "community_centre", "name": "Културно-просветни центар, Петровац на Млави", "name:sr": "Културно-просветни центар, Петровац на Млави", "name:sr-Latn": "Kulturno-prosvetni centar, Petrovac na Mlavi", "name:en": "Cultural-Educational center Petrovac na Mlavi", "name:ru": "Культурно-просветительский центр Петровац-на-Млаве", "name:zh": "姆拉瓦彼得罗瓦茨文化教育协会", "email": "kpcpetrovac@gmail.com", "phone": "+381 331 065; +381 064 8679 926", "website": "www.kpcpetrovac.com", "addr:street": "Петра Добрњца", "addr:housenumber": "179", "ref:RS:uk": 21885 }, "geometry": { "type": "Point", "coordinates": [ 21.42269, 44.37649 ] } },
{ "type": "Feature", "properties": { "amenity": "community_centre", "name": "Сава центар Београд", "name:sr": "Сава центар Београд", "name:sr-Latn": "Sava centar Beograd", "name:en": "Sava Center Belgrade", "name:ru": "Центр Савва Белград", "name:zh": "贝尔格莱德萨瓦中心", "email": "kabinet@savacentar.net", "phone": "+381 2206 733", "website": "www.savacentar.net", "addr:street": "Милентија Поповића", "addr:housenumber": "9", "ref:RS:uk": 21886 }, "geometry": { "type": "Point", "coordinates": [ 20.43176, 44.80934 ] } },
{ "type": "Feature", "properties": { "amenity": "community_centre", "name": "Културно-туристички центар „Доситеј Обрадовић” Баточина", "name:sr": "Културно-туристички центар „Доситеј Обрадовић” Баточина", "name:sr-Latn": "Kulturno-turistički centar „Dositej Obradović” Batočina", "name:en": "Cultural Center \"Dositej Obradović\" Batočina", "name:ru": "Культурно-туристический центр „Досифей Обрадович” Баточина", "name:zh": "巴托契纳“多西泰伊·奥布拉多维奇”文化教育协会", "email": "kcbatocina@mts.rs", "phone": "+381 6842 145", "website": "www.ktcbatocina.rs", "addr:street": "Краља Петра I", "addr:housenumber": "69", "ref:RS:uk": 21783 }, "geometry": { "type": "Point", "coordinates": [ 21.07783, 44.14953 ] } },
{ "type": "Feature", "properties": { "amenity": "community_centre", "name": "Културно-туристички центар „Ђура Јакшић” Српска Црња", "name:sr": "Културно-туристички центар „Ђура Јакшић” Српска Црња", "name:sr-Latn": "Kulturno-turistički centar „Đura Jakšić” Srpska Crnja", "name:en": "Cultural and Tourist Center \"Djura Jaksic\" Srpska Crnja", "name:ru": "Культурно-туристический центр „Джура Якшич” Српска-Црня", "name:zh": "塞尔维亚策尔尼亚“久拉·亚克西奇”文化教育协会", "email": "ktcdjura@gmail.com", "phone": null, "website": null, "addr:street": "Краља Александра", "addr:housenumber": "62", "ref:RS:uk": 21919 }, "geometry": { "type": "Point", "coordinates": [ 20.69411, 45.72452 ] } },
{ "type": "Feature", "properties": { "amenity": "community_centre", "name": "Културно-туристички центар „Стефан Немања” Лапово", "name:sr": "Културно-туристички центар „Стефан Немања” Лапово", "name:sr-Latn": "Kulturno-turistički centar „Stefan Nemanja” Lapovo", "name:en": "Cultural Center \"Stefan Nemanja\" Lapovo", "name:ru": "Культурно-туристический центр „Стефан Неманя” Лапово", "name:zh": "拉珀沃“斯太凡·奈马尼亚”文化教育协会", "email": "ktcsnlapovo@gmail.com", "phone": "+381 6851 361; +381 069 699 205; 069 699 212", "website": "ktclapovo.gov.rs", "addr:street": "Његошева", "addr:housenumber": "33", "ref:RS:uk": 21680 }, "geometry": { "type": "Point", "coordinates": [ 21.10377, 44.18549 ] } },
{ "type": "Feature", "properties": { "amenity": "community_centre", "name": "Лесковачки културни центар", "name:sr": "Лесковачки културни центар", "name:sr-Latn": "Leskovački kulturni centar", "name:en": "Leskovac Cultural Centre", "name:ru": "Лесковацкий культурный центр", "name:zh": "莱斯科瓦茨文化中心", "email": "lkc@lkc.org.rs", "phone": "+381 248 302; +381 064 8974 050", "website": "www.lkc.org.rs", "addr:street": "Булевар ослобођења", "addr:housenumber": "101", "ref:RS:uk": 21687 }, "geometry": { "type": "Point", "coordinates": [ 21.95072, 42.99666 ] } },
{ "type": "Feature", "properties": { "amenity": "community_centre", "name": "Музички центар Крагујевац", "name:sr": "Музички центар Крагујевац", "name:sr-Latn": "Muzički centar Kragujevac", "name:en": null, "name:ru": null, "name:zh": null, "email": "muzickicentarkg@gmail.com", "phone": "+381 334 264; +381 063 1022 830; 060 7464 500", "website": "www.muzickicentar.rs", "addr:street": "Николе Пашића ", "addr:housenumber": "6/3", "ref:RS:uk": 25297 }, "geometry": { "type": "Point", "coordinates": [ 20.91665, 44.01243 ] } },
{ "type": "Feature", "properties": { "amenity": "community_centre", "name": "Народни универзитет Трстеник", "name:sr": "Народни универзитет Трстеник", "name:sr-Latn": "Narodni univerzitet Trstenik", "name:en": "Cultural Center", "name:ru": "Культурный центр", "name:zh": "文化中心", "email": "narodniuniverzitetts@gmail.com", "phone": "+381 712 516; +381 37711 204; +381 069 607 538", "website": "www.narodnits.rs", "addr:street": "Кнегиње Милице 16", "addr:housenumber": "/", "ref:RS:uk": 22791 }, "geometry": { "type": "Point", "coordinates": [ 20.99936, 43.61979 ] } },
{ "type": "Feature", "properties": { "amenity": "community_centre", "name": "Новобеоградска културна мрежа", "name:sr": "Новобеоградска културна мрежа", "name:sr-Latn": "Novobeogradska kulturna mreža", "name:en": "New Belgrade Cultural Network", "name:ru": "Новибелградская культурная сеть", "name:zh": "新贝尔格莱德文化网", "email": "nbkmreza@gmail.com", "phone": "+381 6151 675", "website": null, "addr:street": "Јурија Гагарина", "addr:housenumber": "221", "ref:RS:uk": 23678 }, "geometry": { "type": "Point", "coordinates": [ 20.37759, 44.79754 ] } },
{ "type": "Feature", "properties": { "amenity": "community_centre", "name": "Образовно културни центар Сечањ", "name:sr": "Образовно културни центар Сечањ", "name:sr-Latn": "Obrazovno kulturni centar Sečanj", "name:en": "Cultural-Educational Center Sečanj", "name:ru": "Образовательно-культурный центр Сечань", "name:zh": "塞查尼教育文化中心", "email": "okcsecanj@gmail.com", "phone": "+381 3841 471; +381 064 8271 040; 069 8023 445 ", "website": null, "addr:street": "Вожда Карађорђа", "addr:housenumber": "94", "ref:RS:uk": 21673 }, "geometry": { "type": "Point", "coordinates": [ 20.77178, 45.36423 ] } },
{ "type": "Feature", "properties": { "amenity": "community_centre", "name": "Образовно-културна установа „Cnesa” Кањижа", "name:sr": "Образовно-културна установа „Cnesa” Кањижа", "name:sr-Latn": "Obrazovno-kulturna ustanova „Cnesa” Kanjiža", "name:en": "Institution for Education and Culture  \"Cnesa\" Kanjiza", "name:ru": "Образовательно-культурное учреждение „Цнеса” Канижа", "name:zh": "卡尼扎“斯内沙”教育文化机构", "email": "cnesa@cnesa.rs", "phone": "+381 873 043; +381 063 8082 550", "website": "www.cnesa.rs", "addr:street": "Главни трг", "addr:housenumber": "9", "ref:RS:uk": 21683 }, "geometry": { "type": "Point", "coordinates": [ 20.05906, 46.06621 ] } },
{ "type": "Feature", "properties": { "amenity": "community_centre", "name": "Позориште Тимочке крајине - Културни центар „Зоран Радмиловић”", "name:sr": "Позориште Тимочке крајине - Културни центар „Зоран Радмиловић”", "name:sr-Latn": "Pozorište Timočke krajine - Kulturni centar „Zoran Radmilović”", "name:en": "Cultural-Educational community of Zajecar ", "name:ru": "Культурный центр города Заечар", "name:zh": "扎耶查尔城市文化中心", "email": "centarzakulturu019@mts.rs", "phone": "+381 425 426", "website": "www.gitarijada.org", "addr:street": "Тимочке буне 16", "addr:housenumber": "1/V", "ref:RS:uk": 21922 }, "geometry": { "type": "Point", "coordinates": [ 22.27494, 43.90115 ] } },
{ "type": "Feature", "properties": { "amenity": "community_centre", "name": "Спортски центар Чајетина, Дом културе", "name:sr": "Спортски центар Чајетина, Дом културе", "name:sr-Latn": "Sportski centar Čajetina, Dom kulture", "name:en": "Sports center Cajetina", "name:ru": null, "name:zh": null, "email": "ksc.cajetina@gmail.com", "phone": "+381 3832 014; +381 062 289 730", "website": "zlatiborpress.rs", "addr:street": "Краља Александра Карађорђевића", "addr:housenumber": "3", "ref:RS:uk": 21750 }, "geometry": { "type": "Point", "coordinates": [ 19.71911, 43.7524 ] } },
{ "type": "Feature", "properties": { "amenity": "community_centre", "name": "Спортско културни центар Пожега", "name:sr": "Спортско културни центар Пожега", "name:sr-Latn": "Sportsko kulturni centar Požega", "name:en": "Cultural Center Požega", "name:ru": "Культурный центр Пожега", "name:zh": "波热加文化中心", "email": "skcpozega@gmail.com", "phone": "+381 812 421; +381 069 750 849", "website": null, "addr:street": "Књаза Милоша", "addr:housenumber": "8", "ref:RS:uk": 21749 }, "geometry": { "type": "Point", "coordinates": [ 20.03693, 43.84611 ] } },
{ "type": "Feature", "properties": { "amenity": "community_centre", "name": "Српски културни центар „Стеван Сремац\", Сента", "name:sr": "Српски културни центар „Стеван Сремац\", Сента", "name:sr-Latn": "Srpski kulturni centar „Stevan Sremac\", Senta", "name:en": null, "name:ru": null, "name:zh": null, "email": null, "phone": "+381 817 055; +381 621290285", "website": "www.stevansremac.org.rs", "addr:street": "Стевана Сремца 4", "addr:housenumber": "", "ref:RS:uk": 25295 }, "geometry": { "type": "Point", "coordinates": [ 20.09263, 45.93104 ] } },
{ "type": "Feature", "properties": { "amenity": "community_centre", "name": "Студентски културни центар Београд", "name:sr": "Студентски културни центар Београд", "name:sr-Latn": "Studentski kulturni centar Beograd", "name:en": "Student Cultural Center Belgrade", "name:ru": "Студенческий культурный центр Белград", "name:zh": "贝尔格莱德大学生文化中心", "email": "direktor@skc.rs", "phone": "+381 3602 009", "website": "www.skc.org.rs", "addr:street": "Краља Милана", "addr:housenumber": "48", "ref:RS:uk": 21860 }, "geometry": { "type": "Point", "coordinates": [ 20.46438, 44.80617 ] } },
{ "type": "Feature", "properties": { "amenity": "community_centre", "name": "Студентски културни центар Ниш", "name:sr": "Студентски културни центар Ниш", "name:sr-Latn": "Studentski kulturni centar Niš", "name:en": "Student's cultural centre Nis", "name:ru": "Студенческий культурный центр Ниш", "name:zh": "尼什大学生文化中心", "email": "miodrag.mladenovic@skc-nis.com", "phone": "+381 523 120", "website": "www.skc-nis.com", "addr:street": "Шуматовачка", "addr:housenumber": "бб", "ref:RS:uk": 21696 }, "geometry": { "type": "Point", "coordinates": [ 21.8932, 43.32313 ] } },
{ "type": "Feature", "properties": { "amenity": "community_centre", "name": "Сурдулички културни центар", "name:sr": "Сурдулички културни центар", "name:sr-Latn": "Surdulički kulturni centar", "name:en": "Cultural Center of Surdulica", "name:ru": "Сурдулицкий культурный центр", "name:zh": "苏尔杜利查文化中心", "email": "surdulica.kc@gmail.com", "phone": "+381 815 018; +381 064 8656 089", "website": "www.surdulickikulturnicentar.rs", "addr:street": "Омладинска", "addr:housenumber": "1", "ref:RS:uk": 21816 }, "geometry": { "type": "Point", "coordinates": [ 22.17104, 42.69159 ] } },
{ "type": "Feature", "properties": { "amenity": "community_centre", "name": "Театар Вук", "name:sr": "Театар Вук", "name:sr-Latn": "Teatar Vuk", "name:en": null, "name:ru": null, "name:zh": null, "email": "biletarnica@ukvuk.org.rs", "phone": "+381 2424 860; +381 112421 314; +381 066 290 168", "website": "www.ukvuk.org.rs", "addr:street": "Булевар Краља Александра", "addr:housenumber": "77а", "ref:RS:uk": 21776 }, "geometry": { "type": "Point", "coordinates": [ 20.48121, 44.80369 ] } },
{ "type": "Feature", "properties": { "amenity": "community_centre", "name": "Установа „Култура” Бајина Башта", "name:sr": "Установа „Култура” Бајина Башта", "name:sr-Latn": "Ustanova „Kultura” Bajina Bašta", "name:en": "Cultural Center Bajina Basta", "name:ru": "Учреждение культуры  Баина-Башта", "name:zh": "巴伊那巴什塔文化机构", "email": "kulturabb@gmail.com", "phone": "+381 866 840; +381 066 6606 916; 066 6606 910", "website": null, "addr:street": "Вука Караџића", "addr:housenumber": "13", "ref:RS:uk": 21921 }, "geometry": { "type": "Point", "coordinates": [ 19.56523, 43.9719 ] } },
{ "type": "Feature", "properties": { "amenity": "community_centre", "name": "Установа Вождовачки центар „Шумице” Београд", "name:sr": "Установа Вождовачки центар „Шумице” Београд", "name:sr-Latn": "Ustanova Voždovački centar „Šumice” Beograd", "name:en": "Center for Culture and Sport Šumice", "name:ru": "Центр культуры и спорта „Шумице”  Белград", "name:zh": "贝尔格莱德“舒米策”文化运动中心", "email": "office@uvcsumice.rs", "phone": "+381 3472 967; +381 113472 957", "website": "www.uvcsumice.rs", "addr:street": "Устаничка 125а", "addr:housenumber": "125-I", "ref:RS:uk": 21727 }, "geometry": { "type": "Point", "coordinates": [ 20.48484, 44.78475 ] } },
{ "type": "Feature", "properties": { "amenity": "community_centre", "name": "Установа дом културе „Ивањица”", "name:sr": "Установа дом културе „Ивањица”", "name:sr-Latn": "Ustanova dom kulture „Ivanjica”", "name:en": "Cultural Center Ivanjica", "name:ru": "Дом культуры  Иваница", "name:zh": "伊瓦尼查文化之家", "email": "domkultureivanjica@mts.rs", "phone": "+381 661 087; +381 065 2606 229", "website": "domkultureivanjica.rs", "addr:street": "Венијамина Маринковића", "addr:housenumber": "бб", "ref:RS:uk": 21675 }, "geometry": { "type": "Point", "coordinates": [ 20.23111, 43.58055 ] } },
{ "type": "Feature", "properties": { "amenity": "community_centre", "name": "Установа за културу и информисање, Културни центар „Младост“ Футог", "name:sr": "Установа за културу и информисање, Културни центар „Младост“ Футог", "name:sr-Latn": "Ustanova za kulturu i informisanje, Kulturni centar „Mladost“ Futog", "name:en": "Cultural-Information Center \"Mladost\" Futog", "name:ru": "Культурно-информационный центр „Молодость” Футог", "name:zh": "弗托格“青年”文化信息中心", "email": "kicfutog@gmail.com", "phone": "+381 895 225; +381 21895 598; +381 060 3205 615; 060 3205 601", "website": "www.kcfutog.rs", "addr:street": "Цара Лазара", "addr:housenumber": "42", "ref:RS:uk": 21733 }, "geometry": { "type": "Point", "coordinates": [ 19.70604, 45.23738 ] } },
{ "type": "Feature", "properties": { "amenity": "community_centre", "name": "Установа за културу и образовање Културни центар „Кисач”", "name:sr": "Установа за културу и образовање Културни центар „Кисач”", "name:sr-Latn": "Ustanova za kulturu i obrazovanje Kulturni centar „Kisač”", "name:en": "Cultural-Information Center Kisač", "name:ru": "Учреждение культуры, информирования и образования Культурно-информационный центр Кисач", "name:zh": "基萨池文化信息教育机构文化信息中心", "email": "kis.kysac@gmail.com", "phone": "+381 827 642; +381 063 1020 456", "website": "www.kckisac.rs", "addr:street": "Словачка", "addr:housenumber": "22", "ref:RS:uk": 21854 }, "geometry": { "type": "Point", "coordinates": [ 19.72737, 45.3474 ] } },
{ "type": "Feature", "properties": { "amenity": "community_centre", "name": "Установа за културу, уметност и ваншколско образовање Културни центар", "name:sr": "Установа за културу, уметност и ваншколско образовање Културни центар", "name:sr-Latn": "Ustanova za kulturu, umetnost i vanškolsko obrazovanje Kulturni centar", "name:en": "Cultural Center Gornji Milanovac", "name:ru": "Культурный центр Горни-Милановац", "name:zh": "上米拉诺瓦茨文化中心", "email": "office@kcgm.org.rs", "phone": "+381 711 118; +381 32711 119; +381 32720 427; +381 063 606 773; 069 0363 246", "website": "www.kcgm.org.rs", "addr:street": "Трг кнеза Михаила ", "addr:housenumber": "1", "ref:RS:uk": 21726 }, "geometry": { "type": "Point", "coordinates": [ 20.45907, 44.0242 ] } },
{ "type": "Feature", "properties": { "amenity": "community_centre", "name": "Установа културе „Културни центар Уб“", "name:sr": "Установа културе „Културни центар Уб“", "name:sr-Latn": "Ustanova kulture „Kulturni centar Ub“", "name:en": "Cultural and Sports Center Ub", "name:ru": "Учреждение культуры и спорта Уб „Культурно-спортивный центр Уб”", "name:zh": "乌布文化体育机构“乌布文化体育中心”", "email": "ksc_ub@yahoo.com; domkultureub@gmail.com", "phone": "+381 411 111; +381 063 283 329; 064 8198 515", "website": "www.kulturnicentarub.rs", "addr:street": "Вука Караџића", "addr:housenumber": "19", "ref:RS:uk": 21757 }, "geometry": { "type": "Point", "coordinates": [ 20.07285, 44.45592 ] } },
{ "type": "Feature", "properties": { "amenity": "community_centre", "name": "Установа културе „Ремезијана” Бела Паланка", "name:sr": "Установа културе „Ремезијана” Бела Паланка", "name:sr-Latn": "Ustanova kulture „Remezijana” Bela Palanka", "name:en": "Cultural Center \"Remezijana\" Bela Palanka", "name:ru": "Культурно-информационный центр Бела Паланка", "name:zh": "贝拉帕兰卡文化信息中心", "email": "remezijana@gmail.com", "phone": "+381 855 162; +381 069 765 558; 062 207 061 ", "website": null, "addr:street": "Српских владара", "addr:housenumber": "52", "ref:RS:uk": 21746 }, "geometry": { "type": "Point", "coordinates": [ 22.31126, 43.21813 ] } },
{ "type": "Feature", "properties": { "amenity": "community_centre", "name": "Установа културе „Ћуприја” - Ћуприја", "name:sr": "Установа културе „Ћуприја” - Ћуприја", "name:sr-Latn": "Ustanova kulture „Ćuprija” - Ćuprija", "name:en": "Cultural center Cuprija", "name:ru": "Культурный центр Чуприя", "name:zh": "丘普里亚文化中心", "email": "direktor@uk.cuprija.rs", "phone": null, "website": "www.uk.cuprija.rs", "addr:street": "13. октобра", "addr:housenumber": "7", "ref:RS:uk": 21690 }, "geometry": { "type": "Point", "coordinates": [ 21.37149, 43.93641 ] } },
{ "type": "Feature", "properties": { "amenity": "community_centre", "name": "Установа културе градске општине Стари град", "name:sr": "Установа културе градске општине Стари град", "name:sr-Latn": "Ustanova kulture gradske opštine Stari grad", "name:en": "Cultural Center \"Parobrod\"", "name:ru": "Учреждение культуры  „Пароход”", "name:zh": "“帕罗布罗德”文化机构", "email": "office@ukstarigrad.rs", "phone": "+381 4142 163", "website": "www.ukstarigrad.rs", "addr:street": "Капетан Мишина", "addr:housenumber": "6а", "ref:RS:uk": 21756 }, "geometry": { "type": "Point", "coordinates": [ 20.46005, 44.82013 ] } },
{ "type": "Feature", "properties": { "amenity": "community_centre", "name": "Установа културе Културни центар Сурчин", "name:sr": "Установа културе Културни центар Сурчин", "name:sr-Latn": "Ustanova kulture Kulturni centar Surčin", "name:en": null, "name:ru": null, "name:zh": null, "email": "kc.surcin@gmail.com", "phone": "+381 8440 206; +381 066 8637 533", "website": "www.kcsurcin.org", "addr:street": "Војвођанска ", "addr:housenumber": "109", "ref:RS:uk": 25298 }, "geometry": { "type": "Point", "coordinates": [ 20.27653, 44.79511 ] } },
{ "type": "Feature", "properties": { "amenity": "community_centre", "name": "Установа културе Сјеница", "name:sr": "Установа културе Сјеница", "name:sr-Latn": "Ustanova kulture Sjenica", "name:en": "Cultural and Physical Culture Center Sjenica", "name:ru": "Учреждение культуры и физкультуры Сеница", "name:zh": "谢尼查文化体育机构", "email": "ustanovakulture@live.com", "phone": "+381 741 047; +381 062 693 150", "website": null, "addr:street": "Трг Светозара Марковића", "addr:housenumber": "8", "ref:RS:uk": 21748 }, "geometry": { "type": "Point", "coordinates": [ 19.99964, 43.27186 ] } },
{ "type": "Feature", "properties": { "amenity": "community_centre", "name": "Установа културни центар Смедеревска Паланка", "name:sr": "Установа културни центар Смедеревска Паланка", "name:sr-Latn": "Ustanova kulturni centar Smederevska Palanka", "name:en": "Cultural Center Smederevska Palanka", "name:ru": "Учреждение Культурный центр", "name:zh": "文化中心机构", "email": "kcpozoristepalanka@hotmail.rs", "phone": "+381 317 249; +381 065 8092 354", "website": "www.kcpalanka.rs", "addr:street": "Трг хероја", "addr:housenumber": "1", "ref:RS:uk": 21918 }, "geometry": { "type": "Point", "coordinates": [ 20.95628, 44.36576 ] } },
{ "type": "Feature", "properties": { "amenity": "community_centre", "name": "Установа Студентски културни центар Крагујевац", "name:sr": "Установа Студентски културни центар Крагујевац", "name:sr-Latn": "Ustanova Studentski kulturni centar Kragujevac", "name:en": "Students cultural centre Kragujevac", "name:ru": "Студенческий культурный центр Крагуевац", "name:zh": "克拉古耶瓦茨大学生文化中心", "email": "dir@skckg.com", "phone": "+381 335 050; +381 34336 122; +381 060 0335 036", "website": "www.skckg.com", "addr:street": "Радоја Домановића", "addr:housenumber": "12", "ref:RS:uk": 21806 }, "geometry": { "type": "Point", "coordinates": [ 20.90754, 44.01757 ] } },
{ "type": "Feature", "properties": { "amenity": "community_centre", "name": "Установа Студентски културни центар у Новом Саду", "name:sr": "Установа Студентски културни центар у Новом Саду", "name:sr-Latn": "Ustanova Studentski kulturni centar u Novom Sadu", "name:en": "Student Cultural Center Novi Sad", "name:ru": "Учреждение Студенческий культурный центр Нови-Сад", "name:zh": "诺维萨德大学生文化中心机构", "email": "skcnovisad@gmail.com", "phone": "+381 6350 744; +381 064 8599 933; 063 8558 909", "website": "www.skcns.org", "addr:street": "Др Илије Ђуричића", "addr:housenumber": "3", "ref:RS:uk": 23698 }, "geometry": { "type": "Point", "coordinates": [ 19.84968, 45.24513 ] } },
{ "type": "Feature", "properties": { "amenity": "community_centre", "name": "Фондација за омладинску културу и стваралаштво „Данило Киш”, Суботица", "name:sr": "Фондација за омладинску културу и стваралаштво „Данило Киш”, Суботица", "name:sr-Latn": "Fondacija za omladinsku kulturu i stvaralaštvo „Danilo Kiš”, Subotica", "name:en": null, "name:ru": null, "name:zh": null, "email": "office@danilokis.rs", "phone": "+381 523 566; +381 060 5235 665", "website": "www.danilokis.rs", "addr:street": "Парк Ференца Рајхла ", "addr:housenumber": "12а", "ref:RS:uk": 25296 }, "geometry": { "type": "Point", "coordinates": [ 19.67057, 46.10121 ] } },
{ "type": "Feature", "properties": { "amenity": "community_centre", "name": "Центар београдских фестивала – ЦЕБЕФ", "name:sr": "Центар београдских фестивала – ЦЕБЕФ", "name:sr-Latn": "Centar beogradskih festivala – CEBEF", "name:en": null, "name:ru": null, "name:zh": null, "email": "info@cebef.rs", "phone": "+381 4039 182", "website": "www.cebef.rs", "addr:street": "Светогорска", "addr:housenumber": "бб", "ref:RS:uk": 25299 }, "geometry": { "type": "Point", "coordinates": [ 20.47229, 44.81072 ] } },
{ "type": "Feature", "properties": { "amenity": "community_centre", "name": "Центар за културне делатности, туризам и библиотекарство Владичин Хан", "name:sr": "Центар за културне делатности, туризам и библиотекарство Владичин Хан", "name:sr-Latn": "Centar za kulturne delatnosti, turizam i bibliotekarstvo Vladičin Han", "name:en": "Center for Cultural Activities and Librarianship Vladicin Han", "name:ru": "Центр культурной деятельности, туризма и библиотечного дела", "name:zh": "文化活动旅游图书馆中心", "email": "centarkulturevhan@gmail.com", "phone": "+381 474 852 ; +381 063 623 041", "website": null, "addr:street": "Николе Тесле", "addr:housenumber": "бб", "ref:RS:uk": 21691 }, "geometry": { "type": "Point", "coordinates": [ 22.06154, 42.70608 ] } },
{ "type": "Feature", "properties": { "amenity": "community_centre", "name": "Центар за културу „Влада Дивљан”", "name:sr": "Центар за културу „Влада Дивљан”", "name:sr-Latn": "Centar za kulturu „Vlada Divljan”", "name:en": "Cultural Center Vlada Divljan", "name:ru": "Учреждение культуры  Палилула", "name:zh": "帕利卢拉文化机构", "email": "office@ckvladadivljan.rs", "phone": "+381 2762 225; +381 069 8728 651", "website": "www.ckvladadivljan.rs", "addr:street": "Митрополита Петра", "addr:housenumber": "8", "ref:RS:uk": 23672 }, "geometry": { "type": "Point", "coordinates": [ 20.48507, 44.81659 ] } },
{ "type": "Feature", "properties": { "amenity": "community_centre", "name": "Центар за културу „Војислав Илић Млађи” Жабари", "name:sr": "Центар за културу „Војислав Илић Млађи” Жабари", "name:sr-Latn": "Centar za kulturu „Vojislav Ilić Mlađi” Žabari", "name:en": "Cultural Center \"Vojislav Ilic Mladji\" - Zabari", "name:ru": "Культурный центр „Воислав Илич Младший” Жабари", "name:zh": "扎巴利”沃伊斯拉夫·伊里奇·姆拉季“文化中心", "email": "czkzabari@gmail.com", "phone": "+381 250 858; +381 064 5464 996; 064 4448 732 ", "website": "zabari.org.rs/institucije/centar-za-kulturu/", "addr:street": "Кнеза Милоша", "addr:housenumber": "47", "ref:RS:uk": 21869 }, "geometry": { "type": "Point", "coordinates": [ 21.21562, 44.35825 ] } },
{ "type": "Feature", "properties": { "amenity": "community_centre", "name": "Центар за културу „Вук Караџић” Лозница", "name:sr": "Центар за културу „Вук Караџић” Лозница", "name:sr-Latn": "Centar za kulturu „Vuk Karadžić” Loznica", "name:en": "Cultural Center \"Vuk Karadžic\" Loznica", "name:ru": "Культурный центр „Вук Караджич” Лозница", "name:zh": "洛兹尼察“武克·卡拉季奇”文化中心", "email": "centarkultureloznica@gmail.com", "phone": "+381 882 718; +381 064 8426 920", "website": "www.ckvkaradzic.org.rs", "addr:street": "Саве Ковачевића", "addr:housenumber": "1", "ref:RS:uk": 21714 }, "geometry": { "type": "Point", "coordinates": [ 19.2251, 44.53089 ] } },
{ "type": "Feature", "properties": { "amenity": "community_centre", "name": "Центар за културу „Драган Кецман” Кучево", "name:sr": "Центар за културу „Драган Кецман” Кучево", "name:sr-Latn": "Centar za kulturu „Dragan Kecman” Kučevo", "name:en": "Cultural Center \"Veljko Dugošević\" Kučevo", "name:ru": "Культурный центр „Велько Дугошевич” Кучево", "name:zh": "库切沃“韦利科·杜戈舍维奇”文化中心", "email": "kultkucevo@gmail.com", "phone": "+381 852 466; +381 063 8734 772; 063 340 398", "website": "www.homoljskimotivikucevo.org", "addr:street": "Трг Вељка Дугошевића", "addr:housenumber": "30", "ref:RS:uk": 21780 }, "geometry": { "type": "Point", "coordinates": [ 21.66726, 44.47985 ] } },
{ "type": "Feature", "properties": { "amenity": "community_centre", "name": "Центар за културу „Масука” Велика Плана", "name:sr": "Центар за културу „Масука” Велика Плана", "name:sr-Latn": "Centar za kulturu „Masuka” Velika Plana", "name:en": "Cultural Center \"Masuka\" Velika Plana", "name:ru": "Культурный центр „Масука” Велика-Плана", "name:zh": "大普拉那“马苏卡”文化中心", "email": "pozoristemasuka@gmail.com", "phone": "+381 514 746; +381 064 2527 597", "website": "www.czkmasuka.blogspot.com", "addr:street": "Бранка Радичевића", "addr:housenumber": "1", "ref:RS:uk": 20516 }, "geometry": { "type": "Point", "coordinates": [ 21.0751, 44.33238 ] } },
{ "type": "Feature", "properties": { "amenity": "community_centre", "name": "Центар за културу „Свети Стефан, деспот српски” Деспотовац", "name:sr": "Центар за културу „Свети Стефан, деспот српски” Деспотовац", "name:sr-Latn": "Centar za kulturu „Sveti Stefan, despot srpski” Despotovac", "name:en": "Cultural Center Despotovac", "name:ru": "Культурный центр „Святой Стефан, деспот сербский” Деспотовац", "name:zh": "德斯波托瓦茨“塞尔维亚国王圣斯太凡”文化中心", "email": "sv.stefandespotovac@gmail.com", "phone": "+381 611 047; +381 065 6110 477", "website": "www.czksvetistefandespotsrpski.rs/srb/", "addr:street": "Деспота Стевана Лазаревића", "addr:housenumber": "2", "ref:RS:uk": 21891 }, "geometry": { "type": "Point", "coordinates": [ 21.43691, 44.09518 ] } },
{ "type": "Feature", "properties": { "amenity": "community_centre", "name": "Центар за културу „Сирмиумарт”", "name:sr": "Центар за културу „Сирмиумарт”", "name:sr-Latn": "Centar za kulturu „Sirmiumart”", "name:en": "Cultural center Sirmiumart", "name:ru": "Культурный центр „Сирмиумарт”", "name:zh": "“西尔米乌玛尔特”文化中心", "email": "sirmiumart@yahoo.com", "phone": "+381 621 194", "website": "www.sirmiumart.comcir", "addr:street": "Вука Караџића", "addr:housenumber": "10", "ref:RS:uk": 21915 }, "geometry": { "type": "Point", "coordinates": [ 19.6096, 44.96691 ] } },
{ "type": "Feature", "properties": { "amenity": "community_centre", "name": "Центар за културу Аранђеловац", "name:sr": "Центар за културу Аранђеловац", "name:sr-Latn": "Centar za kulturu Aranđelovac", "name:en": "Center for Culture and Education Arandjelovac", "name:ru": "Центр культуры и образования Аранджеловац", "name:zh": "阿兰杰洛瓦茨文化教育中心", "email": "arcult.ar@gmail.com", "phone": "+381 711 035; +381 34723 731; +381 34701 118; +381 064 8669 270", "website": "www.centarzakulturuarandjelovac.rs", "addr:street": "Књаза Милоша ", "addr:housenumber": "293", "ref:RS:uk": 21849 }, "geometry": { "type": "Point", "coordinates": [ 20.56982, 44.30365 ] } },
{ "type": "Feature", "properties": { "amenity": "community_centre", "name": "Центар за културу Барајево", "name:sr": "Центар за културу Барајево", "name:sr-Latn": "Centar za kulturu Barajevo", "name:en": "Cultural Center Barajevo", "name:ru": "Культурный центр Бараево", "name:zh": "巴拉耶沃文化中心", "email": "czkbarajevo@gmail.com", "phone": "+381 8302 110", "website": "www.ckb.org.rs", "addr:street": "Миодрага Вуковића", "addr:housenumber": "2", "ref:RS:uk": 21906 }, "geometry": { "type": "Point", "coordinates": [ 20.41735, 44.5772 ] } },
{ "type": "Feature", "properties": { "amenity": "community_centre", "name": "Центар за културу Бела Црква", "name:sr": "Центар за културу Бела Црква", "name:sr-Latn": "Centar za kulturu Bela Crkva", "name:en": "Cultural Center Bela Crkva", "name:ru": "Учреждение культурной деятельности Культурный центр Бела-Црква", "name:zh": "贝拉策尔克瓦文化活动中心机构", "email": "blanusabc@gmail.com", "phone": "+381 851 173; +381 065 8440 908", "website": null, "addr:street": "Пролетерска", "addr:housenumber": "4", "ref:RS:uk": 21677 }, "geometry": { "type": "Point", "coordinates": [ 21.42374, 44.90292 ] } },
{ "type": "Feature", "properties": { "amenity": "community_centre", "name": "Центар за културу Бор", "name:sr": "Центар за културу Бор", "name:sr-Latn": "Centar za kulturu Bor", "name:en": "Cultural Center Bor", "name:ru": "Культурный центр муниципалитета Бор", "name:zh": "波尔城区文化中心", "email": "kontakt@centarzakulturubor.org.rs", "phone": "+381 424 546; +381 064 8619 754", "website": "www.centarzakulturubor.org.rs", "addr:street": "Моше Пијаде", "addr:housenumber": "1", "ref:RS:uk": 21761 }, "geometry": { "type": "Point", "coordinates": [ 22.0979, 44.07855 ] } },
{ "type": "Feature", "properties": { "amenity": "community_centre", "name": "Центар за културу Ваљево", "name:sr": "Центар за културу Ваљево", "name:sr-Latn": "Centar za kulturu Valjevo", "name:en": "Cultural Center Valjevo", "name:ru": "Культурный центр Валево", "name:zh": "瓦列沃文化中心", "email": "czkvaljevo@gmail.com", "phone": "+381 223 219", "website": "www.czk.rs", "addr:street": "Чика Љубина", "addr:housenumber": "5", "ref:RS:uk": 21716 }, "geometry": { "type": "Point", "coordinates": [ 19.88738, 44.26934 ] } },
{ "type": "Feature", "properties": { "amenity": "community_centre", "name": "Центар за културу Гроцка", "name:sr": "Центар за културу Гроцка", "name:sr-Latn": "Centar za kulturu Grocka", "name:en": "Cultural Center Grocka", "name:ru": "Культурный центр Гроцка", "name:zh": "格罗茨卡文化中心", "email": "centargrocka@gmail.com", "phone": "+381 8502 321; +381 064 6473 750", "website": "www.kulturagrocka.rs", "addr:street": "Мајевичка", "addr:housenumber": "9", "ref:RS:uk": 22683 }, "geometry": { "type": "Point", "coordinates": [ 20.71832, 44.6743 ] } },
{ "type": "Feature", "properties": { "amenity": "community_centre", "name": "Центар за културу Димитровград", "name:sr": "Центар за културу Димитровград", "name:sr-Latn": "Centar za kulturu Dimitrovgrad", "name:en": "Cultural Center Dimitrovgrad", "name:ru": "Культурный центр Димитровград", "name:zh": "迪米特洛夫格莱德文化中心", "email": "kulturadim@ptt.rs", "phone": "+381 362 177; +381 18362 707", "website": "www.kulturacaribrod.rs", "addr:street": "Др Зорана Ђинђића", "addr:housenumber": "2", "ref:RS:uk": 21813 }, "geometry": { "type": "Point", "coordinates": [ 22.77796, 43.016 ] } },
{ "type": "Feature", "properties": { "amenity": "community_centre", "name": "Центар за културу и образовање Раковица", "name:sr": "Центар за културу и образовање Раковица", "name:sr-Latn": "Centar za kulturu i obrazovanje Rakovica", "name:en": "Center for Culture and Education Rakovica", "name:ru": "Центр культуры и образования Раковица", "name:zh": "拉科维查文化教育中心", "email": "qucera@sbb.rs", "phone": "+381 3582 493", "website": "www.ckorakovica.com", "addr:street": "Мишка Крањца", "addr:housenumber": "7", "ref:RS:uk": 21821 }, "geometry": { "type": "Point", "coordinates": [ 20.44658, 44.74448 ] } },
{ "type": "Feature", "properties": { "amenity": "community_centre", "name": "Центар за културу и уметност Алексинац", "name:sr": "Центар за културу и уметност Алексинац", "name:sr-Latn": "Centar za kulturu i umetnost Aleksinac", "name:en": "Center for Culture and Art Aleksinac", "name:ru": "Центр культуры и искусства Алексинац", "name:zh": "阿莱克西纳茨文化艺术中心", "email": "office@ckualeksinac.rs", "phone": "+381 804 618; +381 18804 822; +381 184100 087; +381 064 8258 593; 064 8933 727; 064 8092 836", "website": "www.ckualeksinac.rs", "addr:street": "Душана Тривунца", "addr:housenumber": "15", "ref:RS:uk": 21745 }, "geometry": { "type": "Point", "coordinates": [ 21.70802, 43.54043 ] } },
{ "type": "Feature", "properties": { "amenity": "community_centre", "name": "Центар за културу Ковин", "name:sr": "Центар за културу Ковин", "name:sr-Latn": "Centar za kulturu Kovin", "name:en": "Cultural Center Kovin", "name:ru": "Культурный центр Ковин", "name:zh": "科文文化中心", "email": "kulturakovin@gmail.com", "phone": "+381 742 310; +381 064 6481 916", "website": "www.kulturakovin.rs", "addr:street": "Цара Лазара", "addr:housenumber": "85", "ref:RS:uk": 21769 }, "geometry": { "type": "Point", "coordinates": [ 20.97818, 44.74162 ] } },
{ "type": "Feature", "properties": { "amenity": "community_centre", "name": "Центар за културу Лазаревац", "name:sr": "Центар за културу Лазаревац", "name:sr-Latn": "Centar za kulturu Lazarevac", "name:en": "Cultural Center Lazarevac", "name:ru": "Культурный центр Лазаревац", "name:zh": "拉扎莱瓦茨文化中心", "email": "stela@czklazarevac.org", "phone": "+381 8123 344; +381 060 6767 630", "website": "www.czklazarevac.rs", "addr:street": "Xиландарска", "addr:housenumber": "2", "ref:RS:uk": 21818 }, "geometry": { "type": "Point", "coordinates": [ 20.26225, 44.38142 ] } },
{ "type": "Feature", "properties": { "amenity": "community_centre", "name": "Центар за културу Мајданпек", "name:sr": "Центар за културу Мајданпек", "name:sr-Latn": "Centar za kulturu Majdanpek", "name:en": "Cultural-Educational Center Majdanpek", "name:ru": "Культурный центр Майданпек", "name:zh": "马伊丹佩克文化中心", "email": "centarzakulturumpek@gmail.com", "phone": "+381 584 056; +381 066 8020 569; 060 5583 750", "website": null, "addr:street": "Светог Саве ", "addr:housenumber": "12", "ref:RS:uk": 21762 }, "geometry": { "type": "Point", "coordinates": [ 21.93684, 44.42242 ] } },
{ "type": "Feature", "properties": { "amenity": "community_centre", "name": "Центар за културу Младеновац", "name:sr": "Центар за културу Младеновац", "name:sr-Latn": "Centar za kulturu Mladenovac", "name:en": "Cultural and turism Center Mladenovac", "name:ru": "Центр культуры и туризма Младеновац", "name:zh": "姆拉丹诺瓦茨文化旅游中心", "email": "info@ckm.co.rs", "phone": "+381 8231 230; +381 062 586 677", "website": "www.ckm.co.rs", "addr:street": "Војводе Путника", "addr:housenumber": "7", "ref:RS:uk": 21767 }, "geometry": { "type": "Point", "coordinates": [ 20.69334, 44.44121 ] } },
{ "type": "Feature", "properties": { "amenity": "community_centre", "name": "Центар за културу општине Алибунар", "name:sr": "Центар за културу општине Алибунар", "name:sr-Latn": "Centar za kulturu opštine Alibunar", "name:en": "Cultural Center Alibunar", "name:ru": "Дом культуры Алибунар", "name:zh": "阿利布纳尔“青年”文化之家", "email": "centarzakulturualibunar@gmail.com", "phone": "+381 641 039", "website": null, "addr:street": "Трг слободе 15", "addr:housenumber": "7", "ref:RS:uk": 21793 }, "geometry": { "type": "Point", "coordinates": [ 20.96558, 45.0793 ] } },
{ "type": "Feature", "properties": { "amenity": "community_centre", "name": "Центар за културу Пожаревац", "name:sr": "Центар за културу Пожаревац", "name:sr-Latn": "Centar za kulturu Požarevac", "name:en": "Cultural Center Požarevac", "name:ru": "Культурный центр Пожаревац", "name:zh": "波扎莱瓦茨文化中心", "email": "centarpozarevac@gmail.com", "phone": "+381 522 481; +381 12541 350; +381 12541 351; +381 064 8918 442", "website": "www.czkpo.rs", "addr:street": "Јована Шербановића", "addr:housenumber": "1", "ref:RS:uk": 21803 }, "geometry": { "type": "Point", "coordinates": [ 21.18763, 44.61906 ] } },
{ "type": "Feature", "properties": { "amenity": "community_centre", "name": "Центар за културу Свилајнац", "name:sr": "Центар за културу Свилајнац", "name:sr-Latn": "Centar za kulturu Svilajnac", "name:en": "Cultural Center Svilajnac", "name:ru": "Культурный центр Свилайнац", "name:zh": "斯维莱纳茨文化中心", "email": "kulturasvilajnac@gmail.com", "phone": "+381 321 048; +381 064 8912 762", "website": "www.czksvilajnac.rs", "addr:street": "Светог Саве", "addr:housenumber": "58", "ref:RS:uk": 21758 }, "geometry": { "type": "Point", "coordinates": [ 21.19595, 44.23174 ] } },
{ "type": "Feature", "properties": { "amenity": "community_centre", "name": "Центар за културу Смедерево", "name:sr": "Центар за културу Смедерево", "name:sr-Latn": "Centar za kulturu Smederevo", "name:en": "Cultural Center Smederevo", "name:ru": "Культурный центр Смедерево", "name:zh": "斯梅代雷沃文化中心", "email": "centar@sdkultura.org.rs", "phone": "+381 4100 361; +381 11640 360; +381 064 8295 334 ", "website": "www.sdkultura.org.rs", "addr:street": "Карађорђева", "addr:housenumber": "5-7", "ref:RS:uk": 21667 }, "geometry": { "type": "Point", "coordinates": [ 20.92496, 44.66417 ] } },
{ "type": "Feature", "properties": { "amenity": "community_centre", "name": "Центар за културу Сопот", "name:sr": "Центар за културу Сопот", "name:sr-Latn": "Centar za kulturu Sopot", "name:en": "Cultural Center Sopot", "name:ru": "Культурный центр Сопот", "name:zh": "索珀特文化中心", "email": "czksopot@gmail.com", "phone": "+381 8251 238; +381 063 256 599", "website": "www.czksopot.org.rs", "addr:street": "Космајски трг", "addr:housenumber": "7", "ref:RS:uk": 21755 }, "geometry": { "type": "Point", "coordinates": [ 20.57702, 44.51921 ] } },
{ "type": "Feature", "properties": { "amenity": "community_centre", "name": "Центар за културу Стара Пазова", "name:sr": "Центар за културу Стара Пазова", "name:sr-Latn": "Centar za kulturu Stara Pazova", "name:en": "Cultural Center Stara Pazova", "name:ru": "Культурный центр Стара-Пазова", "name:zh": "老帕佐瓦文化中心", "email": "centarzakulturustarapazova@gmail.com", "phone": "+381 310 104; +381 064 8559 561", "website": "www.czkstarapazova.com", "addr:street": "Светосавска", "addr:housenumber": "26", "ref:RS:uk": 21736 }, "geometry": { "type": "Point", "coordinates": [ 20.16292, 44.98527 ] } },
{ "type": "Feature", "properties": { "amenity": "community_centre", "name": "Центар за културу, образовање и информисање „Градац” Рашка", "name:sr": "Центар за културу, образовање и информисање „Градац” Рашка", "name:sr-Latn": "Centar za kulturu, obrazovanje i informisanje „Gradac” Raška", "name:en": "Center for Culture, Education and Information \"Gra", "name:ru": "Центр культуры, образования и информирования „Градац” Рашка", "name:zh": "拉什卡“格拉达茨”文化教育信息中心", "email": "ckgradac@gmail.com", "phone": "+381 736 273", "website": "www.ckgradac.rs", "addr:street": "Ибарска", "addr:housenumber": "6", "ref:RS:uk": 21713 }, "geometry": { "type": "Point", "coordinates": [ 20.61415, 43.28852 ] } },
{ "type": "Feature", "properties": { "amenity": "community_centre", "name": "Центар за културу, спорт и туризам општине Беочин", "name:sr": "Центар за културу, спорт и туризам општине Беочин", "name:sr-Latn": "Centar za kulturu, sport i turizam opštine Beočin", "name:en": "Cultural Center Beočin", "name:ru": "Культурный центр Беочин", "name:zh": "贝尔钦文化中心", "email": "kcentar1@mts.rs", "phone": "+381 870 230; +381 21870 231; +381 064 1571 282", "website": "kcobeocin.rs", "addr:street": "Трг Цара Лазара", "addr:housenumber": "1", "ref:RS:uk": 21721 }, "geometry": { "type": "Point", "coordinates": [ 19.72274, 45.20755 ] } },
{ "type": "Feature", "properties": { "amenity": "community_centre", "name": "Центар за културу, туризам, омладину и спорт Тутин", "name:sr": "Центар за културу, туризам, омладину и спорт Тутин", "name:sr-Latn": "Centar za kulturu, turizam, omladinu i sport Tutin", "name:en": "Multimedial Center", "name:ru": "Мультимедиа центр", "name:zh": "多媒体中心", "email": "turizam@tutin.rs", "phone": "+381 812 274; +381 063 7344 470", "website": null, "addr:street": "7. јула", "addr:housenumber": "бб", "ref:RS:uk": 21904 }, "geometry": { "type": "Point", "coordinates": [ 20.33634, 42.99073 ] } },
{ "type": "Feature", "properties": { "amenity": "community_centre", "name": "Центар за ликовно образовање-Шуматовачка", "name:sr": "Центар за ликовно образовање-Шуматовачка", "name:sr-Latn": "Centar za likovno obrazovanje-Šumatovačka", "name:en": "Center of Fine Arts and Education Sumatovacka", "name:ru": "Центр изобразительного образования-Шуматовачка", "name:zh": "舒马托瓦奇卡美术教育中心", "email": "art@sumatovacka.rs", "phone": "+381 6430 908", "website": "www.sumatovacka.rs", "addr:street": "Шуматовачка", "addr:housenumber": "122", "ref:RS:uk": 21925 }, "geometry": { "type": "Point", "coordinates": [ 20.4816, 44.79452 ] } },
{ "type": "Feature", "properties": { "amenity": "community_centre", "name": "Центар за неговање традиционалне културе „Абрашевић” Крагујевац", "name:sr": "Центар за неговање традиционалне културе „Абрашевић” Крагујевац", "name:sr-Latn": "Centar za negovanje tradicionalne kulture „Abrašević” Kragujevac", "name:en": "Center for cultivating traditional culture \"Abrasevic\" Kragujevac", "name:ru": "Центр сохранения и развития традиционной культуры  „Абрашевич” Крагуевац", "name:zh": "克拉古耶瓦茨“阿布拉舍维奇”传统文化培育中心", "email": "info@abrasevickg.rs", "phone": "+381 501 330", "website": null, "addr:street": "Др Јована Ристића", "addr:housenumber": "15", "ref:RS:uk": 21698 }, "geometry": { "type": "Point", "coordinates": [ 20.92374, 44.00848 ] } },
{ "type": "Feature", "properties": { "amenity": "community_centre", "name": "Центар за образовање и културу „Божидарац 1947”", "name:sr": "Центар за образовање и културу „Божидарац 1947”", "name:sr-Latn": "Centar za obrazovanje i kulturu „Božidarac 1947”", "name:en": "Public University \"Bozidar Adzija\" Belgrade", "name:ru": "Народный университет „Божидар Аджия” Белград", "name:zh": "苏尔杜利查文化中心", "email": "office@bozidarac.rs", "phone": "+381 4085 938; +381 064 8668 224", "website": "bozidarac.rs", "addr:street": "Радослава Грујића", "addr:housenumber": "3", "ref:RS:uk": 21817 }, "geometry": { "type": "Point", "coordinates": [ 20.47944, 44.79846 ] } },
{ "type": "Feature", "properties": { "amenity": "community_centre", "name": "Центар за туризам, културу и спорт Сврљиг", "name:sr": "Центар за туризам, културу и спорт Сврљиг", "name:sr-Latn": "Centar za turizam, kulturu i sport Svrljig", "name:en": "Cultural Center Svrljig", "name:ru": "Центр туризма, культуры и спорта Сврлиг", "name:zh": "斯弗尔利格旅游文化运动中心", "email": "kcsvrljig@yahoo.com", "phone": "+381 821 059; +381 062 245 071", "website": "kcsvrljig.rs", "addr:street": "Боре Прице", "addr:housenumber": "2", "ref:RS:uk": 21671 }, "geometry": { "type": "Point", "coordinates": [ 22.12408, 43.41198 ] } },
{ "type": "Feature", "properties": { "amenity": "community_centre", "name": "Централни дом Војске Србије Београд", "name:sr": "Централни дом Војске Србије Београд", "name:sr-Latn": "Centralni dom Vojske Srbije Beograd", "name:en": "Central House of the Serbian Armed Forces Belgrade", "name:ru": "Централыный дом армии Сербии Белград", "name:zh": "贝尔格莱德塞尔维亚军事文化之家", "email": "cdvs@vudedinje.com", "phone": "+381 3240 419; +381 113239 963", "website": "www.vudedinje.mod.gov.rs/centralni-dom-vs", "addr:street": "Француска ", "addr:housenumber": "2", "ref:RS:uk": 21887 }, "geometry": { "type": "Point", "coordinates": [ 20.46238, 44.81709 ] } }
]
}
