{
"type": "FeatureCollection",
"name": "pozorista",
"crs": { "type": "name", "properties": { "name": "urn:ogc:def:crs:OGC:1.3:CRS84" } },
"features": [
{ "type": "Feature", "properties": { "amenity": "theatre", "name": "Аматерско позориште - КУД „Петефи Шандор” Купусина", "name:sr": "Аматерско позориште - КУД „Петефи Шандор” Купусина", "name:sr-Latn": "Amatersko pozorište - KUD „Petefi Šandor” Kupusina", "name:en": "Amateur Theatre", "name:ru": "Любительский театр", "name:zh": "业余剧院", "email": "kudpsme@citromail.hu", "phone": "+381  ; +381 063 8027 269", "website": null, "addr:street": "Петефи Шандора", "addr:housenumber": "4", "ref:RS:uk": 22776 }, "geometry": null },
{ "type": "Feature", "properties": { "amenity": "theatre", "name": "Театар 34", "name:sr": "Театар 34", "name:sr-Latn": "Teatar 34", "name:en": "Theatre 34", "name:ru": "Театр 34", "name:zh": "34号剧院", "email": "teatar34@gmail.com", "phone": "+381 6613 328; +381 065 2131 215", "website": "www.teatar34.com", "addr:street": "Војводе Бојовића", "addr:housenumber": "3", "ref:RS:uk": 22794 }, "geometry": { "type": "Point", "coordinates": [ 19.84125, 45.25811 ] } },
{ "type": "Feature", "properties": { "amenity": "theatre", "name": "Slovačko pozorište VHV", "name:sr": "Slovačko pozorište VHV", "name:sr-Latn": "Slovačko pozorište VHV", "name:en": "Slovačko pozorište VHV", "name:ru": "Словацкий театр ВХВ", "name:zh": "VHV斯洛伐克剧院", "email": "skushjs96@gmail.com", "phone": "+381 310676; +381 063 509 153", "website": "www.slovackizavod.org.rs/sr/pozoriste/scene/2001", "addr:street": "Ћирила и Методија 11", "addr:housenumber": "", "ref:RS:uk": 22774 }, "geometry": { "type": "Point", "coordinates": [ 20.15735, 44.98421 ] } },
{ "type": "Feature", "properties": { "amenity": "theatre", "name": "Позориште ПАБ – Склониште у театру", "name:sr": "Позориште ПАБ – Склониште у театру", "name:sr-Latn": "Pozorište PAB – Sklonište u teatru", "name:en": "PAB theatre - Shelter in the Theatre", "name:ru": "Театр ПАБ – Убежище в театре", "name:zh": "PAB剧院剧场庇护所", "email": "milan.miki.jokic@gmail.com", "phone": "+381  ; +381 063 8020 456", "website": null, "addr:street": "Ивана Сенковића", "addr:housenumber": "11а", "ref:RS:uk": 22772 }, "geometry": { "type": "Point", "coordinates": [ 20.28637, 44.89768 ] } },
{ "type": "Feature", "properties": { "amenity": "theatre", "name": "Градско позориште Чачак", "name:sr": "Градско позориште Чачак", "name:sr-Latn": "Gradsko pozorište Čačak", "name:en": null, "name:ru": null, "name:zh": null, "email": "gradskopozoristecacak@gmail.com", "phone": "+381 065 3343 012; +381 065 3343 012", "website": "www.gradskopozoristecacak.rs", "addr:street": "Синђелићева", "addr:housenumber": "24", "ref:RS:uk": 25374 }, "geometry": null },
{ "type": "Feature", "properties": { "amenity": "theatre", "name": "Позориште - Дом културе Ивањица", "name:sr": "Позориште - Дом културе Ивањица", "name:sr-Latn": "Pozorište - Dom kulture Ivanjica", "name:en": null, "name:ru": null, "name:zh": null, "email": "pravnasluzba@domkultureivanjica.rs", "phone": "+381 661 087; +381 063 661 207", "website": "www.domkultureivanjica.rs", "addr:street": "Венијамина Маринковића", "addr:housenumber": "7", "ref:RS:uk": 25315 }, "geometry": null },
{ "type": "Feature", "properties": { "amenity": "theatre", "name": "Opera&Theatre  Madlenianum Београд", "name:sr": "Opera&Theatre  Madlenianum Београд", "name:sr-Latn": "Opera&Theatre  Madlenianum Beograd", "name:en": "Madlenianum - Scene Activities Firm", "name:ru": "Опера и Театр Мадленианум Белград", "name:zh": "贝尔格莱德玛德莱尼亚努姆歌剧话剧院", "email": "mad.oper@madlenianum.rs", "phone": "+381 3162 533; +381 064 1951 869", "website": "www.madlenianum.rs", "addr:street": "Главна", "addr:housenumber": "32", "ref:RS:uk": 21036 }, "geometry": { "type": "Point", "coordinates": [ 20.41068, 44.84549 ] } },
{ "type": "Feature", "properties": { "amenity": "theatre", "name": "Академско позориште - АКУД „Бранко Крсмановић”", "name:sr": "Академско позориште - АКУД „Бранко Крсмановић”", "name:sr-Latn": "Akademsko pozorište - AKUD „Branko Krsmanović”", "name:en": "Academic Cultural and Artistic Society \"Branko Krsmanovic\"", "name:ru": "Академический театр - АКУД „Бранко Крсмановић”", "name:zh": "阿库德”布兰科·科尔玛诺维奇“学术剧院", "email": "office@krsmanovic.rs", "phone": "+381 3613 451", "website": "www.krsmanovic.rs", "addr:street": "Балканска", "addr:housenumber": "4", "ref:RS:uk": 22786 }, "geometry": { "type": "Point", "coordinates": [ 20.46018, 44.81245 ] } },
{ "type": "Feature", "properties": { "amenity": "theatre", "name": "Академско позориште СКЦ-а", "name:sr": "Академско позориште СКЦ-а", "name:sr-Latn": "Akademsko pozorište SKC-a", "name:en": "Akademsko pozorište SKC-a", "name:ru": "Академический театр Студенческого культурного центра", "name:zh": "大学生文化中心学术剧院", "email": "chicha@skckg.com", "phone": "+381 336 122; +381  ", "website": "www.skckg.com", "addr:street": "Радоја Домановића", "addr:housenumber": "12", "ref:RS:uk": 22778 }, "geometry": { "type": "Point", "coordinates": [ 20.90754, 44.01752 ] } },
{ "type": "Feature", "properties": { "amenity": "theatre", "name": "Алексиначко аматерско позориште", "name:sr": "Алексиначко аматерско позориште", "name:sr-Latn": "Aleksinačko amatersko pozorište", "name:en": "Aleksinačko amatersko pozorište", "name:ru": "Алексинацкий любительский театр", "name:zh": "阿莱克西纳茨业余剧院", "email": "milospaovic@yahoo.com", "phone": "+381 802 584; +381 064 2087 988", "website": null, "addr:street": "Партизанска", "addr:housenumber": "20", "ref:RS:uk": 20939 }, "geometry": { "type": "Point", "coordinates": [ 18.97495, 45.66551 ] } },
{ "type": "Feature", "properties": { "amenity": "theatre", "name": "Аматерско позориште „Homo Ludens” Мионица", "name:sr": "Аматерско позориште „Homo Ludens” Мионица", "name:sr-Latn": "Amatersko pozorište „Homo Ludens” Mionica", "name:en": "Amateur Theatre \"Homo Ludens\" Mionica", "name:ru": "Любительский театр „Хомо Луденс” Мионица", "name:zh": "米奥尼查“霍莫·鲁登斯”业余剧院", "email": "kcmionica@gmail.com", "phone": "+381 61 157; +381 1462 270; +381  ", "website": "www.misicevidani.org.rs", "addr:street": "Др Јове Алексића", "addr:housenumber": "12", "ref:RS:uk": 22349 }, "geometry": { "type": "Point", "coordinates": [ 20.08082, 44.25323 ] } },
{ "type": "Feature", "properties": { "amenity": "theatre", "name": "Аматерско позориште „Madach” Зрењанин", "name:sr": "Аматерско позориште „Madach” Зрењанин", "name:sr-Latn": "Amatersko pozorište „Madach” Zrenjanin", "name:en": "Amateur Theatre \"Madac\" Zrenjanin", "name:ru": "Любительский театр „Мадач” Зренянин", "name:zh": "兹雷尼亚宁“马达克”业余剧院", "email": "madach@zrlocal.net", "phone": "+381 561 626; +381 063 1544 679", "website": null, "addr:street": "Трг слободе", "addr:housenumber": "7", "ref:RS:uk": 20641 }, "geometry": { "type": "Point", "coordinates": [ 20.39047, 45.37989 ] } },
{ "type": "Feature", "properties": { "amenity": "theatre", "name": "Аматерско позориште „Бата Булић” Петровац на Млави", "name:sr": "Аматерско позориште „Бата Булић” Петровац на Млави", "name:sr-Latn": "Amatersko pozorište „Bata Bulić” Petrovac na Mlavi", "name:en": "Amatersko pozorište „Bata Bulić” Petrovac na Mlavi", "name:ru": "Любительский театр „Бата Булич” Петровац-на-Млаве", "name:zh": "姆拉维彼得罗瓦茨“巴塔·布里奇”业余剧院", "email": "kpcpetrovac@gmail.com", "phone": "+381 331 065; +381 064 8679 960", "website": null, "addr:street": "Петра Добрњца", "addr:housenumber": "179", "ref:RS:uk": 20932 }, "geometry": { "type": "Point", "coordinates": [ 21.4227, 44.3765 ] } },
{ "type": "Feature", "properties": { "amenity": "theatre", "name": "Аматерско позориште „Бранислав Нушић”", "name:sr": "Аматерско позориште „Бранислав Нушић”", "name:sr-Latn": "Amatersko pozorište „Branislav Nušić”", "name:en": "Amateur theater ''Branislav Nusic''", "name:ru": "Любительский театр „Бранислав Нушич”", "name:zh": "“布拉尼斯拉夫·努西奇”业余剧院", "email": "tatika.srdanov5@gmail.com", "phone": "+381 2238 001; +381 212237 555; +381 065 2238 001; 060 7222 121", "website": null, "addr:street": "Светог Саве", "addr:housenumber": "39", "ref:RS:uk": 22785 }, "geometry": { "type": "Point", "coordinates": [ 19.85708, 45.5379 ] } },
{ "type": "Feature", "properties": { "amenity": "theatre", "name": "Аматерско позориште „Велимир Сандић-Вељко”", "name:sr": "Аматерско позориште „Велимир Сандић-Вељко”", "name:sr-Latn": "Amatersko pozorište „Velimir Sandić-Veljko”", "name:en": "Amateur theater \"Velimir Sandic-Veljko\"", "name:ru": "Любительский театр „Велимир Сандич-Велько”", "name:zh": "“韦利米尔·桑迪奇-韦利科”业余剧院", "email": "domkulture.sivac@gmail.com", "phone": "+381 711 055; +381 061 1460 656", "website": "www.domkulture-sivac.net", "addr:street": "Маршала Тита", "addr:housenumber": "195", "ref:RS:uk": 22779 }, "geometry": { "type": "Point", "coordinates": [ 19.38152, 45.70139 ] } },
{ "type": "Feature", "properties": { "amenity": "theatre", "name": "Аматерско позориште „Владимир Курбан Владимиров” Бачки Петровац", "name:sr": "Аматерско позориште „Владимир Курбан Владимиров” Бачки Петровац", "name:sr-Latn": "Amatersko pozorište „Vladimir Kurban Vladimirov” Bački Petrovac", "name:en": "Amateur Theatre \"Vladimir Kurban Vladimirov\" Bački", "name:ru": "Любительский театр „Владимир Курбан Владимиров” Бачки-Петровац", "name:zh": "巴池彼得罗瓦茨“弗拉迪米尔·库尔班·弗拉迪米洛夫”业余剧院", "email": "vhvpetrovec@gmail.com", "phone": "+381 780 034; +381 063 8856 040", "website": null, "addr:street": "Коларова", "addr:housenumber": "4", "ref:RS:uk": 20615 }, "geometry": { "type": "Point", "coordinates": [ 19.59162, 45.3597 ] } },
{ "type": "Feature", "properties": { "amenity": "theatre", "name": "Аматерско позориште „Владимир хурбан Владимиров” Ковачица", "name:sr": "Аматерско позориште „Владимир хурбан Владимиров” Ковачица", "name:sr-Latn": "Amatersko pozorište „Vladimir hurban Vladimirov” Kovačica", "name:en": "Amateur Theatre \"Vladimir Hurban Vladimirov\" Kovač", "name:ru": "Любительский театр „Владимир Хурбан Владимиров” Ковачица", "name:zh": "科瓦奇查“弗拉迪米尔·库尔班·弗拉迪米洛夫业余剧院", "email": "dkulture@gmail.com", "phone": "+381 661 112; +381 062 3564 764", "website": null, "addr:street": "Маршала Тита", "addr:housenumber": "46", "ref:RS:uk": 22379 }, "geometry": { "type": "Point", "coordinates": [ 20.61943, 45.11173 ] } },
{ "type": "Feature", "properties": { "amenity": "theatre", "name": "ОКУД  „Градимир” Београд", "name:sr": "ОКУД  „Градимир” Београд", "name:sr-Latn": "OKUD  „Gradimir” Beograd", "name:en": null, "name:ru": null, "name:zh": null, "email": "gradimir@beotel.net", "phone": "+381 3086 549", "website": null, "addr:street": "Милешевска", "addr:housenumber": "42а", "ref:RS:uk": 22783 }, "geometry": { "type": "Point", "coordinates": [ 20.48193, 44.7985 ] } },
{ "type": "Feature", "properties": { "amenity": "theatre", "name": "Аматерско позориште „Јанко Чеман” Пивнице", "name:sr": "Аматерско позориште „Јанко Чеман” Пивнице", "name:sr-Latn": "Amatersko pozorište „Janko Čeman” Pivnice", "name:en": "Amateur Theatre \"Jan Čeman\" Pivnice", "name:ru": "Любительский театр „Янко Чеман” Пивнице", "name:zh": "皮夫尼策“杨科·切满”业余剧院", "email": "jceman@eunet.rs", "phone": "+381 756  550; +381 064 3037 802", "website": "www.dida.co.rs", "addr:street": "Војвођанска", "addr:housenumber": "25", "ref:RS:uk": 20640 }, "geometry": { "type": "Point", "coordinates": [ 19.4571, 45.46712 ] } },
{ "type": "Feature", "properties": { "amenity": "theatre", "name": "Аматерско позориште „Мара” Бачка Топола", "name:sr": "Аматерско позориште „Мара” Бачка Топола", "name:sr-Latn": "Amatersko pozorište „Mara” Bačka Topola", "name:en": "Amateur Theatre \"Mara\" Bačka Topola", "name:ru": "Любительский театр „Мара” Бачка-Топола", "name:zh": "巴池托珀拉“玛拉“业余剧院", "email": "s_karesz@yahoo.com", "phone": "+381 713 515; +381 24712 252; +381 063 110 9024", "website": null, "addr:street": "Главна", "addr:housenumber": "12", "ref:RS:uk": 22381 }, "geometry": { "type": "Point", "coordinates": [ 19.6314, 45.81297 ] } },
{ "type": "Feature", "properties": { "amenity": "theatre", "name": "Аматерско позориште „Миливоје Живановић” Пожаревац", "name:sr": "Аматерско позориште „Миливоје Живановић” Пожаревац", "name:sr-Latn": "Amatersko pozorište „Milivoje Živanović” Požarevac", "name:en": "Amateur Theatre \"Milivoje Živanović\" Požarevac", "name:ru": "Любительский театр „Миливое Живанович” Пожаревац", "name:zh": "波扎莱瓦茨“米利沃耶·日万诺维奇”业余剧院", "email": "centarpozarevac@gmail.com", "phone": "+381 522 481; +381 12526 745", "website": null, "addr:street": "Јована Шербановића", "addr:housenumber": "1", "ref:RS:uk": 22353 }, "geometry": { "type": "Point", "coordinates": [ 21.18763, 44.61906 ] } },
{ "type": "Feature", "properties": { "amenity": "theatre", "name": "Аматерско позориште „Радоје Домановић” Рача", "name:sr": "Аматерско позориште „Радоје Домановић” Рача", "name:sr-Latn": "Amatersko pozorište „Radoje Domanović” Rača", "name:en": "Amateur Theatre \"Radoje Domanovic\" Raca", "name:ru": "Любительский театр „Радое Доманович” Рача", "name:zh": "拉查“拉多耶·多玛诺维奇”业余剧院", "email": "kcraca@gmail.com", "phone": "+381 751 275; +381 069 8084 193; 069 8084 191", "website": "www.tor.rs/sr/racansko-amatersko-pozoriste/", "addr:street": "Карађорђева", "addr:housenumber": "60", "ref:RS:uk": 22444 }, "geometry": { "type": "Point", "coordinates": [ 20.9789, 44.22723 ] } },
{ "type": "Feature", "properties": { "amenity": "theatre", "name": "Аматерско позориште „Ресава” Деспотовац", "name:sr": "Аматерско позориште „Ресава” Деспотовац", "name:sr-Latn": "Amatersko pozorište „Resava” Despotovac", "name:en": "Amateur Thetrea \"Resava\" Despotovac", "name:ru": "Любительский театр „Ресава” Деспотовац", "name:zh": "德斯波托瓦茨“莱萨夫斯卡”业余剧院", "email": "sv.stefandespotovac@gmail.com", "phone": "+381 611 047; +381 065 6110 474", "website": "www.despotovac.rs", "addr:street": "Деспота Стевана Лазаревића", "addr:housenumber": "2", "ref:RS:uk": 22406 }, "geometry": { "type": "Point", "coordinates": [ 21.43693, 44.09518 ] } },
{ "type": "Feature", "properties": { "amenity": "theatre", "name": "Аматерско позориште „Тодор Крецу-Тоша“ Уздин", "name:sr": "Аматерско позориште „Тодор Крецу-Тоша“ Уздин", "name:sr-Latn": "Amatersko pozorište „Todor Krecu-Toša“ Uzdin", "name:en": "Amateur Theatre „Todor Krecu-Toša“ Uzdin", "name:ru": "Любительский театр „Тодор Крецу-Тоша“ Уздин", "name:zh": "乌兹丁“托多尔·克莱促-托沙”业余剧院", "email": "ccdoinauzdin@yahoo.com", "phone": "+381 673 102", "website": null, "addr:street": "Тудор Владимиреску", "addr:housenumber": "168", "ref:RS:uk": 20924 }, "geometry": { "type": "Point", "coordinates": [ 20.62137, 45.20672 ] } },
{ "type": "Feature", "properties": { "amenity": "theatre", "name": "Аматерско позориште „Хранислав Драгутиновић”, Прокупље", "name:sr": "Аматерско позориште „Хранислав Драгутиновић”, Прокупље", "name:sr-Latn": "Amatersko pozorište „Hranislav Dragutinović”, Prokuplje", "name:en": "Amateur Theatre Prokuplje", "name:ru": "Любительский театр „Хранислав Драгутинович”, Прокупле", "name:zh": "普罗库普列“赫拉尼斯拉夫·德拉古提诺维奇”业余剧院", "email": null, "phone": "+381 321 002", "website": "www.domkulturepk.comindex.php?option=com_content&view=article&id=1&Itemid=102", "addr:street": "Косте Војиновића", "addr:housenumber": "1", "ref:RS:uk": 22374 }, "geometry": { "type": "Point", "coordinates": [ 21.58315, 43.23141 ] } },
{ "type": "Feature", "properties": { "amenity": "theatre", "name": "Аматерско позориште Ада", "name:sr": "Аматерско позориште Ада", "name:sr-Latn": "Amatersko pozorište Ada", "name:en": "Amateur theatre Ada", "name:ru": "Любительский театр Ада", "name:zh": "阿达业余剧院", "email": null, "phone": "+381 851 115  851 600; +381  ", "website": null, "addr:street": "Трг ослобођења", "addr:housenumber": "3а", "ref:RS:uk": 22398 }, "geometry": { "type": "Point", "coordinates": [ 20.13262, 45.79673 ] } },
{ "type": "Feature", "properties": { "amenity": "theatre", "name": "Аматерско позориште Дебељача", "name:sr": "Аматерско позориште Дебељача", "name:sr-Latn": "Amatersko pozorište Debeljača", "name:en": "Amateur Theatre Debeljača", "name:ru": "Любительский театр Дебеляча", "name:zh": "德贝利亚查业余剧院", "email": "dk.debeljaca@yahoo.de", "phone": "+381 665 264; +381 062 758 920", "website": null, "addr:street": "Трг Маршала Тита", "addr:housenumber": "18", "ref:RS:uk": 22380 }, "geometry": { "type": "Point", "coordinates": [ 20.60129, 45.06854 ] } },
{ "type": "Feature", "properties": { "amenity": "theatre", "name": "Аматерско позориште Ковин", "name:sr": "Аматерско позориште Ковин", "name:sr-Latn": "Amatersko pozorište Kovin", "name:en": "Amateur Theatre Kovin", "name:ru": "Любительский театр Ковин", "name:zh": "科文业余剧院", "email": "jadrankab.7@gmail.com", "phone": "+381  ; +381 064 4025 556", "website": null, "addr:street": "Цара Лазара", "addr:housenumber": "87", "ref:RS:uk": 22394 }, "geometry": null },
{ "type": "Feature", "properties": { "amenity": "theatre", "name": "Аматерско позориште Кула", "name:sr": "Аматерско позориште Кула", "name:sr-Latn": "Amatersko pozorište Kula", "name:en": "Amateur Theatre Kula", "name:ru": "Любительский театр Кула", "name:zh": "库拉业余剧院", "email": "kulturnicentarkula@yahoo.com", "phone": "+381 722 477; +381  ", "website": null, "addr:street": "Јосипа Крамера", "addr:housenumber": "3", "ref:RS:uk": 22395 }, "geometry": { "type": "Point", "coordinates": [ 19.53124, 45.60839 ] } },
{ "type": "Feature", "properties": { "amenity": "theatre", "name": "Аматерско позориште Нова Варош", "name:sr": "Аматерско позориште Нова Варош", "name:sr-Latn": "Amatersko pozorište Nova Varoš", "name:en": "Amateur Theatre Nova Varoš", "name:ru": "Любительский театр Нова-Варош", "name:zh": "新瓦罗什业余剧院", "email": "domkulturenv@gmail.com", "phone": "+381 61 130", "website": null, "addr:street": "Трг Војводе Бојовића", "addr:housenumber": "5", "ref:RS:uk": 22383 }, "geometry": { "type": "Point", "coordinates": [ 19.81524, 43.46063 ] } },
{ "type": "Feature", "properties": { "amenity": "theatre", "name": "Аматерско позориште Прибој", "name:sr": "Аматерско позориште Прибој", "name:sr-Latn": "Amatersko pozorište Priboj", "name:en": "Amateur Theatre Priboj", "name:ru": "Любительский театр Прибой", "name:zh": "普利波尔业余剧院", "email": "dkulturepb@gmail.com", "phone": "+381 2454 802; +381 312445 395", "website": null, "addr:street": "12. јануара", "addr:housenumber": "86", "ref:RS:uk": 22355 }, "geometry": { "type": "Point", "coordinates": [ 19.52596, 43.58242 ] } },
{ "type": "Feature", "properties": { "amenity": "theatre", "name": "Аматерско позориште Пријепоље", "name:sr": "Аматерско позориште Пријепоље", "name:sr-Latn": "Amatersko pozorište Prijepolje", "name:en": "Amateur Theatre Prijepolje", "name:ru": "Любительский театр Приеполе", "name:zh": "普利耶珀列业余剧院", "email": "domkulture@mts.rs", "phone": "+381 711 566; +381 31710 125; +381  ", "website": null, "addr:street": "Санџачких бригада", "addr:housenumber": "2", "ref:RS:uk": 20522 }, "geometry": { "type": "Point", "coordinates": [ 19.64815, 43.3913 ] } },
{ "type": "Feature", "properties": { "amenity": "theatre", "name": "Аматерско позориште Футог", "name:sr": "Аматерско позориште Футог", "name:sr-Latn": "Amatersko pozorište Futog", "name:en": "Amateur Theatre Futog", "name:ru": "Любительский театр Футог", "name:zh": "弗托格业余剧院", "email": "kicfutog@gmail.com", "phone": "+381 895 350; +381 21895 588", "website": null, "addr:street": "Цара Лазара", "addr:housenumber": "42", "ref:RS:uk": 22396 }, "geometry": { "type": "Point", "coordinates": [ 19.70605, 45.23738 ] } },
{ "type": "Feature", "properties": { "amenity": "theatre", "name": "Белоцркванско аматерско позориште - БАП", "name:sr": "Белоцркванско аматерско позориште - БАП", "name:sr-Latn": "Belocrkvansko amatersko pozorište - BAP", "name:en": "Bela Crkva Amateur Theatre - BAP", "name:ru": "Белоцркванский любительский театр - БАП", "name:zh": "贝拉策尔克瓦业余剧院", "email": "bcflesh@gmail.com", "phone": "+381 852 852; +381 064 3879 258", "website": null, "addr:street": "1. октобар", "addr:housenumber": "88", "ref:RS:uk": 22788 }, "geometry": { "type": "Point", "coordinates": [ 21.42379, 44.89968 ] } },
{ "type": "Feature", "properties": { "amenity": "theatre", "name": "Београдско драмско позориште Београд", "name:sr": "Београдско драмско позориште Београд", "name:sr-Latn": "Beogradsko dramsko pozorište Beograd", "name:en": "Belgrade Theatre of Drama", "name:ru": "Белградский драматический театр Белград", "name:zh": "贝尔格莱德戏剧院", "email": "ana.jelic@bdp.rs", "phone": "+381 2835 111; +381 063 317 698", "website": "www.bdp.rs", "addr:street": "Милешевска", "addr:housenumber": "64а", "ref:RS:uk": 21032 }, "geometry": { "type": "Point", "coordinates": [ 20.48578, 44.79727 ] } },
{ "type": "Feature", "properties": { "amenity": "theatre", "name": "БИТЕФ театар Београд", "name:sr": "БИТЕФ театар Београд", "name:sr-Latn": "BITEF teatar Beograd", "name:en": "BITEF Theatre", "name:ru": "БИТЕФ театр Белград", "name:zh": "贝尔格莱德比特弗剧院", "email": "bitef@bitef.rs", "phone": "+381 3243 108; +381 113243 109; +381 060 5040 570", "website": "www.bitef.rs", "addr:street": "Кнез-Милетина 2", "addr:housenumber": "29/1", "ref:RS:uk": 21054 }, "geometry": { "type": "Point", "coordinates": [ 20.46835, 44.81815 ] } },
{ "type": "Feature", "properties": { "amenity": "theatre", "name": "Весела корњача", "name:sr": "Весела корњача", "name:sr-Latn": "Vesela kornjača", "name:en": "Happy turtle", "name:ru": "Веселая черепаха", "name:zh": "幸运的乌龟", "email": "veselakornjaca@gmail.com", "phone": "+381 6613 328; +381 065 2131 215", "website": "www.teatar34.comvesela-kornjaca", "addr:street": "Николе Пашића", "addr:housenumber": "34", "ref:RS:uk": 21084 }, "geometry": { "type": "Point", "coordinates": [ 19.84557, 45.25884 ] } },
{ "type": "Feature", "properties": { "amenity": "theatre", "name": "Градско аматерско позориште Свилајнац", "name:sr": "Градско аматерско позориште Свилајнац", "name:sr-Latn": "Gradsko amatersko pozorište Svilajnac", "name:en": "Citz Amateur Theatre Svilajnac", "name:ru": "Городской любительский театр Свилайнац", "name:zh": "斯维莱纳茨城市业余剧院", "email": "czksvilajnac@gmail.com", "phone": "+381 321 048", "website": null, "addr:street": "Светог Саве", "addr:housenumber": "58", "ref:RS:uk": 22351 }, "geometry": { "type": "Point", "coordinates": [ 21.19594, 44.23174 ] } },
{ "type": "Feature", "properties": { "amenity": "theatre", "name": "Градско позориште „Абрашевић”", "name:sr": "Градско позориште „Абрашевић”", "name:sr-Latn": "Gradsko pozorište „Abrašević”", "name:en": "City Theatre \"Abrasevic\"", "name:ru": "Городской театр „Абрашевич”", "name:zh": "“阿布拉舍维奇”城市剧院", "email": "abrasevicva@mts.rs", "phone": "+381 220 282; +381 063 8119 102", "website": null, "addr:street": "Чика Љубина", "addr:housenumber": "5", "ref:RS:uk": 22781 }, "geometry": { "type": "Point", "coordinates": [ 19.88734, 44.26926 ] } },
{ "type": "Feature", "properties": { "amenity": "theatre", "name": "Градско позориште „Театар 91” Алексинац", "name:sr": "Градско позориште „Театар 91” Алексинац", "name:sr-Latn": "Gradsko pozorište „Teatar 91” Aleksinac", "name:en": "Gradsko pozorište „Teatar 91” Aleksinac", "name:ru": "Городской театр „Театр 91” Алексинац", "name:zh": "阿莱克西纳茨“91号剧场”城市剧院", "email": "teatar91@gmail.com", "phone": "+381 801 722; +381 064 8966 201", "website": "www.gradskopozoriste.com", "addr:street": "Душана Тривунца", "addr:housenumber": "15", "ref:RS:uk": 21081 }, "geometry": { "type": "Point", "coordinates": [ 21.70817, 43.54062 ] } },
{ "type": "Feature", "properties": { "amenity": "theatre", "name": "Градско позориште Бечеј", "name:sr": "Градско позориште Бечеј", "name:sr-Latn": "Gradsko pozorište Bečej", "name:en": "City Theatre Bečej", "name:ru": "Городской театр Бечей", "name:zh": "贝切伊城市剧院", "email": "pozorist@yahoo.com", "phone": "+381 6915 336; +381 064 8959 305", "website": "www.pozoristebecej.rs", "addr:street": "Герберових", "addr:housenumber": "2", "ref:RS:uk": 20643 }, "geometry": { "type": "Point", "coordinates": [ 20.04987, 45.61557 ] } },
{ "type": "Feature", "properties": { "amenity": "theatre", "name": "Градско позориште Јагодина", "name:sr": "Градско позориште Јагодина", "name:sr-Latn": "Gradsko pozorište Jagodina", "name:en": "City Theatre Jagodina", "name:ru": "Городской театр Ягодина", "name:zh": "雅戈蒂纳城市剧院", "email": "pozoristejagodina@gmail.com", "phone": "+381 231 244", "website": "www.pozoristejagodina.com", "addr:street": "Кнегиње Милице", "addr:housenumber": "25", "ref:RS:uk": 21024 }, "geometry": { "type": "Point", "coordinates": [ 21.26217, 43.97762 ] } },
{ "type": "Feature", "properties": { "amenity": "theatre", "name": "Градско позориште Јагодина - дечија сцена", "name:sr": "Градско позориште Јагодина - дечија сцена", "name:sr-Latn": "Gradsko pozorište Jagodina - dečija scena", "name:en": "Gradsko pozorište Jagodina - dečija scena", "name:ru": "Городской театр Ягодина - детская сцена", "name:zh": "雅戈蒂纳城市剧院-儿童剧场", "email": "pozoristejagodina@gmail.com", "phone": "+381 231 244; +381 064 5467 299", "website": "www.pozoristejagodina.com", "addr:street": "Кнегиње Милице", "addr:housenumber": "25", "ref:RS:uk": 22795 }, "geometry": { "type": "Point", "coordinates": [ 21.26217, 43.97762 ] } },
{ "type": "Feature", "properties": { "amenity": "theatre", "name": "Дах театар - Центар за позоришна истраживања Београд", "name:sr": "Дах театар - Центар за позоришна истраживања Београд", "name:sr-Latn": "Dah teatar - Centar za pozorišna istraživanja Beograd", "name:en": "Dah Theatre", "name:ru": "Дах театр - Центр театральных исследований Белград", "name:zh": "贝尔格莱德戏剧研究中心达赫剧院", "email": null, "phone": "+381 2441 680", "website": "www.dahteatarcentar.com", "addr:street": "Марулићева", "addr:housenumber": "8", "ref:RS:uk": 21069 }, "geometry": { "type": "Point", "coordinates": [ 20.48073, 44.79485 ] } },
{ "type": "Feature", "properties": { "amenity": "theatre", "name": "Дечије позориште „Чарапа”", "name:sr": "Дечије позориште „Чарапа”", "name:sr-Latn": "Dečije pozorište „Čarapa”", "name:en": "Children theatre Socks", "name:ru": "Детский театр „Чулок”", "name:zh": "“查拉帕”儿童剧院", "email": "pozoristecarapa@gmail.com", "phone": "+381 3133 673; +381 060 6185 241", "website": "www.pozoristecarapa.com", "addr:street": "Шпанских бораца", "addr:housenumber": "24", "ref:RS:uk": 22765 }, "geometry": { "type": "Point", "coordinates": [ 20.41925, 44.8149 ] } },
{ "type": "Feature", "properties": { "amenity": "theatre", "name": "Дечје позориште Суботица", "name:sr": "Дечје позориште Суботица", "name:sr-Latn": "Dečje pozorište Subotica", "name:en": "Children`s Theatre  Subotica", "name:ru": "Детский театр Суботица", "name:zh": "苏博蒂察儿童剧院", "email": "decjepozoriste.su@mts.rs", "phone": "+381 555 715; +381 063 1077 734", "website": "www.suteatarzadecu.rs", "addr:street": "Парк Рајхл Ференца", "addr:housenumber": "12а", "ref:RS:uk": 21040 }, "geometry": { "type": "Point", "coordinates": [ 19.67058, 46.10122 ] } },
{ "type": "Feature", "properties": { "amenity": "theatre", "name": "Драмски студио", "name:sr": "Драмски студио", "name:sr-Latn": "Dramski studio", "name:en": "Dramski studio", "name:ru": "Драматическая студия", "name:zh": "戏剧工作室", "email": "info@obrenovac-info.co.rs", "phone": "+381 8721 361; +381 064 837 4324", "website": null, "addr:street": "Краља Александра I 63", "addr:housenumber": "бб", "ref:RS:uk": 22433 }, "geometry": { "type": "Point", "coordinates": [ 20.20015, 44.6581 ] } },
{ "type": "Feature", "properties": { "amenity": "theatre", "name": "Звездара театар Београд", "name:sr": "Звездара театар Београд", "name:sr-Latn": "Zvezdara teatar Beograd", "name:en": "Zvezdara Theatre", "name:ru": "Звездара театр Белград", "name:zh": "贝尔格莱德兹韦兹达拉剧院", "email": "office@zvezdarateatar.rs", "phone": "+381 2414 524; +381 112419 664; +381 112411 484; +381 113861 970; +381 069 2283 641", "website": "www.zvezdarateatar.rs", "addr:street": "Милана Ракића", "addr:housenumber": "38", "ref:RS:uk": 21058 }, "geometry": { "type": "Point", "coordinates": [ 20.49776, 44.79773 ] } },
{ "type": "Feature", "properties": { "amenity": "theatre", "name": "Истер театар", "name:sr": "Истер театар", "name:sr-Latn": "Ister teatar", "name:en": "Ister Theatre", "name:ru": "Истер театр", "name:zh": "因斯特尔剧院", "email": "isterteatar@gmail.com", "phone": "+381 2619 705; +381 069 1654 421", "website": null, "addr:street": "Карловачка", "addr:housenumber": "26", "ref:RS:uk": 21060 }, "geometry": { "type": "Point", "coordinates": [ 20.38536, 44.85234 ] } },
{ "type": "Feature", "properties": { "amenity": "theatre", "name": "Југословенско драмско позориште Београд", "name:sr": "Југословенско драмско позориште Београд", "name:sr-Latn": "Jugoslovensko dramsko pozorište Beograd", "name:en": "Yugoslav Drama Theatre", "name:ru": "Югославский драматический театр Белград", "name:zh": "贝尔格莱德南斯拉夫戏剧院", "email": "jdp@jdp.rs", "phone": "+381 3061 900; +381 063 595 684", "website": "www.jdp.rs", "addr:street": "Краља Милана", "addr:housenumber": "50", "ref:RS:uk": 21041 }, "geometry": { "type": "Point", "coordinates": [ 20.46474, 44.80561 ] } },
{ "type": "Feature", "properties": { "amenity": "theatre", "name": "Камерна сцена „Мирослав Антић” Сента", "name:sr": "Камерна сцена „Мирослав Антић” Сента", "name:sr-Latn": "Kamerna scena „Miroslav Antić” Senta", "name:en": "Chambre Scene \"Miroslav Antić\" Senta", "name:ru": "Камерная сцена „Мирослав Антич” Сента", "name:zh": "森塔“米洛斯拉夫·安提奇”摄影舞台", "email": "klub@mikaantic.org.rs", "phone": "+381 815 847; +381 065 8159 350", "website": "www.mikaantic.org.rs", "addr:street": "Главни трг", "addr:housenumber": "2", "ref:RS:uk": 21062 }, "geometry": { "type": "Point", "coordinates": [ 20.08962, 45.93034 ] } },
{ "type": "Feature", "properties": { "amenity": "theatre", "name": "Катарза Лебане", "name:sr": "Катарза Лебане", "name:sr-Latn": "Katarza Lebane", "name:en": "Katarza Lebane", "name:ru": "Катарза Лебане", "name:zh": "卡塔尔扎·莱巴内", "email": null, "phone": "+381 843 920; +381 064 309 6646", "website": null, "addr:street": "Цара Душана", "addr:housenumber": "79", "ref:RS:uk": 21067 }, "geometry": { "type": "Point", "coordinates": [ 21.73772, 42.91763 ] } },
{ "type": "Feature", "properties": { "amenity": "theatre", "name": "Књажевско-српски театар Крагујевац", "name:sr": "Књажевско-српски театар Крагујевац", "name:sr-Latn": "Knjaževsko-srpski teatar Kragujevac", "name:en": "Knjazesko Srbski Teatar - First Serbian Court Theater", "name:ru": "Княжевско-сербский театр Крагуевац", "name:zh": "诺维萨德塞尔维亚国家剧院", "email": "pozoristetjv@mts.rs", "phone": "+381 6170 500; +381 065 3358 233", "website": "www.joakimvujic.com", "addr:street": "Даничићева", "addr:housenumber": "3", "ref:RS:uk": 21028 }, "geometry": { "type": "Point", "coordinates": [ 20.91029, 44.01071 ] } },
{ "type": "Feature", "properties": { "amenity": "theatre", "name": "КПГТ Београд", "name:sr": "КПГТ Београд", "name:sr-Latn": "KPGT Beograd", "name:en": "KPGT", "name:ru": "Театр \"КПГТ\" Белград", "name:zh": "贝尔格莱德KPGT剧院", "email": "kpgtyu@gmail.com", "phone": "+381 3055 070; +381 113055 082; +381 066 9773 129", "website": "www.kpgtyu.org", "addr:street": "Радничка", "addr:housenumber": "3", "ref:RS:uk": 21037 }, "geometry": { "type": "Point", "coordinates": [ 20.42403, 44.78819 ] } },
{ "type": "Feature", "properties": { "amenity": "theatre", "name": "Крушевачко позориште", "name:sr": "Крушевачко позориште", "name:sr-Latn": "Kruševačko pozorište", "name:en": "Krusevac Theatre", "name:ru": "Крушевацкий театр", "name:zh": "弗拉涅“波拉·斯坦科维奇”剧院公共机构", "email": "krusevackopozoriste@gmail.com", "phone": "+381 410 810; +381 37442 990", "website": "www.krusevackopozoriste.com", "addr:street": "Видовданска", "addr:housenumber": "26", "ref:RS:uk": 21076 }, "geometry": { "type": "Point", "coordinates": [ 21.32929, 43.58078 ] } },
{ "type": "Feature", "properties": { "amenity": "theatre", "name": "Култ Театар", "name:sr": "Култ Театар", "name:sr-Latn": "Kult Teatar", "name:en": "Cult Theatre", "name:ru": "Культ Театр", "name:zh": "库尔特剧院", "email": "info@ukvuk.org.rs", "phone": "+381 2424 860; +381 066 290 168", "website": "www.ukvuk.org.rs", "addr:street": "Булевар Краља Александра", "addr:housenumber": "77а", "ref:RS:uk": 21057 }, "geometry": { "type": "Point", "coordinates": [ 20.48111, 44.80356 ] } },
{ "type": "Feature", "properties": { "amenity": "theatre", "name": "Мало позориште „Душко Радовић”", "name:sr": "Мало позориште „Душко Радовић”", "name:sr-Latn": "Malo pozorište „Duško Radović”", "name:en": "Little Theatre \"Duško Radović\"", "name:ru": "Малый театр „Душко Радович”", "name:zh": "“杜什科·拉多维奇”小剧院", "email": "info@malopozoriste.co.rs", "phone": "+381 7858 439; +381 117858 430; +381 063 242 524", "website": "www.malopozoriste.co.rs", "addr:street": "Aбердарева", "addr:housenumber": "1", "ref:RS:uk": 21025 }, "geometry": { "type": "Point", "coordinates": [ 20.46943, 44.811 ] } },
{ "type": "Feature", "properties": { "amenity": "theatre", "name": "Милановачко аматерско позориште", "name:sr": "Милановачко аматерско позориште", "name:sr-Latn": "Milanovačko amatersko pozorište", "name:en": "Milanovačko amatersko pozorište", "name:ru": "Милановацкий любительский театр", "name:zh": "米兰诺瓦茨业余剧院", "email": "pedja.losic@gmail.com", "phone": "+381 711 136; +381 060 6711 777; 060 0777 796", "website": "www.milanovackopozoriste.rs", "addr:street": "Карађорђева", "addr:housenumber": "21", "ref:RS:uk": 22769 }, "geometry": { "type": "Point", "coordinates": [ 20.45716, 44.02459 ] } },
{ "type": "Feature", "properties": { "amenity": "theatre", "name": "Народно позориште „Стерија” Вршац", "name:sr": "Народно позориште „Стерија” Вршац", "name:sr-Latn": "Narodno pozorište „Sterija” Vršac", "name:en": "National Theatre \"Sterija\" Vrsac", "name:ru": "Народный театр „Стерия” Вршац", "name:zh": "弗尔沙茨“斯特里亚”国家剧院", "email": "npsterija@mts.rs", "phone": "+381 833 122; +381 26828.1110", "website": "www.npsterija.rs", "addr:street": "Светосавски трг", "addr:housenumber": "6", "ref:RS:uk": 21049 }, "geometry": { "type": "Point", "coordinates": [ 21.29779, 45.1184 ] } },
{ "type": "Feature", "properties": { "amenity": "theatre", "name": "Народно позориште „Тоша Јовановић” Зрењанин", "name:sr": "Народно позориште „Тоша Јовановић” Зрењанин", "name:sr-Latn": "Narodno pozorište „Toša Jovanović” Zrenjanin", "name:en": "National Theatre \"Tosa Jovanović\" Zrenjanin", "name:ru": "Народный театр „Тоша Йованович” Зренянин", "name:zh": "兹雷尼亚宁“托沙·约万诺维奇”国家剧院", "email": "info@tosajovanovic.org.rs", "phone": "+381 530 493; +381 066 8660 002", "website": "www.tosajovanovic.org.rs", "addr:street": "Трг Слободе", "addr:housenumber": "7", "ref:RS:uk": 21052 }, "geometry": { "type": "Point", "coordinates": [ 20.39045, 45.37988 ] } },
{ "type": "Feature", "properties": { "amenity": "theatre", "name": "Народно позориште „Тоша Јовановић” Зрењанин - луткарска сцена", "name:sr": "Народно позориште „Тоша Јовановић” Зрењанин - луткарска сцена", "name:sr-Latn": "Narodno pozorište „Toša Jovanović” Zrenjanin - lutkarska scena", "name:en": "Puppet scene", "name:ru": "Народный театр „Тоша Йованович” Зренянин - кукольная сцена", "name:zh": "兹雷尼亚宁“托沙·约万诺维奇”国家剧院木偶剧场", "email": "info@tosajovanovic.org.rs", "phone": "+381 560 136; +381 064 8116 991", "website": "www.tosajovanovic.org.rs", "addr:street": "Трг слободе", "addr:housenumber": "7", "ref:RS:uk": 22800 }, "geometry": { "type": "Point", "coordinates": [ 20.39045, 45.37988 ] } },
{ "type": "Feature", "properties": { "amenity": "theatre", "name": "Народно позориште -Narodno kazalište-Népszínház Суботица", "name:sr": "Народно позориште -Narodno kazalište-Népszínház Суботица", "name:sr-Latn": "Narodno pozorište -Narodno kazalište-Népszínház Subotica", "name:en": "National Theatre Subotica", "name:ru": "Народный театр - Narodno kazalište - Népszínház Суботица", "name:zh": "苏博蒂察国家剧院", "email": "npnkn@npnkn.org", "phone": "+381 554 700", "website": "www.suteatar.org", "addr:street": "Сенћански пут", "addr:housenumber": "71", "ref:RS:uk": 21030 }, "geometry": { "type": "Point", "coordinates": [ 19.67861, 46.09246 ] } },
{ "type": "Feature", "properties": { "amenity": "theatre", "name": "Народно позориште Београд", "name:sr": "Народно позориште Београд", "name:sr-Latn": "Narodno pozorište Beograd", "name:en": "National Theatre Beograd", "name:ru": "Народный театр в Белграде", "name:zh": "贝尔格莱德国家剧院", "email": "uprava@narodnopozoriste.rs", "phone": "+381 3284 473; +381 113281 333", "website": "www.narodnopozoriste.rs", "addr:street": "Француска", "addr:housenumber": "3", "ref:RS:uk": 21033 }, "geometry": { "type": "Point", "coordinates": [ 20.46053, 44.81676 ] } },
{ "type": "Feature", "properties": { "amenity": "theatre", "name": "Народно позориште Кикинда", "name:sr": "Народно позориште Кикинда", "name:sr-Latn": "Narodno pozorište Kikinda", "name:en": "National Theatre Kikinda", "name:ru": "Народный театр Кикинда", "name:zh": "基金达国家剧院", "email": "pozoristenarodno@yahoo.com", "phone": "+381 422 638; +381 063 7748 045", "website": "www.pozoristekikinda.rs", "addr:street": "Трг српских добровољаца", "addr:housenumber": "28", "ref:RS:uk": 21046 }, "geometry": { "type": "Point", "coordinates": [ 20.46656, 45.83044 ] } },
{ "type": "Feature", "properties": { "amenity": "theatre", "name": "Народно позориште Лесковац", "name:sr": "Народно позориште Лесковац", "name:sr-Latn": "Narodno pozorište Leskovac", "name:en": "National Theatre Leskovac", "name:ru": "Народный театр Лесковац", "name:zh": "莱斯科瓦茨国家剧院", "email": "narodnopozoriste.leskovac@gmail.com", "phone": "+381 236 333; +381 066.8222.060", "website": "www.npl.org.rs", "addr:street": "Косте Стаменковића 28", "addr:housenumber": "22", "ref:RS:uk": 21059 }, "geometry": { "type": "Point", "coordinates": [ 21.94796, 42.99375 ] } },
{ "type": "Feature", "properties": { "amenity": "theatre", "name": "Народно позориште Ниш", "name:sr": "Народно позориште Ниш", "name:sr-Latn": "Narodno pozorište Niš", "name:en": "National Theatre Nis", "name:ru": "Народный театр Ниш", "name:zh": "尼什国家剧院", "email": "npnis@narodnopozoristenis.rs", "phone": "+381 209 220; +381 069 2832 349", "website": "www.narodnopozoristenis.rs", "addr:street": "Синђелићев трг 1", "addr:housenumber": "бб", "ref:RS:uk": 21045 }, "geometry": { "type": "Point", "coordinates": [ 21.8998, 43.32012 ] } },
{ "type": "Feature", "properties": { "amenity": "theatre", "name": "Народно позориште Пирот", "name:sr": "Народно позориште Пирот", "name:sr-Latn": "Narodno pozorište Pirot", "name:en": "National Theater Pirot", "name:ru": "Народный театр Пирот", "name:zh": "皮洛特国家剧院", "email": "pozoristepi@gmail.com", "phone": "+381 321 587; +381 063 1796 744", "website": "www.narodnopozoristepirot.rs", "addr:street": "Бранка Радичевића", "addr:housenumber": "1", "ref:RS:uk": 21071 }, "geometry": { "type": "Point", "coordinates": [ 22.5857, 43.15585 ] } },
{ "type": "Feature", "properties": { "amenity": "theatre", "name": "Народно позориште Сомбор", "name:sr": "Народно позориште Сомбор", "name:sr-Latn": "Narodno pozorište Sombor", "name:en": "National Theatre Sombor", "name:ru": "Народный театр Сомбор", "name:zh": "松博尔国家剧院", "email": "sombornationaltheatre@gmail.com", "phone": "+381 437 666; +381 25414 174; +381 25414 966; +381 060 0620 260", "website": "www.npozoristeso.co.rs", "addr:street": "Косте Трифковића", "addr:housenumber": "2", "ref:RS:uk": 21029 }, "geometry": { "type": "Point", "coordinates": [ 19.112, 45.77227 ] } },
{ "type": "Feature", "properties": { "amenity": "theatre", "name": "Народно позориште Ужице", "name:sr": "Народно позориште Ужице", "name:sr-Latn": "Narodno pozorište Užice", "name:en": "National Theatre Uzice", "name:ru": "Народный театр Ужице", "name:zh": "乌日策国家剧院", "email": "pozoristeuzice@mts.rs", "phone": "+381 519 966", "website": "www.uzickopozoriste.rs", "addr:street": "Краља Петра I", "addr:housenumber": "12", "ref:RS:uk": 21053 }, "geometry": { "type": "Point", "coordinates": [ 19.83991, 43.85753 ] } },
{ "type": "Feature", "properties": { "amenity": "theatre", "name": "Новосадско позориште „Újvidéki Színház”", "name:sr": "Новосадско позориште „Újvidéki Színház”", "name:sr-Latn": "Novosadsko pozorište „Újvidéki Színház”", "name:en": "Novi Sad Theatre Ujvideki Szinhaz", "name:ru": "Новисадский театр „Újvidéki Színház”", "name:zh": "诺维萨德剧院", "email": "ujvidekiszinhaz@yahoo.com", "phone": "+381 525 793; +381 063 661 707", "website": "www.uvszinhaz.com", "addr:street": "Јована Суботића", "addr:housenumber": "3-5", "ref:RS:uk": 21047 }, "geometry": { "type": "Point", "coordinates": [ 19.84169, 45.25758 ] } },
{ "type": "Feature", "properties": { "amenity": "theatre", "name": "Омладинско драмско дечји фронт „Жар птица”", "name:sr": "Омладинско драмско дечји фронт „Жар птица”", "name:sr-Latn": "Omladinsko dramsko dečji front „Žar ptica”", "name:en": "Youth Drama Child Front \"Zar ptica\"", "name:ru": "Молодежный драматический детский фронт „Жар-птица”", "name:zh": "“火烈鸟”青年话剧院儿童阵线", "email": "surdulica.kc@gmail.com", "phone": "+381 815 018; +381 066 5078 007", "website": "www.surdulickikutlrunicentra.rs", "addr:street": "Омладинска", "addr:housenumber": "1", "ref:RS:uk": 22804 }, "geometry": { "type": "Point", "coordinates": [ 22.17104, 42.69159 ] } },
{ "type": "Feature", "properties": { "amenity": "theatre", "name": "Омладинско позориште „Дадов” Београд", "name:sr": "Омладинско позориште „Дадов” Београд", "name:sr-Latn": "Omladinsko pozorište „Dadov” Beograd", "name:en": "Youth Theatre DADOV", "name:ru": "Молодежный театр „Дадов” Белград", "name:zh": "贝尔格莱德“达多夫”青年剧院", "email": "info@dadov.rs", "phone": "+381 3243 9679; +381 063 239 803", "website": "www.dadov.rs", "addr:street": "Десанке Максимовић", "addr:housenumber": "6a", "ref:RS:uk": 21068 }, "geometry": { "type": "Point", "coordinates": [ 20.46961, 44.80699 ] } },
{ "type": "Feature", "properties": { "amenity": "theatre", "name": "ПАТОС, Покретни алтернативни театар омладине Смедерево", "name:sr": "ПАТОС, Покретни алтернативни театар омладине Смедерево", "name:sr-Latn": "PATOS, Pokretni alternativni teatar omladine Smederevo", "name:en": "Moving Alternative Youth Theatre PATOS Smederevo", "name:ru": "ПАТОС, Альтернативный молодежный театр на колесах Смедерево", "name:zh": "斯梅代雷沃移动选择剧院", "email": "patos@patos.org.rs", "phone": "+381 224 805; +381 11640 363; +381  ", "website": "www.patos.org.rs", "addr:street": "Карађорђева", "addr:housenumber": "5", "ref:RS:uk": 22352 }, "geometry": { "type": "Point", "coordinates": [ 20.92496, 44.66417 ] } },
{ "type": "Feature", "properties": { "amenity": "theatre", "name": "Плаво позориште", "name:sr": "Плаво позориште", "name:sr-Latn": "Plavo pozorište", "name:en": "Plavo theater", "name:ru": "Голубой театр", "name:zh": "蓝色剧场", "email": "plavopozoriste@hotmail.com", "phone": "+381 2651 877; +381 061 1927 909", "website": "www.plavopozoriste.org", "addr:street": "Сењачка", "addr:housenumber": "3", "ref:RS:uk": 22770 }, "geometry": { "type": "Point", "coordinates": [ 20.44176, 44.79392 ] } },
{ "type": "Feature", "properties": { "amenity": "theatre", "name": "Позориштe „Лане”", "name:sr": "Позориштe „Лане”", "name:sr-Latn": "Pozorište „Lane”", "name:en": "Children's theatre \"Lane\"", "name:ru": "Театр „Олененок”", "name:zh": "“去年”剧场", "email": "pozoristelane@gmail.com", "phone": "+381 422 248; +381 064 1589 314; 060 0247 048", "website": null, "addr:street": "Краља Петра Првог", "addr:housenumber": "42", "ref:RS:uk": 21083 }, "geometry": { "type": "Point", "coordinates": [ 20.47032, 45.8327 ] } },
{ "type": "Feature", "properties": { "amenity": "theatre", "name": "Позориштанце „Пуж” Београд", "name:sr": "Позориштанце „Пуж” Београд", "name:sr-Latn": "Pozorištance „Puž” Beograd", "name:en": "Theatre \"Puž\"", "name:ru": "Театрик „Улитка” Белград", "name:zh": "贝尔格莱德“蜗牛”剧院", "email": "pozoristepuz@mts.rs", "phone": "+381 2443 332; +381 063 8898 728", "website": "www.pozoristancepuz.com", "addr:street": "Радослава Грујића", "addr:housenumber": "21", "ref:RS:uk": 21038 }, "geometry": { "type": "Point", "coordinates": [ 20.47999, 44.80023 ] } },
{ "type": "Feature", "properties": { "amenity": "theatre", "name": "Позориште - Дом културе „Студентски град”", "name:sr": "Позориште - Дом културе „Студентски град”", "name:sr-Latn": "Pozorište - Dom kulture „Studentski grad”", "name:en": "Studentski grad Cultural Center", "name:ru": "Театр - Дом культуры  „Студенческий городок”", "name:zh": "“大学生城”文化之家剧院", "email": "teatar@dksg.rs", "phone": "+381 2691  442", "website": "www.dksg.rs", "addr:street": "Булевар Зорана Ђинђића", "addr:housenumber": "179", "ref:RS:uk": 24125 }, "geometry": { "type": "Point", "coordinates": [ 20.40039, 44.8251 ] } },
{ "type": "Feature", "properties": { "amenity": "theatre", "name": "Позориште „Kosztolányi Desző” Суботица", "name:sr": "Позориште „Kosztolányi Desző” Суботица", "name:sr-Latn": "Pozorište „Kosztolányi Desző” Subotica", "name:en": "Theatre `Kosztolányi Desző`", "name:ru": "Театр „Kosztolányi Desző” Суботица", "name:zh": "苏博蒂察“科斯托拉尼·德热”剧院", "email": "info@kosztolanyi.org", "phone": "+381 557 471; +381  ", "website": "www.kosztolanyi.org", "addr:street": "Трг Жртава Фашизма", "addr:housenumber": "5", "ref:RS:uk": 21074 }, "geometry": { "type": "Point", "coordinates": [ 19.65991, 46.09708 ] } },
{ "type": "Feature", "properties": { "amenity": "theatre", "name": "Позориште „Абрашевић”", "name:sr": "Позориште „Абрашевић”", "name:sr-Latn": "Pozorište „Abrašević”", "name:en": "Abrasevic Theatre", "name:ru": "Театр „Абрашевич”", "name:zh": "“阿布拉舍维奇”剧院", "email": null, "phone": null, "website": "www.abrasevicbeograd.rs/pozoriste/index.php", "addr:street": "Ресавска", "addr:housenumber": "76", "ref:RS:uk": 22766 }, "geometry": { "type": "Point", "coordinates": [ 20.4577, 44.80133 ] } },
{ "type": "Feature", "properties": { "amenity": "theatre", "name": "Позориште „Бакине бајке”", "name:sr": "Позориште „Бакине бајке”", "name:sr-Latn": "Pozorište „Bakine bajke”", "name:en": "Pozorište „Bakine bajke”", "name:ru": "Театр „Бабушкины сказки”", "name:zh": "“祖母童话”剧院", "email": "bakineprice@gmail.com", "phone": "+381  ; +381 063 7444 684", "website": null, "addr:street": "Јурија Гагарина", "addr:housenumber": "169", "ref:RS:uk": 22789 }, "geometry": { "type": "Point", "coordinates": [ 20.38184, 44.79947 ] } },
{ "type": "Feature", "properties": { "amenity": "theatre", "name": "Позориште „Бора Станковић” Врање", "name:sr": "Позориште „Бора Станковић” Врање", "name:sr-Latn": "Pozorište „Bora Stanković” Vranje", "name:en": "Bora Stankovic Theatre", "name:ru": "ГУ театр „Бора Станкович” Вране", "name:zh": "弗拉涅“波拉·斯坦科维奇”剧院公共机构", "email": "pozoristeborastankovic@gmail.com", "phone": "+381 400 009; +381 064 8872 582", "website": "www.pozoriste-vranje.rs", "addr:street": "Народног хероја", "addr:housenumber": "1", "ref:RS:uk": 21075 }, "geometry": { "type": "Point", "coordinates": [ 21.89707, 42.55598 ] } },
{ "type": "Feature", "properties": { "amenity": "theatre", "name": "Позориште „Добрица Милутиновић” Сремска Митровица", "name:sr": "Позориште „Добрица Милутиновић” Сремска Митровица", "name:sr-Latn": "Pozorište „Dobrica Milutinović” Sremska Mitrovica", "name:en": "Theatre \"Dobrica Milutinović\" Sremska  Mitrovica", "name:ru": "Театр „Добрица Милутинович” Сремска-Митровица", "name:zh": "斯雷姆斯卡米特洛维察“多布里查·米卢提诺维奇”剧院", "email": "pozoristedm@gmail.com", "phone": "+381 621 979", "website": "www.pozoristesm.com", "addr:street": "Градски парк", "addr:housenumber": "2", "ref:RS:uk": 21043 }, "geometry": { "type": "Point", "coordinates": [ 19.60733, 44.96789 ] } },
{ "type": "Feature", "properties": { "amenity": "theatre", "name": "Позориште „Масука” Велика Плана", "name:sr": "Позориште „Масука” Велика Плана", "name:sr-Latn": "Pozorište „Masuka” Velika Plana", "name:en": "Masuka Theatre", "name:ru": "Театр „Масука” Велика-Плана", "name:zh": "大普拉那“玛苏卡”剧院", "email": "pozoristemasuka@gmail.com", "phone": "+381 514 761; +381 064 2527 597", "website": null, "addr:street": "Бранка Радичевића", "addr:housenumber": "1", "ref:RS:uk": 22802 }, "geometry": { "type": "Point", "coordinates": [ 21.07509, 44.33237 ] } },
{ "type": "Feature", "properties": { "amenity": "theatre", "name": "Позориште „Раша Плаовић”", "name:sr": "Позориште „Раша Плаовић”", "name:sr-Latn": "Pozorište „Raša Plaović”", "name:en": "Pozorište „Raša Plaović”", "name:ru": "Театр „Раша Плаович”", "name:zh": "“拉沙·普拉奥维奇”剧院", "email": "tamnavske@yahoo.com", "phone": "+381 411 111; +381 064 8160 754", "website": null, "addr:street": "Вука Караџића", "addr:housenumber": "19", "ref:RS:uk": 22787 }, "geometry": { "type": "Point", "coordinates": [ 20.07285, 44.45592 ] } },
{ "type": "Feature", "properties": { "amenity": "theatre", "name": "Позориште „Христо Ботев” Димитровград", "name:sr": "Позориште „Христо Ботев” Димитровград", "name:sr-Latn": "Pozorište „Hristo Botev” Dimitrovgrad", "name:en": "Amateur Theatre \"Hristo Botev\" Dimitrovgrad", "name:ru": "Театр „Христо Ботев” Димитровград", "name:zh": "迪米特洛夫格莱德“赫里斯托·波特夫”剧院", "email": "kulturadim@ptt.rs", "phone": "+381 362 177; +381 18362 707", "website": null, "addr:street": "др Зорана Ђинђића", "addr:housenumber": "2", "ref:RS:uk": 22376 }, "geometry": { "type": "Point", "coordinates": [ 22.77803, 43.01596 ] } },
{ "type": "Feature", "properties": { "amenity": "theatre", "name": "Позориште Атеље 212 ", "name:sr": "Позориште Атеље 212 ", "name:sr-Latn": "Pozorište Atelje 212 ", "name:en": "Theatre \"Atelje 212\"", "name:ru": "Ателье 212 Белград", "name:zh": "贝尔格莱德212工作室", "email": "masa.mihailovic@gmail.com", "phone": "+381 3246 146; +381 063 214 292", "website": "www.atelje212.rs", "addr:street": "Светогорска", "addr:housenumber": "21", "ref:RS:uk": 21063 }, "geometry": { "type": "Point", "coordinates": [ 20.468, 44.81411 ] } },
{ "type": "Feature", "properties": { "amenity": "theatre", "name": "Позориште Бошко Буха - Вечерња сцена, Београд", "name:sr": "Позориште Бошко Буха - Вечерња сцена, Београд", "name:sr-Latn": "Pozorište Boško Buha - Večernja scena, Beograd", "name:en": "Theatre Boško Buha", "name:ru": "Театр Бошко Буха - Вечерняя сцена, Белград", "name:zh": "贝尔格莱德波什科·布哈剧院夜间剧场", "email": "marketing@buha-theater.com", "phone": "+381 2632 855; +381  ", "website": "buha.rs", "addr:street": "Трг Републике", "addr:housenumber": "3", "ref:RS:uk": 25230 }, "geometry": { "type": "Point", "coordinates": [ 20.45956, 44.81629 ] } },
{ "type": "Feature", "properties": { "amenity": "theatre", "name": "Позориште Бошко Буха, Београд", "name:sr": "Позориште Бошко Буха, Београд", "name:sr-Latn": "Pozorište Boško Buha, Beograd", "name:en": "Theatre \"Boško Buha\"", "name:ru": "Театр Бошко Буха, Белград", "name:zh": "贝尔格莱德波什科·布哈剧院", "email": "marketing@buha.rs", "phone": "+381 2632 855; +381 2632 855", "website": "buha.rs", "addr:street": "Трг Републике", "addr:housenumber": "3", "ref:RS:uk": 21055 }, "geometry": { "type": "Point", "coordinates": [ 20.45956, 44.81629 ] } },
{ "type": "Feature", "properties": { "amenity": "theatre", "name": "Позориште за децу Крагујевац", "name:sr": "Позориште за децу Крагујевац", "name:sr-Latn": "Pozorište za decu Kragujevac", "name:en": "Theatre for children Kragujevac", "name:ru": "Детский театр Крагуевац", "name:zh": "克拉古耶瓦茨儿童剧场", "email": "pozoristezadecu@gmail.com", "phone": "+381 333 518; +381 065 3143 939; 064 8157 531", "website": "www.pzdkg.org", "addr:street": "Трг слободе", "addr:housenumber": "1", "ref:RS:uk": 21073 }, "geometry": { "type": "Point", "coordinates": [ 20.91903, 44.01378 ] } },
{ "type": "Feature", "properties": { "amenity": "theatre", "name": "Позориште лутака „Пинокио” Београд", "name:sr": "Позориште лутака „Пинокио” Београд", "name:sr-Latn": "Pozorište lutaka „Pinokio” Beograd", "name:en": "Puppet Theatre \"Pinokio\"", "name:ru": "Кукольный театр „Пинокио” (Буратино) Белград", "name:zh": "贝尔格莱德“皮诺基奥”儿童剧场", "email": "pinokio@pinokio.rs", "phone": "+381 2691 715; +381 061.2016.247", "website": "www.pinokio.rs", "addr:street": "Гоце Делчева", "addr:housenumber": "1", "ref:RS:uk": 21056 }, "geometry": { "type": "Point", "coordinates": [ 20.41192, 44.83016 ] } },
{ "type": "Feature", "properties": { "amenity": "theatre", "name": "Позориште лутака Ниш", "name:sr": "Позориште лутака Ниш", "name:sr-Latn": "Pozorište lutaka Niš", "name:en": "Puppet Theatre Nis", "name:ru": "Кукольный театр Ниш", "name:zh": "尼什木偶剧场", "email": "pozlutaka@medianis.net", "phone": "+381 253 962; +381 18526 913; +381 063 1089 901", "website": "www.nispuppets.org.rs", "addr:street": "Булевар др Зорана Ђинђића", "addr:housenumber": "7", "ref:RS:uk": 21044 }, "geometry": { "type": "Point", "coordinates": [ 21.907, 43.31979 ] } },
{ "type": "Feature", "properties": { "amenity": "theatre", "name": "Позориште младих Нови Сад - Драмска сцена", "name:sr": "Позориште младих Нови Сад - Драмска сцена", "name:sr-Latn": "Pozorište mladih Novi Sad - Dramska scena", "name:en": "Youth Theatre", "name:ru": "Молодежный театр  Нови Сад - Драматическая сцена", "name:zh": "诺维萨德青年剧院话剧场", "email": "office@pozoristemladih.co.rs", "phone": "+381 525 884; +381 21; +381 063 459 334", "website": "www.pozoristemladih.co.rs", "addr:street": "Игњата Павласа", "addr:housenumber": "4", "ref:RS:uk": 22797 }, "geometry": { "type": "Point", "coordinates": [ 19.84891, 45.25517 ] } },
{ "type": "Feature", "properties": { "amenity": "theatre", "name": "Позориште на Теразијама Београд", "name:sr": "Позориште на Теразијама Београд", "name:sr-Latn": "Pozorište na Terazijama Beograd", "name:en": "Theatre at Terazije", "name:ru": "Театр на пл. Теразие Белград", "name:zh": "贝尔格莱德特拉基亚剧院", "email": "office@pozoristeterazije.com", "phone": "+381 3302 621; +381 113302 650", "website": "www.pozoristeterazije.com", "addr:street": "Трг Николе Пашића", "addr:housenumber": "1/3", "ref:RS:uk": 21031 }, "geometry": { "type": "Point", "coordinates": [ 20.46172, 44.81266 ] } },
{ "type": "Feature", "properties": { "amenity": "theatre", "name": "Позориште ПАН Театар", "name:sr": "Позориште ПАН Театар", "name:sr-Latn": "Pozorište PAN Teatar", "name:en": "Pan theater", "name:ru": "Театр ПАН театр", "name:zh": "PAN剧场", "email": "panteatar@yahoo.com", "phone": "+381 2418 524; +381 060 3050 171", "website": "www.panteatar.rs", "addr:street": "Булевар краља Александра", "addr:housenumber": "298", "ref:RS:uk": 22773 }, "geometry": { "type": "Point", "coordinates": [ 20.49793, 44.79563 ] } },
{ "type": "Feature", "properties": { "amenity": "theatre", "name": "Позориште Славија Београд", "name:sr": "Позориште Славија Београд", "name:sr-Latn": "Pozorište Slavija Beograd", "name:en": "Theatre Slavija", "name:ru": "Театр Славия Белград", "name:zh": "贝尔格莱德斯拉维亚剧场", "email": "p.slavija@gmail.com", "phone": "+381 2436 995; +381 112437 395", "website": "www.pozoriste-slavija.co.rs", "addr:street": "Светог Саве", "addr:housenumber": "16-18", "ref:RS:uk": 21048 }, "geometry": { "type": "Point", "coordinates": [ 20.46736, 44.80092 ] } },
{ "type": "Feature", "properties": { "amenity": "theatre", "name": "Регионално позориште Нови Пазар", "name:sr": "Регионално позориште Нови Пазар", "name:sr-Latn": "Regionalno pozorište Novi Pazar", "name:en": "Novi Pazar Regional Theatre", "name:ru": "Региональный театр Нови-Пазар", "name:zh": "新帕扎尔地区剧院", "email": "regionalnopozoristenp@gmail.com", "phone": "+381 322 819; +381 064 8907 278", "website": null, "addr:street": "Стевана Немање", "addr:housenumber": "2", "ref:RS:uk": 21078 }, "geometry": { "type": "Point", "coordinates": [ 20.51836, 43.14053 ] } },
{ "type": "Feature", "properties": { "amenity": "theatre", "name": "Русинско народно позориште „Петро Ризнич Ђађа” Руски Крстур", "name:sr": "Русинско народно позориште „Петро Ризнич Ђађа” Руски Крстур", "name:sr-Latn": "Rusinsko narodno pozorište „Petro Riznič Đađa” Ruski Krstur", "name:en": "Ruthenian Folk Theatre \"Djadja\" Ruski Krstur", "name:ru": "Русинский народный театр „Петро Ризнич Джаджа” Руски-Крстур", "name:zh": "罗斯科尔斯图尔“彼得罗·利兹尼奇·佳佳”卢森尼亚国家剧院", "email": "rnt.djadja@gmail.com", "phone": "+381 704 605", "website": null, "addr:street": "Русинска", "addr:housenumber": "75", "ref:RS:uk": 22453 }, "geometry": { "type": "Point", "coordinates": [ 19.41667, 45.56245 ] } },
{ "type": "Feature", "properties": { "amenity": "theatre", "name": "Словачко војвођанско позориште - Slovenské vojvodinské divadlo", "name:sr": "Словачко војвођанско позориште - Slovenské vojvodinské divadlo", "name:sr-Latn": "Slovačko vojvođansko pozorište - Slovenské vojvodinské divadlo", "name:en": "Slovakian Vojvodina Theatre - Slovenské vojvodinské divadlo", "name:ru": "Словацко-воеводинский театр - Slovenské vojvodinské divadlo", "name:zh": "斯洛伐克业余剧院", "email": "svdivadlo@stcable.net", "phone": "+381 780 040; +381 21780 168", "website": null, "addr:street": "Коларова", "addr:housenumber": "4", "ref:RS:uk": 21085 }, "geometry": { "type": "Point", "coordinates": [ 19.59089, 45.36022 ] } },
{ "type": "Feature", "properties": { "amenity": "theatre", "name": "Српско народно позориште Нови Сад", "name:sr": "Српско народно позориште Нови Сад", "name:sr-Latn": "Srpsko narodno pozorište Novi Sad", "name:en": "Serbian National Theatre Novi Sad", "name:ru": "Сербский народный театр Нови-Сад", "name:zh": "诺维萨德塞尔维亚国家剧院", "email": "marketing@snp.org.rs", "phone": "+381 528 894; +381 21426 407; +381 21427 975; +381 21451 452; +381 21420 736", "website": "www.snp.org.rs", "addr:street": "Позоришни трг", "addr:housenumber": "1", "ref:RS:uk": 21027 }, "geometry": { "type": "Point", "coordinates": [ 19.84295, 45.2551 ] } },
{ "type": "Feature", "properties": { "amenity": "theatre", "name": "Студио „Позориште Дечја земља”", "name:sr": "Студио „Позориште Дечја земља”", "name:sr-Latn": "Studio „Pozorište Dečja zemlja”", "name:en": "The Children's Land Theater", "name:ru": "Студия „Театр Детская страна”", "name:zh": "“儿童乐园剧院”工作室", "email": "pozoriste@decja-zemlja.com", "phone": null, "website": "www.decja-zemlja.com", "addr:street": "Милоша Великог", "addr:housenumber": "14", "ref:RS:uk": 22790 }, "geometry": { "type": "Point", "coordinates": [ 20.93083, 44.66432 ] } },
{ "type": "Feature", "properties": { "amenity": "theatre", "name": "Театар „Дес”", "name:sr": "Театар „Дес”", "name:sr-Latn": "Teatar „Des”", "name:en": "Des Theatre", "name:ru": "Театр „Дес”", "name:zh": "DES剧院", "email": "info@spanac.rs", "phone": "+381 2673 649", "website": "www.spanac.rs/pozoriste.html", "addr:street": "Тошин бунар", "addr:housenumber": "153", "ref:RS:uk": 22780 }, "geometry": { "type": "Point", "coordinates": [ 20.3986, 44.824 ] } },
{ "type": "Feature", "properties": { "amenity": "theatre", "name": "Театар „Мимарт” Београд", "name:sr": "Театар „Мимарт” Београд", "name:sr-Latn": "Teatar „Mimart” Beograd", "name:en": "Theatre Mimart Beograd", "name:ru": "Театр Мимарт Белград", "name:zh": "贝尔格莱德“米马尔特剧院”", "email": "mimart_na@hotmail.com", "phone": "+381 3176 188; +381 063 8075 810", "website": "www.teatarmimart.org.rs", "addr:street": "Гандијева", "addr:housenumber": "11", "ref:RS:uk": 21042 }, "geometry": { "type": "Point", "coordinates": [ 20.38418, 44.80917 ] } },
{ "type": "Feature", "properties": { "amenity": "theatre", "name": "Театар „Око”", "name:sr": "Театар „Око”", "name:sr-Latn": "Teatar „Oko”", "name:en": "Theater EYE", "name:ru": "Театр „Око”", "name:zh": "眼睛剧院", "email": "teataroko@sbb.rs", "phone": "+381  ; +381 064 5549 526", "website": "www.okoorg.rs", "addr:street": "Хусинских рудара", "addr:housenumber": "6/18", "ref:RS:uk": 22801 }, "geometry": { "type": "Point", "coordinates": [ 20.51837, 44.81437 ] } },
{ "type": "Feature", "properties": { "amenity": "theatre", "name": "Театар „Сунце” Краљево", "name:sr": "Театар „Сунце” Краљево", "name:sr-Latn": "Teatar „Sunce” Kraljevo", "name:en": "Teatre `Sun` Kraljevo", "name:ru": "Театр „Солнце” Кралево", "name:zh": "克拉列沃太阳剧院", "email": "boratosic@gmail.com", "phone": "+381 313 203; +381 064 4526 773", "website": null, "addr:street": "Топлице Милана", "addr:housenumber": "11", "ref:RS:uk": 20778 }, "geometry": { "type": "Point", "coordinates": [ 20.68641, 43.72241 ] } },
{ "type": "Feature", "properties": { "amenity": "theatre", "name": "Театар Лево", "name:sr": "Театар Лево", "name:sr-Latn": "Teatar Levo", "name:en": "Teatar Levo", "name:ru": "Театр Лево", "name:zh": "左侧剧院", "email": "sekretarijat1-lola@sbb.rs", "phone": "+381 3233 002; +381  ", "website": "www.teatarlevo.com", "addr:street": "Ресавска", "addr:housenumber": "11", "ref:RS:uk": 22782 }, "geometry": { "type": "Point", "coordinates": [ 20.46702, 44.8087 ] } },
{ "type": "Feature", "properties": { "amenity": "theatre", "name": "Трстеничко позориште", "name:sr": "Трстеничко позориште", "name:sr-Latn": "Trsteničko pozorište", "name:en": "Trstenik Theatre", "name:ru": "Трстеникский театр", "name:zh": "特尔斯特尼克剧院", "email": "narodnits@sbb.rs", "phone": "+381 712 070; +381 069 607 530", "website": "www.narodnits.rs", "addr:street": "Кнегиње Милице", "addr:housenumber": "16", "ref:RS:uk": 22441 }, "geometry": { "type": "Point", "coordinates": [ 20.99936, 43.61979 ] } },
{ "type": "Feature", "properties": { "amenity": "theatre", "name": "Установа Културни центар - аматерско позориште", "name:sr": "Установа Културни центар - аматерско позориште", "name:sr-Latn": "Ustanova Kulturni centar - amatersko pozorište", "name:en": "Cultural Center - Amateur Theatre", "name:ru": "Учреждение Культурный центр - Любительский театр", "name:zh": "文化中心机构业余剧场", "email": "kcpozoristepalanka@hotmail.com", "phone": "+381 317 749; +381 069 8701 880", "website": "www.kcpalanka.rs/pozoriste/pozoriste.html", "addr:street": "Трг хероја", "addr:housenumber": "1", "ref:RS:uk": 20381 }, "geometry": { "type": "Point", "coordinates": [ 20.95628, 44.36576 ] } },
{ "type": "Feature", "properties": { "amenity": "theatre", "name": "Установа Народно позориште Тимочке Крајине – Центар за културу „Зоран Радмиловић“ у Зајечару", "name:sr": "Установа Народно позориште Тимочке Крајине – Центар за културу „Зоран Радмиловић“ у Зајечару", "name:sr-Latn": "Ustanova Narodno pozorište Timočke Krajine – Centar za kulturu „Zoran Radmilović“ u Zaječaru", "name:en": "Timok Region Theatre \"Zoran Radmilovic\" Zajecar", "name:ru": "Театр Тимокского края „Зоран Радмилович” Заечар", "name:zh": "扎耶查尔“佐兰·拉德米洛维奇”提莫奇卡克拉伊纳剧院", "email": "info@zoranradmilovic.rs", "phone": "+381 421 733; +381 062 8838 494", "website": "www.zoranradmilovic.org.rs", "addr:street": "Тимочке буне", "addr:housenumber": "16", "ref:RS:uk": 21077 }, "geometry": { "type": "Point", "coordinates": [ 22.27495, 43.90113 ] } },
{ "type": "Feature", "properties": { "amenity": "theatre", "name": "Шабачко позориште, Шабац", "name:sr": "Шабачко позориште, Шабац", "name:sr-Latn": "Šabačko pozorište, Šabac", "name:en": "Sabac Theatre,  Sabac", "name:ru": "Шабацкий театр, Шабац", "name:zh": "沙巴茨剧院", "email": "pozoristesabacko@gmail.com", "phone": "+381 353 959; +381 062 8802 248", "website": "www.sabackopozoriste.rs", "addr:street": "Карађорђева", "addr:housenumber": "22", "ref:RS:uk": 21050 }, "geometry": { "type": "Point", "coordinates": [ 19.69586, 44.7556 ] } }
]
}
