{
"type": "FeatureCollection",
"name": "zavodi za zastitu spomenika",
"crs": { "type": "name", "properties": { "name": "urn:ogc:def:crs:OGC:1.3:CRS84" } },
"features": [
{ "type": "Feature", "properties": { "office": "government", "name": "Завод за заштиту природе Србије", "name:sr": "Завод за заштиту природе Србије", "name:sr-Latn": "Zavod za zaštitu prirode Srbije", "name:en": "Institute for Protection of Nature of Serbia", "name:ru": "Институт охраны природы Сербии", "name:zh": "塞尔维亚自然保护机构", "email": "maja.radosavljevic@zzps.rs", "phone": "+381 2093 800; +381 112093 801; +381 112093 802; +381 066  381 480", "website": "https://www.zzps.rs", "addr:street": "Др Ивана Рибара", "addr:housenumber": "91", "ref:RS:uk": 22045 }, "geometry": { "type": "Point", "coordinates": [ 20.37151, 44.80144 ] } },
{ "type": "Feature", "properties": { "office": "government", "name": "Завод за заштиту споменика културе Ваљево", "name:sr": "Завод за заштиту споменика културе Ваљево", "name:sr-Latn": "Zavod za zaštitu spomenika kulture Valjevo", "name:en": "Institute for Protection of Cultural Monuments Valjevo", "name:ru": "Институт охраны памятников культуры  Валево", "name:zh": "瓦列沃文化雕像保护机构", "email": "office@vaza.co.rs", "phone": "+381 222 689; +381 14291 656; +381 14291 655", "website": "https://www.vaza.co.rs", "addr:street": "Милована Глишића", "addr:housenumber": "2", "ref:RS:uk": 22043 }, "geometry": { "type": "Point", "coordinates": [ 19.88142, 44.2675 ] } },
{ "type": "Feature", "properties": { "office": "government", "name": "Завод за заштиту споменика културе града Београда", "name:sr": "Завод за заштиту споменика културе града Београда", "name:sr-Latn": "Zavod za zaštitu spomenika kulture grada Beograda", "name:en": "City of Belgrade's Institure for Protection of Cultural Monuments", "name:ru": "Институт охраны памятников культуры города Белграда", "name:zh": "贝尔格莱德城市文化雕像保护机构", "email": "office@belgradeheritage.com", "phone": "+381 3287 420, 3287 557", "website": "https://www.beogradskonasledje.rs", "addr:street": "Калемегдан", "addr:housenumber": "14", "ref:RS:uk": 22044 }, "geometry": { "type": "Point", "coordinates": [ 20.44872, 44.82266 ] } },
{ "type": "Feature", "properties": { "office": "government", "name": "Завод за заштиту споменика културе Града Новог Сада", "name:sr": "Завод за заштиту споменика културе Града Новог Сада", "name:sr-Latn": "Zavod za zaštitu spomenika kulture Grada Novog Sada", "name:en": "Zavod za zaštitu spomenika kulture Grada Novog Sada", "name:ru": "Институт охраны памятников культуры города Нови-Сада", "name:zh": "诺维萨德文城市文化雕像保护机构", "email": "zzskgns@sbb.rs", "phone": "+381 557 060; +381 21557 061", "website": "https://www.zzskgns.rs", "addr:street": "Михајла Пупина", "addr:housenumber": "22/1", "ref:RS:uk": 22047 }, "geometry": { "type": "Point", "coordinates": [ 19.85156, 45.25382 ] } },
{ "type": "Feature", "properties": { "office": "government", "name": "Завод за заштиту споменика културе Зрењанин", "name:sr": "Завод за заштиту споменика културе Зрењанин", "name:sr-Latn": "Zavod za zaštitu spomenika kulture Zrenjanin", "name:en": "Institute for Procetion of Cultual Heritage", "name:ru": "Институт охраны памятников культуры  Зренянин", "name:zh": "兹雷尼亚宁文化雕像保护机构", "phone": "+381 564 366", "website": "https://www.zrenjaninheritage.com", "addr:street": "Пупинова", "addr:housenumber": "14", "ref:RS:uk": 22039 }, "geometry": { "type": "Point", "coordinates": [ 20.39609, 45.37974 ] } },
{ "type": "Feature", "properties": { "office": "government", "name": "Завод за заштиту споменика културе Краљево", "name:sr": "Завод за заштиту споменика културе Краљево", "name:sr-Latn": "Zavod za zaštitu spomenika kulture Kraljevo", "name:en": "Institute for Protection of Cultural Monuments Kraljevo", "name:ru": "Институт охраны памятников культуры  Кралево", "name:zh": "克拉列沃文化雕像保护机构", "email": "zzzskv@gmail.com", "phone": "+381 231 866", "website": "https://www.zzskv.rs", "addr:street": "Цара Лазара", "addr:housenumber": "24", "ref:RS:uk": 22035 }, "geometry": { "type": "Point", "coordinates": [ 20.68641, 43.72491 ] } },
{ "type": "Feature", "properties": { "office": "government", "name": "Завод за заштиту споменика културе Ниш", "name:sr": "Завод за заштиту споменика културе Ниш", "name:sr-Latn": "Zavod za zaštitu spomenika kulture Niš", "name:en": "Institute for Protection of Cultural Monuments Niš", "name:ru": "Институт охраны памятников культуры  Ниш", "name:zh": "尼什文化雕像保护机构", "email": "zzsknis@mts.rs", "phone": "+381 523 412", "website": "https://www.zzsknis.rs", "addr:street": "Добричка", "addr:housenumber": "2", "ref:RS:uk": 22046 }, "geometry": { "type": "Point", "coordinates": [ 21.89306, 43.32345 ] } },
{ "type": "Feature", "properties": { "office": "government", "name": "Завод за заштиту споменика културе Панчево", "name:sr": "Завод за заштиту споменика културе Панчево", "name:sr-Latn": "Zavod za zaštitu spomenika kulture Pančevo", "name:en": "Institute for Protection of Cultural Monuments Pančevo", "name:ru": "Институт охраны памятников культуры  Панчево", "name:zh": "潘切沃文化雕像保护机构", "email": "zavod@panet.rs", "phone": "+381 351 472; +381 13348 487", "website": "https://www.zzskpancevo.org", "addr:street": "Жарка Зрењанина", "addr:housenumber": "17/1", "ref:RS:uk": 22034 }, "geometry": { "type": "Point", "coordinates": [ 20.64271, 44.86776 ] } },
{ "type": "Feature", "properties": { "office": "government", "name": "Завод за заштиту споменика културе Сремска Митровица", "name:sr": "Завод за заштиту споменика културе Сремска Митровица", "name:sr-Latn": "Zavod za zaštitu spomenika kulture Sremska Mitrovica", "name:en": "Institute for Protection of Cultural Monuments Sremska Mitrovica", "name:ru": "Институт охраны памятников культуры  Сремска-Митровица", "name:zh": "斯雷姆斯卡米特洛维察文化雕像保护机构", "email": "sm.zzsksm@neobee.net", "phone": "+381 621 568; +381 22612 708", "website": "https://www.zavodsm.rs", "addr:street": "Светог Димитрија", "addr:housenumber": "10", "ref:RS:uk": 22036 }, "geometry": { "type": "Point", "coordinates": [ 19.61047, 44.96918 ] } },
{ "type": "Feature", "properties": { "office": "government", "name": "Међуопштински завод за заштиту споменика културе Суботица", "name:sr": "Међуопштински завод за заштиту споменика културе Суботица", "name:sr-Latn": "Međuopštinski zavod za zaštitu spomenika kulture Subotica", "name:en": "Regional Institute for Protection of Cultural Monuments Subotica", "name:ru": "Межмуниципальный институт охраны памятников культуры  Суботица", "name:zh": "苏博蒂察文化雕像城际保护机构", "email": "office@heritage-su.org.rs", "phone": "+381 556 901, 557 606", "website": "https://www.heritage-su.org.rs", "addr:street": "Трг слободе", "addr:housenumber": "1/3", "ref:RS:uk": 22037 }, "geometry": { "type": "Point", "coordinates": [ 19.66454, 46.09949 ] } },
{ "type": "Feature", "properties": { "office": "government", "name": "Покрајински завод за заштиту споменика културе Нови Сад", "name:sr": "Покрајински завод за заштиту споменика културе Нови Сад", "name:sr-Latn": "Pokrajinski zavod za zaštitu spomenika kulture Novi Sad", "name:en": "Provincial Institute for Protection of Cultural Monuments Novi Sad", "name:ru": "Областной институт охраны памятников культуры Нови-Сад", "name:zh": "诺维萨德文化雕像自治省保护机构", "phone": "+381 431 211,  6432 576", "website": "https://www.pzzzsk.rs", "addr:street": "Штросмајерова", "addr:housenumber": "22", "ref:RS:uk": 22042 }, "geometry": { "type": "Point", "coordinates": [ 19.86313, 45.2536 ] } },
{ "type": "Feature", "properties": { "office": "government", "name": "Регионални завод за заштиту споменика културе Смедерево", "name:sr": "Регионални завод за заштиту споменика културе Смедерево", "name:sr-Latn": "Regionalni zavod za zaštitu spomenika kulture Smederevo", "name:en": "Regional Institute for Protection of Cultural Monuments Smederevo", "name:ru": "Региональный институт охраны памятников культуры  Смедерево", "name:zh": "斯梅代雷沃文化保护地区保护机构", "email": "office@spomenicikulture.org.rs", "phone": "+381 222 309", "website": "https://www.spomenicikulture.org.rs", "addr:street": "Деспота Ђурђа", "addr:housenumber": "37", "ref:RS:uk": 22040 }, "geometry": { "type": "Point", "coordinates": [ 20.91955, 44.66549 ] } },
{ "type": "Feature", "properties": { "office": "government", "name": "Републички завод за заштиту споменика културе Београд", "name:sr": "Републички завод за заштиту споменика културе Београд", "name:sr-Latn": "Republički zavod za zaštitu spomenika kulture Beograd", "name:en": "Institute for Protection of Cultural Monuments of Serbia", "name:ru": "Республиканский институт охраны памятников культуры  Белград", "name:zh": "贝尔格莱德文化雕塑共和国保护机构", "phone": "+381 2451 642", "website": "https://www.heritage.gov.rs", "addr:street": "Радослава Грујића", "addr:housenumber": "11", "ref:RS:uk": 22038 }, "geometry": { "type": "Point", "coordinates": [ 20.47945, 44.79902 ] } }
]
}
