{
"type": "FeatureCollection",
"name": "zavodi za kulturu",
"crs": { "type": "name", "properties": { "name": "urn:ogc:def:crs:OGC:1.3:CRS84" } },
"features": [
{ "type": "Feature", "properties": { "office": "government", "government": "culture", "name": "Zavod za kulturu vojvođanskih Hrvata", "name:sr": "Zavod za kulturu vojvođanskih Hrvata", "name:sr-Latn": "Zavod za kulturu vojvođanskih Hrvata", "email": "ured@zkvh.org.rs", "phone": "+381 024 535 533; +381 064 6590 751", "website": "www.zkvh.org.rs", "addr:street": "Laze Mamužića", "addr:housenumber": "20A", "ref:RS:uk": 25372 }, "geometry": null },
{ "type": "Feature", "properties": { "office": "government", "government": "culture", "name": "Завод за културу Војводине Нови Сад", "name:sr": "Завод за културу Војводине Нови Сад", "name:sr-Latn": "Zavod za kulturu Vojvodine Novi Sad", "name:ru": "Институт культуры Воеводины Нови-Сад", "name:zh": "诺维萨德伏伊伏丁那文化机构", "email": "zkvojvodina@nscable.net", "phone": "+381 4754 148; +381 214754 128", "website": "www.zkv.rs", "addr:street": "Војводе Путника", "addr:housenumber": "2", "ref:RS:uk": 21198 }, "geometry": { "type": "Point", "coordinates": [ 19.85317, 45.25532 ] } },
{ "type": "Feature", "properties": { "office": "government", "government": "culture", "name": "Завод за културу војвођанских Словака", "name:sr": "Завод за културу војвођанских Словака", "name:sr-Latn": "Zavod za kulturu vojvođanskih Slovaka", "name:ru": "Институт культуры воеводинских словаков", "name:zh": "伏伊伏丁那斯洛伐克文化机构", "email": "office@slovackizavod.org.rs", "phone": "+381 545 570", "website": "www.slovackizavod.org.rs", "addr:street": "Његошева", "addr:housenumber": "16/II/7", "ref:RS:uk": 23695 }, "geometry": { "type": "Point", "coordinates": [ 19.84358, 45.25679 ] } },
{ "type": "Feature", "properties": { "office": "government", "government": "culture", "name": "Завод за проучавање културног развитка", "name:sr": "Завод за проучавање културног развитка", "name:sr-Latn": "Zavod za proučavanje kulturnog razvitka", "name:en": "Center for Study in Cultural Development", "name:ru": "Институт по изучению культурного развития", "name:zh": "文化发展研究机构", "email": "info@zaprokul.org.rs", "phone": "+381 2637 565; +381 112180 432", "website": "www.zaprokul.org.rs", "addr:street": "Риге од Фере", "addr:housenumber": "4", "ref:RS:uk": 21197 }, "geometry": { "type": "Point", "coordinates": [ 20.45628, 44.82292 ] } }
]
}
