{"type": "FeatureCollection", "features": [{"type": "Feature", "geometry": {"type": "Point", "coordinates": [22.53145, 44.22477]}, "properties": {"name": "\u041c\u0443\u0437\u0435\u0458 \u041a\u0440\u0430\u0458\u0438\u043d\u0435 \u041d\u0435\u0433\u043e\u0442\u0438\u043d", "name:sr": "\u041c\u0443\u0437\u0435\u0458 \u041a\u0440\u0430\u0458\u0438\u043d\u0435 \u041d\u0435\u0433\u043e\u0442\u0438\u043d", "name:sr-Latn": "Muzej Krajine Negotin", "name:en": "The Krajina Museum", "name:ru": "\u041c\u0443\u0437\u0435\u0439 \u041a\u0440\u0430\u044f \u041d\u0435\u0433\u043e\u0442\u0438\u043d", "name:zh": "\u517d\u533b\u5b66\u9662\u89e3\u5256\u5b66\u6559\u7814\u5ba4\u535a\u7269\u9986", "email": "muzejnegotin@gmail.com", "phone": "+381 545 072; +381 065 5681 688", "website": "www.muzejkrajine.org.rs", "addr:street": "\u0412\u0435\u0440\u0435 \u0420\u0430\u0434\u043e\u0441\u0430\u0432\u0459\u0435\u0432\u0438\u045b", "addr:housenumber": "1", "ref:RS:uk": 21946}}, {"type": "Feature", "geometry": {"type": "Point", "coordinates": [19.8446, null]}, "properties": {"name": "\u0413\u0440\u0430\u0434\u0441\u043a\u0430 \u0433\u0430\u043b\u0435\u0440\u0438\u0458\u0430 \u0423\u0436\u0438\u0446\u0435", "name:sr": "\u0413\u0440\u0430\u0434\u0441\u043a\u0430 \u0433\u0430\u043b\u0435\u0440\u0438\u0458\u0430 \u0423\u0436\u0438\u0446\u0435", "name:sr-Latn": "Gradska galerija U\u017eice", "email": "galerijauzice@gmail.com", "phone": "+381 512 505; +381 31523 299; +381 064 1283 282", "website": "www.galerijauzice.org", "addr:street": "\u0421\u043b\u0430\u043d\u0443\u0448\u043a\u0430", "addr:housenumber": "10", "ref:RS:uk": 25215}}, {"type": "Feature", "geometry": {"type": "Point", "coordinates": [21.03206, null]}, "properties": {"name": "\u0417\u0430\u0432\u0438\u0447\u0430\u0458\u043d\u0438 \u0435\u0442\u043d\u043e\u0433\u0440\u0430\u0444\u0441\u043a\u0438 \u043c\u0443\u0437\u0435\u0458", "name:sr": "\u0417\u0430\u0432\u0438\u0447\u0430\u0458\u043d\u0438 \u0435\u0442\u043d\u043e\u0433\u0440\u0430\u0444\u0441\u043a\u0438 \u043c\u0443\u0437\u0435\u0458", "name:sr-Latn": "Zavi\u010dajni etnografski muzej", "name:en": "Town Entographic Museum", "name:ru": "\u041a\u0440\u0430\u0435\u0432\u0435\u0434\u0447\u0435\u0441\u043a\u0438\u0439 \u044d\u0442\u043d\u043e\u0433\u0440\u0430\u0444\u0438\u0447\u0435\u0441\u043a\u0438\u0439 \u043c\u0443\u0437\u0435\u0439", "name:zh": "\u91cd\u8981\u6c11\u65cf\u535a\u7269\u9986", "email": "centarzakulturu2013@gmail.com", "phone": "+381 825 254; +381 061 6129 175", "addr:street": "\u0411\u0440\u0430\u0442\u0438\u0441\u043b\u0430\u0432\u0435 \u041f\u0435\u0442\u0440\u043e\u0432\u0438\u045b", "addr:housenumber": "15\u0410", "ref:RS:uk": 22499}}, {"type": "Feature", "geometry": {"type": "Point", "coordinates": [20.6231, 44.76188]}, "properties": {"name": "\u0410\u0440\u0445\u0435\u043e\u043b\u043e\u0448\u043a\u0438 \u043b\u043e\u043a\u0430\u043b\u0438\u0442\u0435\u0442 \u0412\u0438\u043d\u0447\u0430", "name:sr": "\u0410\u0440\u0445\u0435\u043e\u043b\u043e\u0448\u043a\u0438 \u043b\u043e\u043a\u0430\u043b\u0438\u0442\u0435\u0442 \u0412\u0438\u043d\u0447\u0430", "name:sr-Latn": "Arheolo\u0161ki lokalitet Vin\u010da", "name:en": "Archaeological Site Vin\u010da", "name:ru": "\u0410\u0440\u0445\u0435\u043e\u043b\u043e\u0433\u0438\u0447\u0435\u0441\u043a\u0438\u0439 \u043a\u043e\u043c\u043f\u043b\u0435\u043a\u0441 \u0412\u0438\u043d\u0447\u0430", "name:zh": "\u6587\u67e5\u8003\u53e4\u9057\u5740", "email": "office@mgb.org.rs", "phone": "+381 806 6340", "website": "www.mgb.org.rs/zbirke/arheologija/arheolosko-nalaziste-u-vinci", "addr:street": "\u0411\u0435\u043b\u043e \u0411\u0440\u0434\u043e", "addr:housenumber": "17", "ref:RS:uk": 22470}}, {"type": "Feature", "geometry": {"type": "Point", "coordinates": [22.60936, 44.61127]}, "properties": {"name": "\u0410\u0440\u0445\u0435\u043e\u043b\u043e\u0448\u043a\u0438 \u043c\u0443\u0437\u0435\u0458 \u0402\u0435\u0440\u0434\u0430\u043f\u0430 \u0443 \u041a\u043b\u0430\u0434\u043e\u0432\u0443", "name:sr": "\u0410\u0440\u0445\u0435\u043e\u043b\u043e\u0448\u043a\u0438 \u043c\u0443\u0437\u0435\u0458 \u0402\u0435\u0440\u0434\u0430\u043f\u0430 \u0443 \u041a\u043b\u0430\u0434\u043e\u0432\u0443", "name:sr-Latn": "Arheolo\u0161ki muzej \u0110erdapa u Kladovu", "name:en": "Archaeological museum of Djerdap", "name:ru": "\u0410\u0440\u0445\u0435\u043e\u043b\u043e\u0433\u0438\u0447\u0435\u0441\u043a\u0438\u0439 \u043c\u0443\u0437\u0435\u0439 \u0414\u0436\u0435\u0440\u0434\u0430\u043f\u0430 \u0432 \u041a\u043b\u0430\u0434\u043e\u0432\u043e", "name:zh": "\u514b\u62c9\u591a\u6c83\u6770\u5c14\u8fbe\u666e\u8003\u53e4\u535a\u7269\u9986", "email": "opdir@narodnimuzej.rs", "phone": "+381 803 900; +381 19802 334; +381 19802 335; +381 060 8075 003", "website": "www.narodnimuzej.rs/posetite-nas/#arheoloski-muzej-djerdapa", "addr:street": "\u041a\u0440\u0430\u0459\u0430 \u0410\u043b\u0435\u043a\u0441\u0430\u043d\u0434\u0440\u0430 2\u0430", "addr:housenumber": "2a", "ref:RS:uk": 22467}}, {"type": "Feature", "geometry": {"type": "Point", "coordinates": [20.45012, 44.82184]}, "properties": {"name": "\u0412\u043e\u0458\u043d\u0438 \u043c\u0443\u0437\u0435\u0458 \u0411\u0435\u043e\u0433\u0440\u0430\u0434", "name:sr": "\u0412\u043e\u0458\u043d\u0438 \u043c\u0443\u0437\u0435\u0458 \u0411\u0435\u043e\u0433\u0440\u0430\u0434", "name:sr-Latn": "Vojni muzej Beograd", "name:en": "Military museum", "name:ru": "\u0412\u043e\u0435\u043d\u043d\u044b\u0439 \u043c\u0443\u0437\u0435\u0439 \u0411\u0435\u043b\u0433\u0440\u0430\u0434", "name:zh": "\u8d1d\u5c14\u683c\u83b1\u5fb7\u519b\u4e8b\u535a\u7269\u9986", "email": "vojnimuzej@mod.gov.rs", "phone": "+381 3343 441; +381 113344 408; +381 064 8329 385", "website": "www.muzej.mod.gov.rs", "addr:street": "\u041a\u0430\u043b\u0435\u043c\u0435\u0433\u0434\u0430\u043d", "addr:housenumber": "\u0431\u0431", "ref:RS:uk": 22024}}, {"type": "Feature", "geometry": {"type": "Point", "coordinates": [19.60737, 44.96809]}, "properties": {"name": "\u0413\u0430\u043b\u0435\u0440\u0438\u0458\u0430 \u201e\u041b\u0430\u0437\u0430\u0440 \u0412\u043e\u0437\u0430\u0440\u0435\u0432\u0438\u045b\u201d \u0421\u0440\u0435\u043c\u0441\u043a\u0430 \u041c\u0438\u0442\u0440\u043e\u0432\u0438\u0446\u0430", "name:sr": "\u0413\u0430\u043b\u0435\u0440\u0438\u0458\u0430 \u201e\u041b\u0430\u0437\u0430\u0440 \u0412\u043e\u0437\u0430\u0440\u0435\u0432\u0438\u045b\u201d \u0421\u0440\u0435\u043c\u0441\u043a\u0430 \u041c\u0438\u0442\u0440\u043e\u0432\u0438\u0446\u0430", "name:sr-Latn": "Galerija \u201eLazar Vozarevi\u0107\u201d Sremska Mitrovica", "name:en": "The Art Gallery Lazar Vozarevic", "name:ru": "The Art Gallery Lazar Vozarevic", "name:zh": "\u65af\u96f7\u59c6\u65af\u5361\u7c73\u7279\u6d1b\u7ef4\u5bdf\u201c\u62c9\u624e\u5c14\u00b7\u6c83\u624e\u83b1\u7ef4\u5947\u201d\u5c55\u89c8\u9986", "email": "galerijalazarvozarevic@gmail.com", "phone": "+381 621 492", "website": "www.lazarvozarevic.com", "addr:street": "\u0413\u0440\u0430\u0434\u0441\u043a\u0438 \u043f\u0430\u0440\u043a", "addr:housenumber": "4", "ref:RS:uk": 21929}}, {"type": "Feature", "geometry": {"type": "Point", "coordinates": [19.84527, 45.25213]}, "properties": {"name": "\u0413\u0430\u043b\u0435\u0440\u0438\u0458\u0430 \u043b\u0438\u043a\u043e\u0432\u043d\u0435 \u0443\u043c\u0435\u0442\u043d\u043e\u0441\u0442\u0438 \u043f\u043e\u043a\u043b\u043e\u043d \u0437\u0431\u0438\u0440\u043a\u0430 \u0420\u0430\u0458\u043a\u0430 \u041c\u0430\u043c\u0443\u0437\u0438\u045b\u0430", "name:sr": "\u0413\u0430\u043b\u0435\u0440\u0438\u0458\u0430 \u043b\u0438\u043a\u043e\u0432\u043d\u0435 \u0443\u043c\u0435\u0442\u043d\u043e\u0441\u0442\u0438 \u043f\u043e\u043a\u043b\u043e\u043d \u0437\u0431\u0438\u0440\u043a\u0430 \u0420\u0430\u0458\u043a\u0430 \u041c\u0430\u043c\u0443\u0437\u0438\u045b\u0430", "name:sr-Latn": "Galerija likovne umetnosti poklon zbirka Rajka Mamuzi\u0107a", "name:en": "The Gallery of Fine Arts - Gift Collection of Rajko Mamuzic", "name:ru": "\u0413\u0430\u043b\u0435\u0440\u0435\u044f \u0438\u0437\u043e\u0431\u0440\u0430\u0437\u0438\u0442\u0435\u043b\u044c\u043d\u043e\u0433\u043e \u0438\u0441\u043a\u0443\u0441\u0441\u0442\u0432\u0430 \u043f\u043e\u0434\u0430\u0440\u0435\u043d\u043d\u0430\u044f \u043a\u043e\u043b\u043b\u0435\u043a\u0446\u0438\u044f \u0420\u0430\u0439\u043a\u043e \u041c\u0430\u043c\u0443\u0437\u0438\u0447\u0430", "name:zh": "\u83b1\u79d1\u00b7\u739b\u59c6\u5179\u5947\u7ed8\u753b\u827a\u672f\u793c\u54c1\u96c6\u5c55\u89c8\u9986", "email": "poklon.zbirka@rmamuzic.rs", "phone": "+381 520 467", "website": "www.rmamuzic.rs", "addr:street": "\u0412\u0430\u0441\u0435 \u0421\u0442\u0430\u0458\u0438\u045b\u0430", "addr:housenumber": "1", "ref:RS:uk": 21931}}, {"type": "Feature", "geometry": {"type": "Point", "coordinates": [19.84566, 45.25252]}, "properties": {"name": "\u0413\u0430\u043b\u0435\u0440\u0438\u0458\u0430 \u041c\u0430\u0442\u0438\u0446\u0435 \u0441\u0440\u043f\u0441\u043a\u0435", "name:sr": "\u0413\u0430\u043b\u0435\u0440\u0438\u0458\u0430 \u041c\u0430\u0442\u0438\u0446\u0435 \u0441\u0440\u043f\u0441\u043a\u0435", "name:sr-Latn": "Galerija Matice srpske", "name:en": "The Gallery of Matica srpska", "name:ru": "\u0413\u0430\u043b\u0435\u0440\u0435\u044f \u041c\u0430\u0442\u0438\u0446\u044b \u0441\u0435\u0440\u0431\u0441\u043a\u043e\u0439", "name:zh": "\u585e\u5c14\u7ef4\u4e9a\u4e2d\u5fc3\u51fa\u7248\u793e\u5c55\u89c8\u9986", "email": "info@galerijamaticesrpske.rs", "phone": "+381 4899 000; +381 069 1103 051", "website": "www.galerijamaticesrpske.rs", "addr:street": "\u0422\u0440\u0433 \u0433\u0430\u043b\u0435\u0440\u0438\u0458\u0430", "addr:housenumber": "1", "ref:RS:uk": 21932}}, {"type": "Feature", "geometry": {"type": "Point", "coordinates": [19.11364, 45.77208]}, "properties": {"name": "\u0413\u0430\u043b\u0435\u0440\u0438\u0458\u0430 \u041c\u0438\u043b\u0430\u043d \u041a\u043e\u045a\u043e\u0432\u0438\u045b", "name:sr": "\u0413\u0430\u043b\u0435\u0440\u0438\u0458\u0430 \u041c\u0438\u043b\u0430\u043d \u041a\u043e\u045a\u043e\u0432\u0438\u045b", "name:sr-Latn": "Galerija Milan Konjovi\u0107", "name:en": "Milan Konjovi\u0107 Gallery", "name:ru": "\u0413\u0430\u043b\u0435\u0440\u0435\u044f \u041c\u0438\u043b\u0430\u043d\u0430 \u041a\u043e\u043d\u0451\u0432\u0438\u0447\u0430", "name:zh": "\u7c73\u5170\u00b7\u79d1\u5c3c\u5965\u7ef4\u5947\u5c55\u89c8\u9986", "email": "info@konjovic.rs", "phone": "+381 412 563; +381 069 4111 059", "website": "www.konjovic.rs", "addr:street": "\u0422\u0440\u0433 \u0421\u0432\u0435\u0442\u043e\u0433 \u0422\u0440\u043e\u0458\u0441\u0442\u0432\u0430", "addr:housenumber": "2", "ref:RS:uk": 21930}}, {"type": "Feature", "geometry": {"type": "Point", "coordinates": [20.51833, 43.14067]}, "properties": {"name": "\u0413\u0430\u043b\u0435\u0440\u0438\u0458\u0430 \u041c\u041c\u0426, \u041a\u0443\u043b\u0442\u0443\u0440\u043d\u0438 \u0446\u0435\u043d\u0442\u0430\u0440 \u041d\u043e\u0432\u0438 \u041f\u0430\u0437\u0430\u0440", "name:sr": "\u0413\u0430\u043b\u0435\u0440\u0438\u0458\u0430 \u041c\u041c\u0426, \u041a\u0443\u043b\u0442\u0443\u0440\u043d\u0438 \u0446\u0435\u043d\u0442\u0430\u0440 \u041d\u043e\u0432\u0438 \u041f\u0430\u0437\u0430\u0440", "name:sr-Latn": "Galerija MMC, Kulturni centar Novi Pazar", "name:en": "MMC Gallery, Cultural Centre Novi Pazar", "name:ru": "\u0413\u0430\u043b\u0435\u0440\u0435\u044f \u041c\u041c\u0426, \u041a\u0443\u043b\u044c\u0442\u0443\u0440\u043d\u044b\u0439 \u0446\u0435\u043d\u0442\u0440 \u041d\u043e\u0432\u0438 \u041f\u0430\u0437\u0430\u0440", "name:zh": "\u65b0\u5e15\u624e\u5c14\u6587\u5316\u4e2d\u5fc3MMC\u5c55\u89c8\u9986", "email": "galerija.mmc.np@gmail.com", "phone": "+381 335 444; +381 36335 440; +381 063 8145 044", "website": "www.kcnovipazar.com", "addr:street": "\u0421\u0442\u0435\u0432\u0430\u043d\u0430 \u041d\u0435\u043c\u0430\u045a\u0435 2", "addr:housenumber": "", "ref:RS:uk": 25264}}, {"type": "Feature", "geometry": {"type": "Point", "coordinates": [20.45576, 44.82018]}, "properties": {"name": "\u0413\u0430\u043b\u0435\u0440\u0438\u0458\u0430 \u041f\u0435\u0442\u0440\u0430 \u0414\u043e\u0431\u0440\u043e\u0432\u0438\u045b\u0430 \u0411\u0435\u043e\u0433\u0440\u0430\u0434", "name:sr": "\u0413\u0430\u043b\u0435\u0440\u0438\u0458\u0430 \u041f\u0435\u0442\u0440\u0430 \u0414\u043e\u0431\u0440\u043e\u0432\u0438\u045b\u0430 \u0411\u0435\u043e\u0433\u0440\u0430\u0434", "name:sr-Latn": "Galerija Petra Dobrovi\u0107a Beograd", "name:en": "Gallery of Petar Dobrovi\u0107", "name:ru": "\u0413\u0430\u043b\u0435\u0440\u0435\u044f \u041f\u0435\u0442\u0440\u0430 \u0414\u043e\u0431\u0440\u043e\u0432\u0438\u0447\u0430 \u0411\u0435\u043b\u0433\u0440\u0430\u0434", "name:zh": "\u8d1d\u5c14\u683c\u83b1\u5fb7\u5f7c\u5f97\u00b7\u591a\u5e03\u6d1b\u7ef4\u5947\u5c55\u89c8\u9986", "email": "nada.timofejev@kucalegata.org", "phone": "+381 2622 163", "addr:street": "\u041a\u0440\u0430\u0459\u0430 \u041f\u0435\u0442\u0440\u0430", "addr:housenumber": "36/IV", "ref:RS:uk": 22475}}, {"type": "Feature", "geometry": {"type": "Point", "coordinates": [19.2282, 45.12719]}, "properties": {"name": "\u0413\u0430\u043b\u0435\u0440\u0438\u0458\u0430 \u0441\u043b\u0438\u043a\u0430 \u201e\u0421\u0430\u0432\u0430 \u0428\u0443\u043c\u0430\u043d\u043e\u0432\u0438\u045b\u201d \u0428\u0438\u0434", "name:sr": "\u0413\u0430\u043b\u0435\u0440\u0438\u0458\u0430 \u0441\u043b\u0438\u043a\u0430 \u201e\u0421\u0430\u0432\u0430 \u0428\u0443\u043c\u0430\u043d\u043e\u0432\u0438\u045b\u201d \u0428\u0438\u0434", "name:sr-Latn": "Galerija slika \u201eSava \u0160umanovi\u0107\u201d \u0160id", "name:en": "Galerija slika \u201eSava \u0160umanovi\u0107\u201d \u0160id", "name:ru": "\u041a\u0430\u0440\u0442\u0438\u043d\u043d\u0430\u044f \u0433\u0430\u043b\u0435\u0440\u0435\u044f \u201e\u0421\u0430\u0432\u0430 \u0428\u0443\u043c\u0430\u043d\u043e\u0432\u0438\u0447\u201d \u0428\u0438\u0434 - \u0423\u0447\u0440\u0435\u0436\u0434\u0435\u043d\u0438\u0435 \u043a\u0443\u043b\u044c\u0442\u0443\u0440\u044b \u043d\u0430\u0446\u0438\u043e\u043d\u0430\u043b\u044c\u043d\u043e\u0433\u043e \u0437\u043d\u0430\u0447\u0435\u043d\u0438\u044f", "name:zh": "\u56fd\u5bb6\u91cd\u8981\u6587\u5316\u673a\u6784\u201c\u8428\u74e6\u00b7\u8212\u739b\u8bfa\u7ef4\u5947\u201d\u56fe\u7247\u5c55\u89c8\u9986", "email": "info@savasumanovic.com", "phone": "+381 716 825; +381 062 755 822", "website": "www.savasumanovic.com", "addr:street": "\u0421\u0432\u0435\u0442\u043e\u0433\u0430 \u0421\u0430\u0432\u0435", "addr:housenumber": "7", "ref:RS:uk": 21933}}, {"type": "Feature", "geometry": {"type": "Point", "coordinates": [19.22176, 44.53091]}, "properties": {"name": "\u0413\u0430\u043b\u0435\u0440\u0438\u0458\u0430 \u0441\u043b\u0438\u043a\u0430 \u041c\u0438\u045b\u0435 \u041f\u043e\u043f\u043e\u0432\u0438\u045b\u0430 \u0438 \u0412\u0435\u0440\u0435 \u0411\u043e\u0436\u0438\u0447\u043a\u043e\u0432\u0438\u045b \u041b\u043e\u0437\u043d\u0438\u0446\u0430", "name:sr": "\u0413\u0430\u043b\u0435\u0440\u0438\u0458\u0430 \u0441\u043b\u0438\u043a\u0430 \u041c\u0438\u045b\u0435 \u041f\u043e\u043f\u043e\u0432\u0438\u045b\u0430 \u0438 \u0412\u0435\u0440\u0435 \u0411\u043e\u0436\u0438\u0447\u043a\u043e\u0432\u0438\u045b \u041b\u043e\u0437\u043d\u0438\u0446\u0430", "name:sr-Latn": "Galerija slika Mi\u0107e Popovi\u0107a i Vere Bo\u017ei\u010dkovi\u0107 Loznica", "name:en": "Cultural Center \"Vuk Karad\u017eic\" Loznica", "name:ru": "\u041a\u0430\u0440\u0442\u0438\u043d\u043d\u0430\u044f \u0433\u0430\u043b\u0435\u0440\u0435\u044f \u041c\u0438\u0447\u0438 \u041f\u043e\u043f\u043e\u0432\u0438\u0447\u0430 \u0438 \u0412\u0435\u0440\u044b \u0411\u043e\u0436\u0438\u0447\u043a\u043e\u0432\u0438\u0447 \u041b\u043e\u0437\u043d\u0438\u0446\u0430", "name:zh": "\u6d1b\u5179\u5c3c\u5bdf\u7c73\u6070\u00b7\u6ce2\u6ce2\u7ef4\u5947\u4e0e\u7ef4\u62c9\u00b7\u6ce2\u65e5\u6c60\u79d1\u7ef4\u5947\u56fe\u7247\u5c55\u89c8\u9986", "email": "centarkultureloznica@gmail.com", "phone": "+381 881 151", "website": "www.ckvkaradzic.org.rs", "addr:street": "\u0408\u043e\u0432\u0430\u043d\u0430 \u0426\u0432\u0438\u0458\u0438\u045b\u0430 15", "addr:housenumber": "", "ref:RS:uk": 25263}}, {"type": "Feature", "geometry": {"type": "Point", "coordinates": [20.45672, 44.81775]}, "properties": {"name": "\u0413\u0430\u043b\u0435\u0440\u0438\u0458\u0430 \u0421\u0440\u043f\u0441\u043a\u0435 \u0430\u043a\u0430\u0434\u0435\u043c\u0438\u0458\u0435 \u043d\u0430\u0443\u043a\u0430 \u0438 \u0443\u043c\u0435\u0442\u043d\u043e\u0441\u0442\u0438, \u0411\u0435\u043e\u0433\u0440\u0430\u0434", "name:sr": "\u0413\u0430\u043b\u0435\u0440\u0438\u0458\u0430 \u0421\u0440\u043f\u0441\u043a\u0435 \u0430\u043a\u0430\u0434\u0435\u043c\u0438\u0458\u0435 \u043d\u0430\u0443\u043a\u0430 \u0438 \u0443\u043c\u0435\u0442\u043d\u043e\u0441\u0442\u0438, \u0411\u0435\u043e\u0433\u0440\u0430\u0434", "name:sr-Latn": "Galerija Srpske akademije nauka i umetnosti, Beograd", "name:en": "Serbian Academy Sciences and Arts", "name:ru": "\u0413\u0430\u043b\u0435\u0440\u0435\u044f \u0421\u0435\u0440\u0431\u0441\u043a\u043e\u0439 \u0430\u043a\u0430\u0434\u0435\u043c\u0438\u0438 \u043d\u0430\u0443\u043a \u0438 \u0438\u0441\u043a\u0443\u0441\u0441\u0442\u0432, \u0411\u0435\u043b\u0433\u0440\u0430\u0434", "name:zh": "\u8d1d\u5c14\u683c\u83b1\u5fb7\u585e\u5c14\u7ef4\u4e9a\u79d1\u5b66\u827a\u672f\u9662\u5c55\u89c8\u9986", "email": "zaklina.markovic@sanu.ac.rs", "phone": "+381 2027 244; +381 065 2245 324", "website": "sanu.ac.rs", "addr:street": "\u041a\u043d\u0435\u0437\u0430 \u041c\u0438\u0445\u0430\u0438\u043b\u0430 35", "addr:housenumber": "", "ref:RS:uk": 25265}}, {"type": "Feature", "geometry": {"type": "Point", "coordinates": [20.45641, 44.82172]}, "properties": {"name": "\u0413\u0430\u043b\u0435\u0440\u0438\u0458\u0430 \u0444\u0440\u0435\u0441\u0430\u043a\u0430", "name:sr": "\u0413\u0430\u043b\u0435\u0440\u0438\u0458\u0430 \u0444\u0440\u0435\u0441\u0430\u043a\u0430", "name:sr-Latn": "Galerija fresaka", "name:en": "Gallery of Frescoes", "name:ru": "\u0413\u0430\u043b\u0435\u0440\u0435\u044f \u0444\u0440\u0435\u0441\u043e\u043a", "name:zh": "\u58c1\u753b\u5c55\u89c8\u9986", "email": "galerijafresaka@narodnimuzej.rs", "phone": "+381 2621 491; +381 112910 411; +381 112910 413; +381 112910 415; +381 112910 423; +381 112910 436", "website": "www.narodnimuzej.rs", "addr:street": "\u0426\u0430\u0440\u0430 \u0423\u0440\u043e\u0448\u0430", "addr:housenumber": "20", "ref:RS:uk": 22472}}, {"type": "Feature", "geometry": {"type": "Point", "coordinates": [20.45362, 44.78019]}, "properties": {"name": "\u0413\u0430\u043b\u0435\u0440\u0438\u0458\u0430-\u043b\u0435\u0433\u0430\u0442 \u041c\u0438\u043b\u0438\u0446\u0435 \u0417\u043e\u0440\u0438\u045b \u0438 \u0420\u043e\u0434\u043e\u0459\u0443\u0431\u0430 \u0427\u043e\u043b\u0430\u043a\u043e\u0432\u0438\u045b\u0430 \u0411\u0435\u043e\u0433\u0440\u0430\u0434", "name:sr": "\u0413\u0430\u043b\u0435\u0440\u0438\u0458\u0430-\u043b\u0435\u0433\u0430\u0442 \u041c\u0438\u043b\u0438\u0446\u0435 \u0417\u043e\u0440\u0438\u045b \u0438 \u0420\u043e\u0434\u043e\u0459\u0443\u0431\u0430 \u0427\u043e\u043b\u0430\u043a\u043e\u0432\u0438\u045b\u0430 \u0411\u0435\u043e\u0433\u0440\u0430\u0434", "name:sr-Latn": "Galerija-legat Milice Zori\u0107 i Rodoljuba \u010colakovi\u0107a Beograd", "name:en": "The Gallery-Legacy of Milica Zori\u0107 and Rodoljub \u010co", "name:ru": "\u0413\u0430\u043b\u0435\u0440\u0435\u044f-\u043b\u0435\u0433\u0430\u0442 \u041c\u0438\u043b\u0438\u0446\u044b \u0417\u043e\u0440\u0438\u0447 \u0438 \u0420\u043e\u0434\u043e\u043b\u044e\u0431\u0430 \u0427\u043e\u043b\u0430\u043a\u043e\u0432\u0438\u0447\u0430 \u0411\u0435\u043b\u0433\u0440\u0430\u0434", "name:zh": "\u8d1d\u5c14\u683c\u83b1\u5fb7\u7c73\u8389\u5bdf\u00b7\u4f50\u5229\u5947\u4e0e\u6d1b\u591a\u67f3\u5e03\u00b7\u671d\u62c9\u79d1\u7ef4\u5947\u9057\u4ea7\u5c55\u89c8\u9986", "email": "msub@msub.org.rs", "phone": "+381 3676 093", "website": "www.msub.org.rs", "addr:street": "\u0420\u043e\u0434\u043e\u0459\u0443\u0431\u0430 \u0427\u043e\u043b\u0430\u043a\u043e\u0432\u0438\u045b\u0430 2", "addr:housenumber": "", "ref:RS:uk": 25267}}, {"type": "Feature", "geometry": {"type": "Point", "coordinates": [21.95031, 42.99485]}, "properties": {"name": "\u0413\u0440\u0430\u0434\u0441\u043a\u0430 \u043a\u0443\u045b\u0430", "name:sr": "\u0413\u0440\u0430\u0434\u0441\u043a\u0430 \u043a\u0443\u045b\u0430", "name:sr-Latn": "Gradska ku\u0107a", "name:en": "Gradska ku\u0107a", "name:zh": "\u57ce\u5e02\u4e4b\u5bb6", "email": "nmleskovac@gmail.com", "phone": "+381 213 063", "website": "www.muzejleskovac.rs", "addr:street": "\u0423\u0447\u0438\u0442\u0435\u0459 \u0408\u043e\u0441\u0438\u0444\u0430", "addr:housenumber": "10", "ref:RS:uk": 22732}}, {"type": "Feature", "geometry": {"type": "Point", "coordinates": [19.66141, 46.10221]}, "properties": {"name": "\u0413\u0440\u0430\u0434\u0441\u043a\u0438 M\u0443\u0437\u0435\u0458 \u0421\u0443\u0431\u043e\u0442\u0438\u0446\u0430 - Szabadkai Varosi Muzeum", "name:sr": "\u0413\u0440\u0430\u0434\u0441\u043a\u0438 M\u0443\u0437\u0435\u0458 \u0421\u0443\u0431\u043e\u0442\u0438\u0446\u0430 - Szabadkai Varosi Muzeum", "name:sr-Latn": "Gradski Muzej Subotica - Szabadkai Varosi Muzeum", "name:en": "Municipal Museum Subotica", "name:ru": "\u0413\u043e\u0440\u043e\u0434\u0441\u043a\u043e\u0439 \u043c\u0443\u0437\u0435\u0439 \u0421\u0443\u0431\u043e\u0442\u0438\u0446\u0430 - Szabadkai Varosi Muzeum", "name:zh": "\u82cf\u535a\u8482\u5bdf\u57ce\u5e02\u535a\u7269\u9986", "email": "muzejsubotica@mts.rs", "phone": "+381 555 128; +381 24555 228", "website": "www.gradskimuzej.subotica.rs", "addr:street": "\u0422\u0440\u0433 \u0441\u0438\u043d\u0430\u0433\u043e\u0433\u0435", "addr:housenumber": "3", "ref:RS:uk": 21937}}, {"type": "Feature", "geometry": {"type": "Point", "coordinates": [19.11145, 45.7719]}, "properties": {"name": "\u0413\u0440\u0430\u0434\u0441\u043a\u0438 \u043c\u0443\u0437\u0435\u0458  \u0421\u043e\u043c\u0431\u043e\u0440", "name:sr": "\u0413\u0440\u0430\u0434\u0441\u043a\u0438 \u043c\u0443\u0437\u0435\u0458  \u0421\u043e\u043c\u0431\u043e\u0440", "name:sr-Latn": "Gradski muzej  Sombor", "name:en": "City museum of Sombor", "name:ru": "\u0413\u043e\u0440\u043e\u0434\u0441\u043a\u043e\u0439 \u043c\u0443\u0437\u0435\u0439 \u0421\u043e\u043c\u0431\u043e\u0440", "name:zh": "\u677e\u535a\u5c14\u57ce\u5e02\u535a\u7269\u9986", "email": "gmso@sbb.rs", "phone": "+381 412 728", "website": "www.gms.rs", "addr:street": "\u0422\u0440\u0433 \u0420\u0435\u043f\u0443\u0431\u043b\u0438\u043a\u0435", "addr:housenumber": "4", "ref:RS:uk": 21936}}, {"type": "Feature", "geometry": {"type": "Point", "coordinates": [20.04467, 45.61784]}, "properties": {"name": "\u0413\u0440\u0430\u0434\u0441\u043a\u0438 \u043c\u0443\u0437\u0435\u0458 \u0411\u0435\u0447\u0435\u0458", "name:sr": "\u0413\u0440\u0430\u0434\u0441\u043a\u0438 \u043c\u0443\u0437\u0435\u0458 \u0411\u0435\u0447\u0435\u0458", "name:sr-Latn": "Gradski muzej Be\u010dej", "name:en": "The City Museum of Becaj", "name:ru": "\u0413\u043e\u0440\u043e\u0434\u0441\u043a\u043e\u0439 \u043c\u0443\u0437\u0435\u0439 \u0432 \u0411\u0435\u0447\u0435\u0435", "name:zh": "\u8d1d\u5207\u4f0a\u57ce\u5e02\u535a\u7269\u9986", "email": "muzej.becej@gmail.com", "phone": "+381 6915 765; +381 069 1988 507", "website": "www.muzejbecej.rs", "addr:street": "\u0413\u043b\u0430\u0432\u043d\u0430", "addr:housenumber": "25", "ref:RS:uk": 21935}}, {"type": "Feature", "geometry": {"type": "Point", "coordinates": [19.64057, 45.57128]}, "properties": {"name": "\u0413\u0440\u0430\u0434\u0441\u043a\u0438 \u043c\u0443\u0437\u0435\u0458 \u0412\u0440\u0431\u0430\u0441", "name:sr": "\u0413\u0440\u0430\u0434\u0441\u043a\u0438 \u043c\u0443\u0437\u0435\u0458 \u0412\u0440\u0431\u0430\u0441", "name:sr-Latn": "Gradski muzej Vrbas", "name:en": "The City Museum of Vrbas", "name:ru": "\u0413\u043e\u0440\u043e\u0434\u0441\u043a\u043e\u0439 \u043c\u0443\u0437\u0435\u0439 \u0412\u0440\u0431\u0430\u0441", "name:zh": "\u5f17\u5c14\u5df4\u8328\u57ce\u5e02\u535a\u7269\u9986", "email": "muzejvrbas@gmail.com", "phone": "+381 707 510; +381 064 8577 054", "website": "www.kcvrbas.org", "addr:street": "\u041c\u0430\u0440\u0448\u0430\u043b\u0430 \u0422\u0438\u0442\u0430", "addr:housenumber": "88", "ref:RS:uk": 25195}}, {"type": "Feature", "geometry": {"type": "Point", "coordinates": [21.3018, 45.11932]}, "properties": {"name": "\u0413\u0440\u0430\u0434\u0441\u043a\u0438 \u043c\u0443\u0437\u0435\u0458 \u0412\u0440\u0448\u0430\u0446", "name:sr": "\u0413\u0440\u0430\u0434\u0441\u043a\u0438 \u043c\u0443\u0437\u0435\u0458 \u0412\u0440\u0448\u0430\u0446", "name:sr-Latn": "Gradski muzej Vr\u0161ac", "name:en": "The City Museum of Vrsac", "name:ru": "\u0413\u043e\u0440\u043e\u0434\u0441\u043a\u043e\u0439 \u043c\u0443\u0437\u0435\u0439 \u0412\u0440\u0448\u0430\u0446", "name:zh": "\u5f17\u5c14\u6c99\u8328\u57ce\u5e02\u535a\u7269\u9986", "email": "muzejvrsac@mts.rs", "phone": "+381 838 053; +381 26832 902; +381 065 305 3424", "website": "www.muzejvrsac.org.rs", "addr:street": "\u0416\u0430\u0440\u043a\u0430 \u0417\u0440\u0435\u045a\u0430\u043d\u0438\u043d\u0430", "addr:housenumber": "20", "ref:RS:uk": 21938}}, {"type": "Feature", "geometry": {"type": "Point", "coordinates": [20.08987, 45.9318]}, "properties": {"name": "\u0413\u0440\u0430\u0434\u0441\u043a\u0438 \u043c\u0443\u0437\u0435\u0458 \u0421\u0435\u043d\u0442\u0430", "name:sr": "\u0413\u0440\u0430\u0434\u0441\u043a\u0438 \u043c\u0443\u0437\u0435\u0458 \u0421\u0435\u043d\u0442\u0430", "name:sr-Latn": "Gradski muzej Senta", "name:en": "The City Museum of Senta", "name:ru": "\u0413\u043e\u0440\u043e\u0434\u0441\u043a\u043e\u0439 \u043c\u0443\u0437\u0435\u0439 \u0421\u0435\u043d\u0442\u0430", "name:zh": "\u68ee\u5854\u57ce\u5e02\u535a\u7269\u9986", "email": "muzeum@tlkk.org", "phone": "+381 811 348; +381 063 8555 687", "website": "www.tlkk.orgsr/p/3/09_11_2016_Gradski-muzej.html", "addr:street": "\u0413\u043b\u0430\u0432\u043d\u0438 \u0442\u0440\u0433 5\u0430", "addr:housenumber": "18", "ref:RS:uk": 22479}}, {"type": "Feature", "geometry": {"type": "Point", "coordinates": [20.45643, 44.81988]}, "properties": {"name": "\u0415\u0442\u043d\u043e\u0433\u0440\u0430\u0444\u0441\u043a\u0438 \u043c\u0443\u0437\u0435\u0458 \u0443 \u0411\u0435\u043e\u0433\u0440\u0430\u0434\u0443", "name:sr": "\u0415\u0442\u043d\u043e\u0433\u0440\u0430\u0444\u0441\u043a\u0438 \u043c\u0443\u0437\u0435\u0458 \u0443 \u0411\u0435\u043e\u0433\u0440\u0430\u0434\u0443", "name:sr-Latn": "Etnografski muzej u Beogradu", "name:en": "Ethnographic Museum in Belgrade", "name:ru": "\u042d\u0442\u043d\u043e\u0433\u0440\u0430\u0444\u0438\u0447\u0435\u0441\u043a\u0438\u0439 \u043c\u0443\u0437\u0435\u0439 \u0432 \u0411\u0435\u043b\u0433\u0440\u0430\u0434\u0435", "name:zh": "\u8d1d\u5c14\u683c\u83b1\u5fb7\u6c11\u65cf\u535a\u7269\u9986", "email": "info@etnografskimuzej.rs", "phone": "+381 3281 888; +381 062 8066 709", "website": "www.etnografskimuzej.rs", "addr:street": "\u0421\u0442\u0443\u0434\u0435\u043d\u0442\u0441\u043a\u0438 \u0442\u0440\u0433", "addr:housenumber": "2", "ref:RS:uk": 21927}}, {"type": "Feature", "geometry": {"type": "Point", "coordinates": [20.45824, 44.80597]}, "properties": {"name": "\u0416\u0435\u043b\u0435\u0437\u043d\u0438\u0447\u043a\u0438 \u043c\u0443\u0437\u0435\u0458 \u0411\u0435\u043e\u0433\u0440\u0430\u0434", "name:sr": "\u0416\u0435\u043b\u0435\u0437\u043d\u0438\u0447\u043a\u0438 \u043c\u0443\u0437\u0435\u0458 \u0411\u0435\u043e\u0433\u0440\u0430\u0434", "name:sr-Latn": "\u017delezni\u010dki muzej Beograd", "name:en": "The Railway Museum in Belgrade", "name:ru": "\u0416\u0435\u043b\u0435\u0437\u043d\u043e\u0434\u043e\u0440\u043e\u0436\u043d\u044b\u0439 \u043c\u0443\u0437\u0435\u0439 \u0411\u0435\u043b\u0433\u0440\u0430\u0434", "name:zh": "\u585e\u5c14\u7ef4\u4e9a\u94c1\u8def\u516c\u53f8\u88ab\u6076\u641e\u4eba\u7c7b\u7684\u94c1\u8def\u535a\u7269\u9986", "email": "muzej@srbrail.rs", "phone": "+381 3610 334", "website": "www.zeleznicesrbije.com/zeleznicki-muzej", "addr:street": "\u041d\u0435\u043c\u0430\u045a\u0438\u043d\u0430", "addr:housenumber": "6", "ref:RS:uk": 22025}}, {"type": "Feature", "geometry": {"type": "Point", "coordinates": [22.12407, 43.41198]}, "properties": {"name": "\u0417\u0430\u0432\u0438\u0447\u0430\u0458\u043d\u0430 \u043c\u0443\u0437\u0435\u0458\u0441\u043a\u0430 \u0437\u0431\u0438\u0440\u043a\u0430 \u0421\u0432\u0440\u0459\u0438\u0433", "name:sr": "\u0417\u0430\u0432\u0438\u0447\u0430\u0458\u043d\u0430 \u043c\u0443\u0437\u0435\u0458\u0441\u043a\u0430 \u0437\u0431\u0438\u0440\u043a\u0430 \u0421\u0432\u0440\u0459\u0438\u0433", "name:sr-Latn": "Zavi\u010dajna muzejska zbirka Svrljig", "name:en": "Town museum collection-Svrljig", "name:ru": "\u041a\u0440\u0430\u0435\u0432\u0435\u0434\u0447\u0435\u0441\u043a\u0430\u044f \u043c\u0443\u0437\u0435\u0439\u043d\u0430\u044f \u043a\u043e\u043b\u043b\u0435\u043a\u0446\u0438\u044f \u0421\u0432\u0440\u043b\u0438\u0433", "name:zh": "\u65af\u5f17\u5c14\u5229\u683c\u4e61\u571f\u535a\u7269\u9986\u96c6", "email": "kcsvrljig@yahoo.com", "phone": "+381 821 059; +381 062 245 071", "website": "www.kcsvrljig.rs", "addr:street": "\u0411\u043e\u0440\u0435 \u041f\u0440\u0438\u0446\u0435", "addr:housenumber": "2", "ref:RS:uk": 22501}}, {"type": "Feature", "geometry": {"type": "Point", "coordinates": [20.89812, 43.61839]}, "properties": {"name": "\u0417\u0430\u0432\u0438\u0447\u0430\u0458\u043d\u0438 \u043c\u0443\u0437\u0435\u0458 \u201e\u0417\u0430\u043c\u0430\u043a \u043a\u0443\u043b\u0442\u0443\u0440\u0435\u201d \u0412\u0440\u045a\u0430\u0447\u043a\u0430 \u0411\u0430\u045a\u0430", "name:sr": "\u0417\u0430\u0432\u0438\u0447\u0430\u0458\u043d\u0438 \u043c\u0443\u0437\u0435\u0458 \u201e\u0417\u0430\u043c\u0430\u043a \u043a\u0443\u043b\u0442\u0443\u0440\u0435\u201d \u0412\u0440\u045a\u0430\u0447\u043a\u0430 \u0411\u0430\u045a\u0430", "name:sr-Latn": "Zavi\u010dajni muzej \u201eZamak kulture\u201d Vrnja\u010dka Banja", "name:en": "Cultural Center Vrnja\u010dka Banja", "name:ru": "\u041a\u0440\u0430\u0435\u0432\u0435\u0434\u0447\u0435\u0441\u043a\u0438\u0439 \u043c\u0443\u0437\u0435\u0439 \u201e\u0417\u0430\u043c\u043e\u043a \u043a\u0443\u043b\u044c\u0442\u0443\u0440\u044b \u201d \u0412\u0440\u043d\u044f\u0447\u043a\u0430-\u0411\u0430\u043d\u044f", "name:zh": "\u5f17\u62c9\u6d85\u5df4\u5c3c\u4e9a\u201c\u624e\u739b\u514b\u6587\u5316\u201c\u4e61\u571f\u535a\u7269\u9986", "email": "zamuzej@ptt.rs", "phone": "+381 612 144; +381 064 8208 549", "addr:street": "7. \u0458\u0443\u043b\u0438", "addr:housenumber": "7", "ref:RS:uk": 22469}}, {"type": "Feature", "geometry": {"type": "Point", "coordinates": [22.31026, 43.21795]}, "properties": {"name": "\u0417\u0430\u0432\u0438\u0447\u0430\u0458\u043d\u0438 \u043c\u0443\u0437\u0435\u0458 \u0411\u0435\u043b\u0430 \u041f\u0430\u043b\u0430\u043d\u043a\u0430", "name:sr": "\u0417\u0430\u0432\u0438\u0447\u0430\u0458\u043d\u0438 \u043c\u0443\u0437\u0435\u0458 \u0411\u0435\u043b\u0430 \u041f\u0430\u043b\u0430\u043d\u043a\u0430", "name:sr-Latn": "Zavi\u010dajni muzej Bela Palanka", "name:en": "The Homeland Museum of Bela Palanka", "name:ru": "\u041a\u0440\u0430\u0435\u0432\u0435\u0434\u0447\u0435\u0441\u043a\u0438\u0439 \u043c\u0443\u0437\u0435\u0439 \u0411\u0435\u043b\u0430-\u041f\u0430\u043b\u0430\u043d\u043a\u0430", "name:zh": "\u8d1d\u62c9\u5e15\u5170\u5361\u4e61\u571f\u535a\u7269\u9986", "email": "vukbiblioteka@gmail.com", "phone": "+381 855 005", "addr:street": "\u041a\u0440\u0441\u0442\u0435 \u0408\u043e\u0446\u0438\u045b\u0430", "addr:housenumber": "4", "ref:RS:uk": 22502}}, {"type": "Feature", "geometry": {"type": "Point", "coordinates": [22.12742, 42.96559]}, "properties": {"name": "\u0417\u0430\u0432\u0438\u0447\u0430\u0458\u043d\u0438 \u043c\u0443\u0437\u0435\u0458 \u0412\u043b\u0430\u0441\u043e\u0442\u0438\u043d\u0446\u0435", "name:sr": "\u0417\u0430\u0432\u0438\u0447\u0430\u0458\u043d\u0438 \u043c\u0443\u0437\u0435\u0458 \u0412\u043b\u0430\u0441\u043e\u0442\u0438\u043d\u0446\u0435", "name:sr-Latn": "Zavi\u010dajni muzej Vlasotince", "name:en": "The Homeland Museum of Vlasotince", "name:ru": "\u041a\u0440\u0430\u0435\u0432\u0435\u0434\u0447\u0435\u0441\u043a\u0438\u0439 \u043c\u0443\u0437\u0435\u0439 \u0412\u043b\u0430\u0441\u043e\u0442\u0438\u043d\u0446\u0435", "name:zh": "\u5f17\u62c9\u7d22\u5ef7\u7b56\u4e61\u571f\u535a\u7269\u9986", "email": "kcentarvl@mts.rs", "phone": "+381 875 314; +381 16877 466; +381 064 8806 880", "website": "kcvlasotince", "addr:street": "\u041c\u0430\u0440\u043a\u0430 \u041e\u0440\u0435\u0448\u043a\u043e\u0432\u0438\u045b\u0430", "addr:housenumber": "1", "ref:RS:uk": 22503}}, {"type": "Feature", "geometry": {"type": "Point", "coordinates": [21.04445, 43.45902]}, "properties": {"name": "\u0417\u0430\u0432\u0438\u0447\u0430\u0458\u043d\u0438 \u043c\u0443\u0437\u0435\u0458 \u0416\u0443\u043f\u0435 \u0410\u043b\u0435\u043a\u0441\u0430\u043d\u0434\u0440\u043e\u0432\u0430\u0446", "name:sr": "\u0417\u0430\u0432\u0438\u0447\u0430\u0458\u043d\u0438 \u043c\u0443\u0437\u0435\u0458 \u0416\u0443\u043f\u0435 \u0410\u043b\u0435\u043a\u0441\u0430\u043d\u0434\u0440\u043e\u0432\u0430\u0446", "name:sr-Latn": "Zavi\u010dajni muzej \u017dupe Aleksandrovac", "name:en": "The Homeland Museum of Zupa Aleksandrovac", "name:ru": "\u041a\u0440\u0430\u0435\u0432\u0435\u0434\u0447\u0435\u0441\u043a\u0438\u0439 \u043c\u0443\u0437\u0435\u0439 \u0416\u0443\u043f\u044b \u0410\u043b\u0435\u043a\u0441\u0430\u043d\u0434\u0440\u043e\u0432\u0430\u0446", "name:zh": "\u963f\u83b1\u514b\u6851\u5fb7\u6d1b\u74e6\u8328\u4e61\u571f\u535a\u7269\u9986", "email": "muzejzupe@gmail.com", "phone": "+381 3552 326; +381 065 3678 811", "website": "www.muzejzupe.org.rs", "addr:street": "29. \u041d\u043e\u0432\u0435\u043c\u0431\u0430\u0440", "addr:housenumber": "95", "ref:RS:uk": 21997}}, {"type": "Feature", "geometry": {"type": "Point", "coordinates": [20.41222, 44.8431]}, "properties": {"name": "\u0417\u0430\u0432\u0438\u0447\u0430\u0458\u043d\u0438 \u043c\u0443\u0437\u0435\u0458 \u0417\u0435\u043c\u0443\u043d", "name:sr": "\u0417\u0430\u0432\u0438\u0447\u0430\u0458\u043d\u0438 \u043c\u0443\u0437\u0435\u0458 \u0417\u0435\u043c\u0443\u043d", "name:sr-Latn": "Zavi\u010dajni muzej Zemun", "name:en": "Zemun Museum", "name:ru": "\u041a\u0440\u0430\u0435\u0432\u0435\u0434\u0447\u0435\u0441\u043a\u0438\u0439 \u043c\u0443\u0437\u0435\u0439 \u0417\u0435\u043c\u0443\u043d", "name:zh": "\u6cfd\u8499\u4e61\u571f\u535a\u7269\u9986", "email": "office@mgb.org.rs", "phone": "+381 3165 234", "website": "www.mgb.org.rs", "addr:street": "\u0413\u043b\u0430\u0432\u043d\u0430", "addr:housenumber": "9", "ref:RS:uk": 22504}}, {"type": "Feature", "geometry": {"type": "Point", "coordinates": [21.26284, 43.97609]}, "properties": {"name": "\u0417\u0430\u0432\u0438\u0447\u0430\u0458\u043d\u0438 \u043c\u0443\u0437\u0435\u0458 \u0408\u0430\u0433\u043e\u0434\u0438\u043d\u0430", "name:sr": "\u0417\u0430\u0432\u0438\u0447\u0430\u0458\u043d\u0438 \u043c\u0443\u0437\u0435\u0458 \u0408\u0430\u0433\u043e\u0434\u0438\u043d\u0430", "name:sr-Latn": "Zavi\u010dajni muzej Jagodina", "name:en": "Regional museum Jagodina", "name:ru": "\u041a\u0440\u0430\u0435\u0432\u0435\u0434\u0447\u0435\u0441\u043a\u0438\u0439 \u043c\u0443\u0437\u0435\u0439 \u042f\u0433\u043e\u0434\u0438\u043d\u0430", "name:zh": "\u96c5\u6208\u8482\u90a3\u4e61\u571f\u535a\u7269\u9986", "email": "jagmus@mts.rs", "phone": "+381 8231 328; +381 358232 996; +381 358223 308; +381 064 8197 283", "addr:street": "\u041a\u043d\u0435\u0433\u0438\u045a\u0435 \u041c\u0438\u043b\u0438\u0446\u0435", "addr:housenumber": "82", "ref:RS:uk": 21992}}, {"type": "Feature", "geometry": {"type": "Point", "coordinates": [22.25105, 43.56529]}, "properties": {"name": "\u0417\u0430\u0432\u0438\u0447\u0430\u0458\u043d\u0438 \u043c\u0443\u0437\u0435\u0458 \u041a\u045a\u0430\u0436\u0435\u0432\u0430\u0446", "name:sr": "\u0417\u0430\u0432\u0438\u0447\u0430\u0458\u043d\u0438 \u043c\u0443\u0437\u0435\u0458 \u041a\u045a\u0430\u0436\u0435\u0432\u0430\u0446", "name:sr-Latn": "Zavi\u010dajni muzej Knja\u017eevac", "name:en": "The Homeland Museum of Knja\u017eevac", "name:ru": "\u041a\u0440\u0430\u0435\u0432\u0435\u0434\u0447\u0435\u0441\u043a\u0438\u0439 \u043c\u0443\u0437\u0435\u0439 \u041a\u043d\u044f\u0436\u0435\u0432\u0430\u0446", "name:zh": "\u514b\u5c3c\u4e9a\u70ed\u74e6\u8328\u4e61\u571f\u535a\u7269\u9986", "email": "muzejknjazevac@mts.rs", "phone": "+381 731 407; +381 064 8942 609", "website": "www.muzejknjazevac.org.rs", "addr:street": "\u041a\u0430\u0440\u0430\u0452\u043e\u0440\u0452\u0435\u0432\u0430", "addr:housenumber": "15", "ref:RS:uk": 21993}}, {"type": "Feature", "geometry": {"type": "Point", "coordinates": [19.82051, 44.46654]}, "properties": {"name": "\u0417\u0430\u0432\u0438\u0447\u0430\u0458\u043d\u0438 \u043c\u0443\u0437\u0435\u0458 \u041a\u043e\u0446\u0435\u0459\u0435\u0432\u0430", "name:sr": "\u0417\u0430\u0432\u0438\u0447\u0430\u0458\u043d\u0438 \u043c\u0443\u0437\u0435\u0458 \u041a\u043e\u0446\u0435\u0459\u0435\u0432\u0430", "name:sr-Latn": "Zavi\u010dajni muzej Koceljeva", "name:en": "Native nuseum Koceljeva", "name:ru": "\u041a\u0440\u0430\u0435\u0432\u0435\u0434\u0447\u0435\u0441\u043a\u0438\u0439 \u043c\u0443\u0437\u0435\u0439 \u041a\u043e\u0446\u0435\u043b\u0435\u0432\u0430", "name:zh": "\u79d1\u7b56\u5217\u74e6\u4e61\u571f\u535a\u7269\u9986", "email": "muzejkoceljeva@gmail.com", "phone": "+381 558 082; +381 064 8033 178", "addr:street": "\u041d\u0435\u043c\u0430\u045a\u0438\u043d\u0430", "addr:housenumber": "70", "ref:RS:uk": 22468}}, {"type": "Feature", "geometry": {"type": "Point", "coordinates": [21.40882, 43.86418]}, "properties": {"name": "\u0417\u0430\u0432\u0438\u0447\u0430\u0458\u043d\u0438 \u043c\u0443\u0437\u0435\u0458 \u041f\u0430\u0440\u0430\u045b\u0438\u043d", "name:sr": "\u0417\u0430\u0432\u0438\u0447\u0430\u0458\u043d\u0438 \u043c\u0443\u0437\u0435\u0458 \u041f\u0430\u0440\u0430\u045b\u0438\u043d", "name:sr-Latn": "Zavi\u010dajni muzej Para\u0107in", "name:en": "Hometown museum \"Paracin\"", "name:ru": "\u041a\u0440\u0430\u0435\u0432\u0435\u0434\u0447\u0435\u0441\u043a\u0438\u0439 \u043c\u0443\u0437\u0435\u0439 \u041f\u0430\u0440\u0430\u0447\u0438\u043d", "name:zh": "\u5e15\u62c9\u94a6\u4e61\u571f\u535a\u7269\u9986", "email": "zavicajnimuzejpn@gmail.com", "phone": "+381 573 774; +381 35562 035; +381 063 666 763", "website": "www.muzejparacin.rs", "addr:street": "\u0422\u043e\u043c\u0435 \u0416\u0438\u0432\u0430\u043d\u043e\u0432\u0438\u045b\u0430", "addr:housenumber": "17", "ref:RS:uk": 21994}}, {"type": "Feature", "geometry": {"type": "Point", "coordinates": [21.41832, 44.37756]}, "properties": {"name": "\u0417\u0430\u0432\u0438\u0447\u0430\u0458\u043d\u0438 \u043c\u0443\u0437\u0435\u0458 \u041f\u0435\u0442\u0440\u043e\u0432\u0430\u0446 \u043d\u0430 \u041c\u043b\u0430\u0432\u0438", "name:sr": "\u0417\u0430\u0432\u0438\u0447\u0430\u0458\u043d\u0438 \u043c\u0443\u0437\u0435\u0458 \u041f\u0435\u0442\u0440\u043e\u0432\u0430\u0446 \u043d\u0430 \u041c\u043b\u0430\u0432\u0438", "name:sr-Latn": "Zavi\u010dajni muzej Petrovac na Mlavi", "name:en": "Regional Museum, Petrovac na Mlavi", "name:ru": "\u041a\u0440\u0430\u0435\u0432\u0435\u0434\u0447\u0435\u0441\u043a\u0438\u0439 \u043c\u0443\u0437\u0435\u0439 - \u041f\u0435\u0442\u0440\u043e\u0432\u0430\u0446 \u043d\u0430 \u041c\u043b\u0430\u0432\u0435", "name:zh": "\u59c6\u62c9\u74e6\u5f7c\u5f97\u7f57\u74e6\u8328\u4e61\u571f\u535a\u7269\u9986", "email": "muzejpetrovacnamlavi@gmail.com", "phone": "+381 334 808; +381 063 8325 143", "website": "www.muzej-petrovacnamlavi.org.rs", "addr:street": "\u0421\u0440\u043f\u0441\u043a\u0438\u0445 \u0432\u043b\u0430\u0434\u0430\u0440\u0430", "addr:housenumber": "163", "ref:RS:uk": 21990}}, {"type": "Feature", "geometry": {"type": "Point", "coordinates": [19.52583, 43.58222]}, "properties": {"name": "\u0417\u0430\u0432\u0438\u0447\u0430\u0458\u043d\u0438 \u043c\u0443\u0437\u0435\u0458 \u041f\u0440\u0438\u0431\u043e\u0458", "name:sr": "\u0417\u0430\u0432\u0438\u0447\u0430\u0458\u043d\u0438 \u043c\u0443\u0437\u0435\u0458 \u041f\u0440\u0438\u0431\u043e\u0458", "name:sr-Latn": "Zavi\u010dajni muzej Priboj", "name:en": "The Homeland Museum of Priboj", "name:ru": "\u041a\u0440\u0430\u0435\u0432\u0435\u0434\u0447\u0435\u0441\u043a\u0438\u0439 \u043c\u0443\u0437\u0435\u0439 \u041f\u0440\u0438\u0431\u043e\u0439", "name:zh": "\u666e\u5229\u6ce2\u4f0a\u4e61\u571f\u535a\u7269\u9986", "email": "muzejpriboj@gmail.com", "phone": "+381 2452 453; +381 069 8461 100", "addr:street": "12. \u0458\u0430\u043d\u0443\u0430\u0440\u0430", "addr:housenumber": "21-25", "ref:RS:uk": 21995}}, {"type": "Feature", "geometry": {"type": "Point", "coordinates": [19.82424, 45.00771]}, "properties": {"name": "\u0417\u0430\u0432\u0438\u0447\u0430\u0458\u043d\u0438 \u043c\u0443\u0437\u0435\u0458 \u0420\u0443\u043c\u0430", "name:sr": "\u0417\u0430\u0432\u0438\u0447\u0430\u0458\u043d\u0438 \u043c\u0443\u0437\u0435\u0458 \u0420\u0443\u043c\u0430", "name:sr-Latn": "Zavi\u010dajni muzej Ruma", "name:en": "Ruma County Museum", "name:ru": "\u041a\u0440\u0430\u0435\u0432\u0435\u0434\u0447\u0435\u0441\u043a\u0438\u0439 \u043c\u0443\u0437\u0435\u0439 \u0420\u0443\u043c\u0430", "name:zh": "\u9c81\u9a6c\u4e61\u571f\u535a\u7269\u9986", "email": "zavmuzejruma@mts.rs", "phone": "+381 474 888; +381 063 8145 556", "website": "zavicajnimuzejruma.rs", "addr:street": "\u0413\u043b\u0430\u0432\u043d\u0430", "addr:housenumber": "182", "ref:RS:uk": 21996}}, {"type": "Feature", "geometry": {"type": "Point", "coordinates": [20.68277, 44.2471]}, "properties": {"name": "\u0417\u0430\u0434\u0443\u0436\u0431\u0438\u043d\u0430 \u043a\u0440\u0430\u0459\u0430 \u041f\u0435\u0442\u0440\u0430 I \u041a\u0430\u0440\u0430\u0452\u043e\u0440\u0452\u0435\u0432\u0438\u045b\u0430", "name:sr": "\u0417\u0430\u0434\u0443\u0436\u0431\u0438\u043d\u0430 \u043a\u0440\u0430\u0459\u0430 \u041f\u0435\u0442\u0440\u0430 I \u041a\u0430\u0440\u0430\u0452\u043e\u0440\u0452\u0435\u0432\u0438\u045b\u0430", "name:sr-Latn": "Zadu\u017ebina kralja Petra I Kara\u0111or\u0111evi\u0107a", "name:en": "King's Peter House", "name:ru": "\u0417\u0430\u0434\u0443\u0436\u0431\u0438\u043d\u0430 \u043a\u043e\u0440\u043e\u043b\u044f \u041f\u0435\u0442\u0440\u0430 I \u041a\u0430\u0440\u0430\u0434\u0436\u043e\u0440\u0436\u0434\u0436\u0435\u0432\u0438\u0447\u0430", "name:zh": "\u5f7c\u5f97\u4e00\u4e16\u5361\u62c9\u7126\u5c14\u6770\u7ef4\u5947\u56fd\u738b\u9057\u8d60\u57fa\u91d1\u4f1a", "email": "zaduzbinat@mts.rs", "phone": "+381 6811 280; +381 346811 881; +381 346811 118; +381 063 656 694", "website": "www.oplenac.rs", "addr:street": "\u041e\u043f\u043b\u0435\u043d\u0430\u0446", "addr:housenumber": "\u0431\u0431", "ref:RS:uk": 21989}}, {"type": "Feature", "geometry": {"type": "Point", "coordinates": [20.45556, 44.81997]}, "properties": {"name": "\u0417\u0431\u0438\u0440\u043a\u0430 \u0438\u043a\u043e\u043d\u0430 \u0421\u0435\u043a\u0443\u043b\u0438\u045b", "name:sr": "\u0417\u0431\u0438\u0440\u043a\u0430 \u0438\u043a\u043e\u043d\u0430 \u0421\u0435\u043a\u0443\u043b\u0438\u045b", "name:sr-Latn": "Zbirka ikona Sekuli\u0107", "name:en": "Collection of Icons Sekuli\u0107", "name:ru": "\u041a\u043e\u043b\u043b\u0435\u043a\u0446\u0438\u044f \u0438\u043a\u043e\u043d \u0421\u0435\u043a\u0443\u043b\u0438\u0447", "name:zh": "\u585e\u5e93\u5229\u5947\u5723\u8c61\u753b\u96c6", "email": "office@mgb.org.rs", "phone": "+381 2182 961", "website": "www.mgb.org.rs", "addr:street": "\u0423\u0437\u0443\u043d \u041c\u0438\u0440\u043a\u043e\u0432\u0430", "addr:housenumber": "5", "ref:RS:uk": 22735}}, {"type": "Feature", "geometry": {"type": "Point", "coordinates": [21.90023, 42.54929]}, "properties": {"name": "\u041c\u0443\u0437\u0435\u0458-\u043a\u0443\u045b\u0430 \u201e\u0411\u043e\u0440\u0430 \u0421\u0442\u0430\u043d\u043a\u043e\u0432\u0438\u045b\u201d", "name:sr": "\u041c\u0443\u0437\u0435\u0458-\u043a\u0443\u045b\u0430 \u201e\u0411\u043e\u0440\u0430 \u0421\u0442\u0430\u043d\u043a\u043e\u0432\u0438\u045b\u201d", "name:sr-Latn": "Muzej-ku\u0107a \u201eBora Stankovi\u0107\u201d", "name:en": "Muzej -ku\u0107a ''Bora Stankovi\u0107''", "email": "muzejvranje@gmail.com", "phone": "+381 423 073; +381 062 423 789", "website": "www.muzejvranje.rs", "addr:street": "\u0411\u0430\u0431\u0430 \u0417\u043b\u0430\u0442\u0438\u043d\u0430", "addr:housenumber": "9", "ref:RS:uk": 25253}}, {"type": "Feature", "geometry": {"type": "Point", "coordinates": [20.4637, 44.81247]}, "properties": {"name": "\u0418\u0441\u0442\u043e\u0440\u0438\u0458\u0441\u043a\u0438 \u043c\u0443\u0437\u0435\u0458 \u0421\u0440\u0431\u0438\u0458\u0435", "name:sr": "\u0418\u0441\u0442\u043e\u0440\u0438\u0458\u0441\u043a\u0438 \u043c\u0443\u0437\u0435\u0458 \u0421\u0440\u0431\u0438\u0458\u0435", "name:sr-Latn": "Istorijski muzej Srbije", "name:en": "Historical \u041cuseum of Serbia", "name:ru": "\u0418\u0441\u0442\u043e\u0440\u0438\u0447\u0435\u0441\u043a\u0438\u0439 \u043c\u0443\u0437\u0435\u0439 \u0421\u0435\u0440\u0431\u0438\u0438", "name:zh": "\u585e\u5c14\u7ef4\u4e9a\u5386\u53f2\u535a\u7269\u9986", "email": "istorijskimuzej@imus.org.rs", "phone": "+381 3287 242; +381 112187 360; +381 112637 753", "website": "www.imus.org.rs", "addr:street": "\u0422\u0440\u0433 \u041d\u0438\u043a\u043e\u043b\u0435 \u041f\u0430\u0448\u0438\u045b\u0430", "addr:housenumber": "11", "ref:RS:uk": 21939}}, {"type": "Feature", "geometry": {"type": "Point", "coordinates": [20.46809, 44.81257]}, "properties": {"name": "\u0408\u0430\u0432\u043d\u043e \u043f\u0440\u0435\u0434\u0443\u0437\u0435\u045b\u0435 \u201e\u041f\u043e\u0448\u0442\u0430 \u0421\u0440\u0431\u0438\u0458\u0435\u201d, \u041f\u0422\u0422 \u043c\u0443\u0437\u0435\u0458", "name:sr": "\u0408\u0430\u0432\u043d\u043e \u043f\u0440\u0435\u0434\u0443\u0437\u0435\u045b\u0435 \u201e\u041f\u043e\u0448\u0442\u0430 \u0421\u0440\u0431\u0438\u0458\u0435\u201d, \u041f\u0422\u0422 \u043c\u0443\u0437\u0435\u0458", "name:sr-Latn": "Javno preduze\u0107e \u201ePo\u0161ta Srbije\u201d, PTT muzej", "name:en": "PTT museum", "name:ru": "\u0413\u043e\u0441\u043f\u0440\u0435\u0434\u043f\u0440\u0438\u044f\u0442\u0438\u0435 \u201e\u041f\u043e\u0447\u0442\u0430 \u0421\u0440\u0431\u0438\u0458\u0435\u201d, \u041c\u0443\u0437\u0435\u0439 \u041f\u0422\u0422 (\u041f\u043e\u0447\u0442\u0430-\u0422\u0435\u043b\u0435\u0444\u043e\u043d-\u0422\u0435\u043b\u0435\u0433\u0440\u0430\u0444)", "name:zh": "\u585e\u5c14\u7ef4\u4e9a\u90ae\u653f\u56fd\u6709\u516c\u53f8\u90ae\u653f\u535a\u7269\u9986", "email": "pttmuzej@ptt.rs", "phone": "+381 3063 278; +381 064 6980 378", "website": "www.pttmuzej.rs", "addr:street": "\u041c\u0430\u0458\u043a\u0435 \u0408\u0435\u0432\u0440\u043e\u0441\u0438\u043c\u0435", "addr:housenumber": "13", "ref:RS:uk": 22021}}, {"type": "Feature", "geometry": {"type": "Point", "coordinates": [20.45697, 44.82144]}, "properties": {"name": "\u0408\u0435\u0432\u0440\u0435\u0458\u0441\u043a\u0438 \u0438\u0441\u0442\u043e\u0440\u0438\u0458\u0441\u043a\u0438 \u043c\u0443\u0437\u0435\u0458", "name:sr": "\u0408\u0435\u0432\u0440\u0435\u0458\u0441\u043a\u0438 \u0438\u0441\u0442\u043e\u0440\u0438\u0458\u0441\u043a\u0438 \u043c\u0443\u0437\u0435\u0458", "name:sr-Latn": "Jevrejski istorijski muzej", "name:en": "Jewish Historical Museum", "name:ru": "\u0415\u0432\u0440\u0435\u0439\u0441\u043a\u0438\u0439 \u0438\u0441\u0442\u043e\u0440\u0438\u0447\u0435\u0441\u043a\u0438\u0439 \u043c\u0443\u0437\u0435\u0439", "name:zh": "\u72b9\u592a\u5386\u53f2\u535a\u7269\u9986", "email": "jevrejskimuzej.beograd@gmail.com", "phone": "+381 2622 634", "website": "www.jimbeograd.org", "addr:street": "\u041a\u0440\u0430\u0459\u0430 \u041f\u0435\u0442\u0440\u0430", "addr:housenumber": "71\u0430", "ref:RS:uk": 22002}}, {"type": "Feature", "geometry": {"type": "Point", "coordinates": [20.45216, 44.81711]}, "properties": {"name": "\u041a\u043e\u043d\u0430\u043a \u043a\u043d\u0435\u0433\u0438\u045a\u0435 \u0409\u0443\u0431\u0438\u0446\u0435 \u0411\u0435\u043e\u0433\u0440\u0430\u0434", "name:sr": "\u041a\u043e\u043d\u0430\u043a \u043a\u043d\u0435\u0433\u0438\u045a\u0435 \u0409\u0443\u0431\u0438\u0446\u0435 \u0411\u0435\u043e\u0433\u0440\u0430\u0434", "name:sr-Latn": "Konak kneginje Ljubice Beograd", "name:en": "Residence of Princess Ljubica", "name:ru": "\u0423\u0441\u0430\u0434\u044c\u0431\u044b \u043a\u043d\u044f\u0433\u0438\u043d\u0438 \u041b\u044e\u0431\u0438\u0446\u044b \u0411\u0435\u043b\u0433\u0440\u0430\u0434", "name:zh": "\u8d1d\u5c14\u683c\u83b1\u5fb7\u67f3\u6bd4\u67e5\u5927\u516c\u5e84\u56ed", "email": "office@mgb.org.rs", "phone": "+381 2638 264", "website": "www.mgb.org.rs", "addr:street": "\u041a\u043d\u0435\u0437\u0430 \u0421\u0438\u043c\u0435 \u041c\u0430\u0440\u043a\u043e\u0432\u0438\u045b\u0430", "addr:housenumber": "8", "ref:RS:uk": 22481}}, {"type": "Feature", "geometry": {"type": "Point", "coordinates": [20.45548, 44.81885]}, "properties": {"name": "\u041a\u0443\u045b\u0430 \u043b\u0435\u0433\u0430\u0442\u0430", "name:sr": "\u041a\u0443\u045b\u0430 \u043b\u0435\u0433\u0430\u0442\u0430", "name:sr-Latn": "Ku\u0107a legata", "name:en": "The Heritage House Belgrade", "name:ru": "\u0414\u043e\u043c \u043b\u0435\u0433\u0430\u0442\u0430", "name:zh": "\u9057\u4ea7\u4e4b\u5bb6", "email": "kucalegata@kucalegata.org", "phone": "+381 2660 403", "website": "www.kucalegata.org", "addr:street": "\u041a\u043d\u0435\u0437\u0430 \u041c\u0438\u0445\u0430\u0438\u043b\u0430", "addr:housenumber": "46", "ref:RS:uk": 23664}}, {"type": "Feature", "geometry": {"type": "Point", "coordinates": [20.43863, 44.79171]}, "properties": {"name": "\u041b\u0435\u0433\u0430\u0442 \u0413\u0430\u0448\u043f\u0430\u0440\u0435\u0432\u0438\u045b", "name:sr": "\u041b\u0435\u0433\u0430\u0442 \u0413\u0430\u0448\u043f\u0430\u0440\u0435\u0432\u0438\u045b", "name:sr-Latn": "Legat Ga\u0161parevi\u0107", "name:en": "Legacy of Robert Cikler Ga\u0161parovi\u0107", "name:ru": "\u041b\u0435\u0433\u0430\u0442 \u0413\u0430\u0448\u043f\u0430\u0440\u0435\u0432\u0438\u0447", "name:zh": "\u52a0\u5c14\u5e15\u83b1\u7ef4\u5947\u9057\u4ea7", "email": "office@mgb.org.rs", "phone": "+381 2650570", "website": "www.mgb.org.rs", "addr:street": "\u041f\u0435\u0440\u0441\u0438\u0434\u0435 \u041c\u0438\u043b\u0435\u043d\u043a\u043e\u0432\u0438\u045b", "addr:housenumber": "12", "ref:RS:uk": 22507}}, {"type": "Feature", "geometry": {"type": "Point", "coordinates": [22.02627, 44.55695]}, "properties": {"name": "\u041b\u0435\u043f\u0435\u043d\u0441\u043a\u0438 \u0412\u0438\u0440", "name:sr": "\u041b\u0435\u043f\u0435\u043d\u0441\u043a\u0438 \u0412\u0438\u0440", "name:sr-Latn": "Lepenski Vir", "name:en": "Lepenski vir Museum", "name:ru": "\u041c\u0443\u0437\u0435\u0439 \u041b\u0435\u043f\u0435\u043d\u0441\u043a\u043e\u0433\u043e \u0432\u0438\u0440\u0430", "name:zh": "\u83b1\u76c6\u65af\u57fa\u7ef4\u5c14\u535a\u7269\u9986", "email": "office@lepenski-vir.rs", "phone": "+381 501 501; +381 19501 389; +381 062 216 559", "website": "www.lepenski-vir.rs", "addr:street": "\u0411\u043e\u0459\u0435\u0442\u0438\u043d", "addr:housenumber": "\u0431\u0431", "ref:RS:uk": 22488}}, {"type": "Feature", "geometry": {"type": "Point", "coordinates": [20.45436, 44.81371]}, "properties": {"name": "\u041c\u0430\u043d\u0430\u043a\u043e\u0432\u0430 \u043a\u0443\u045b\u0430", "name:sr": "\u041c\u0430\u043d\u0430\u043a\u043e\u0432\u0430 \u043a\u0443\u045b\u0430", "name:sr-Latn": "Manakova ku\u0107a", "name:en": "Manak's House", "name:ru": "\u041c\u0430\u043d\u0430\u043a\u043e\u0432 \u0434\u043e\u043c", "name:zh": "\u9a6c\u7eb3\u514b\u4e4b\u5bb6", "email": "manakovakuca@etnografskimuzej.rs", "phone": "+381 3036 114; +381 063 1131 374", "website": "etnografskimuzej.rs/rs/manakova-kuca/", "addr:street": "\u0413\u0430\u0432\u0440\u0438\u043b\u0430 \u041f\u0440\u0438\u043d\u0446\u0438\u043f\u0430", "addr:housenumber": "5", "ref:RS:uk": 25202}}, {"type": "Feature", "geometry": {"type": "Point", "coordinates": [20.46865, 44.81571]}, "properties": {"name": "\u041c\u0435\u043c\u043e\u0440\u0438\u0458\u0430\u043b\u043d\u0438 \u043c\u0443\u0437\u0435\u0458 \u0408\u043e\u0432\u0430\u043d\u0430 \u0426\u0432\u0438\u0458\u0438\u045b\u0430 \u0411\u0435\u043e\u0433\u0440\u0430\u0434", "name:sr": "\u041c\u0435\u043c\u043e\u0440\u0438\u0458\u0430\u043b\u043d\u0438 \u043c\u0443\u0437\u0435\u0458 \u0408\u043e\u0432\u0430\u043d\u0430 \u0426\u0432\u0438\u0458\u0438\u045b\u0430 \u0411\u0435\u043e\u0433\u0440\u0430\u0434", "name:sr-Latn": "Memorijalni muzej Jovana Cviji\u0107a Beograd", "name:en": "Museum of Jovan Cviji\u0107", "name:ru": "\u041c\u0435\u043c\u043e\u0440\u0438\u0430\u043b\u044c\u043d\u044b\u0439 \u043c\u0443\u0437\u0435\u0439 \u0419\u043e\u0432\u0430\u043d\u0430 \u0426\u0432\u0438\u0439\u0438\u0447\u0430 \u0411\u0435\u043b\u0433\u0440\u0430\u0434", "name:zh": "\u8d1d\u5c14\u683c\u83b1\u5fb7\u7ea6\u4e07\u8328\u7ef4\u4f0a\u5947\u7eaa\u5ff5\u535a\u7269\u9986", "email": "office@mgb.org.rs", "phone": "+381 3223 126", "website": "www.mgb.org.rs", "addr:street": "\u0408\u0435\u043b\u0435\u043d\u0435 \u040b\u0435\u0442\u043a\u043e\u0432\u0438\u045b", "addr:housenumber": "5", "ref:RS:uk": 22482}}, {"type": "Feature", "geometry": {"type": "Point", "coordinates": [19.88611, 44.27073]}, "properties": {"name": "\u041c\u043e\u0434\u0435\u0440\u043d\u0430 \u0433\u0430\u043b\u0435\u0440\u0438\u0458\u0430 \u0412\u0430\u0459\u0435\u0432\u043e", "name:sr": "\u041c\u043e\u0434\u0435\u0440\u043d\u0430 \u0433\u0430\u043b\u0435\u0440\u0438\u0458\u0430 \u0412\u0430\u0459\u0435\u0432\u043e", "name:sr-Latn": "Moderna galerija Valjevo", "name:en": "The Modern Gallery Valjevo", "name:ru": "\u0421\u043e\u0432\u0440\u0435\u043c\u0435\u043d\u043d\u0430\u044f \u0433\u0430\u043b\u0435\u0440\u0435\u044f \u0412\u0430\u043b\u0435\u0432\u043e", "name:zh": "\u74e6\u5217\u6c83\u73b0\u4ee3\u5c55\u89c8\u9986", "email": "modernagaleriva@gmail.com", "phone": "+381 220 878; +381 064 8559 941", "website": "www.mgva.rs", "addr:street": "\u0412\u0443\u043a\u0430 \u041a\u0430\u0440\u0430\u045f\u0438\u045b\u0430", "addr:housenumber": "11", "ref:RS:uk": 21940}}, {"type": "Feature", "geometry": {"type": "Point", "coordinates": [21.37086, 43.93494]}, "properties": {"name": "\u041c\u0443\u0437\u0435\u0458 \u201eHorreum Margi - \u0420\u0430\u0432\u043d\u043e\u201d \u040b\u0443\u043f\u0440\u0438\u0458\u0430", "name:sr": "\u041c\u0443\u0437\u0435\u0458 \u201eHorreum Margi - \u0420\u0430\u0432\u043d\u043e\u201d \u040b\u0443\u043f\u0440\u0438\u0458\u0430", "name:sr-Latn": "Muzej \u201eHorreum Margi - Ravno\u201d \u0106uprija", "name:en": "Museum \"Horreum Margi-Ravno\"", "name:ru": "\u041c\u0443\u0437\u0435\u0439 \u201eHorreum Margi - \u0420\u0430\u0432\u043d\u043e\u201d \u0427\u0443\u043f\u0440\u0438\u044f", "name:zh": "\u4e18\u666e\u91cc\u4e9a\u201c\u970d\u96f7\u59c6\u00b7\u739b\u5c14\u57fa-\u62c9\u592b\u8bfa\u201d\u535a\u7269\u9986", "email": "info@muzejcuprija.rs", "phone": "+381 8871 270; +381 063 7331 249", "website": "www.muzejcuprija.rs", "addr:street": "\u0408\u043e\u0432\u0430\u043d\u0430 \u041a\u0443\u0440\u0441\u0443\u043b\u0435", "addr:housenumber": "2", "ref:RS:uk": 21941}}, {"type": "Feature", "geometry": {"type": "Point", "coordinates": [20.51828, 43.14157]}, "properties": {"name": "\u041c\u0443\u0437\u0435\u0458 \u201e\u0420\u0430\u0441\u201d \u041d\u043e\u0432\u0438 \u041f\u0430\u0437\u0430\u0440", "name:sr": "\u041c\u0443\u0437\u0435\u0458 \u201e\u0420\u0430\u0441\u201d \u041d\u043e\u0432\u0438 \u041f\u0430\u0437\u0430\u0440", "name:sr-Latn": "Muzej \u201eRas\u201d Novi Pazar", "name:en": "Ras Museum", "name:ru": "\u041c\u0443\u0437\u0435\u0439 \u201e\u0420\u0430\u0441\u201d \u041d\u043e\u0432\u0438 \u041f\u0430\u0437\u0430\u0440", "name:zh": "\u65b0\u5e15\u624e\u5c14\u201c\u62c9\u65af\u201d\u535a\u7269\u9986", "email": "muzejras@gmail.com", "phone": "+381 331 681; +381 36331 682; +381 36331 683", "addr:street": "\u0421\u0442\u0435\u0432\u0430\u043d\u0430 \u041d\u0435\u043c\u0430\u045a\u0435", "addr:housenumber": "20", "ref:RS:uk": 21942}}, {"type": "Feature", "geometry": {"type": "Point", "coordinates": [20.46605, 44.81382]}, "properties": {"name": "\u041c\u0443\u0437\u0435\u0458 \u0430\u0443\u0442\u043e\u043c\u043e\u0431\u0438\u043b\u0430 - \u0437\u0431\u0438\u0440\u043a\u0430 \u0411\u0440\u0430\u0442\u0438\u0441\u043b\u0430\u0432\u0430 \u041f\u0435\u0442\u043a\u043e\u0432\u0438\u045b\u0430", "name:sr": "\u041c\u0443\u0437\u0435\u0458 \u0430\u0443\u0442\u043e\u043c\u043e\u0431\u0438\u043b\u0430 - \u0437\u0431\u0438\u0440\u043a\u0430 \u0411\u0440\u0430\u0442\u0438\u0441\u043b\u0430\u0432\u0430 \u041f\u0435\u0442\u043a\u043e\u0432\u0438\u045b\u0430", "name:sr-Latn": "Muzej automobila - zbirka Bratislava Petkovi\u0107a", "name:en": "The Automobile Museum, Bratislav Petkovic Collection", "name:ru": "\u041c\u0443\u0437\u0435\u0439 \u0430\u0432\u0442\u043e\u043c\u043e\u0431\u0438\u043b\u0435\u0439 - \u043a\u043e\u043b\u043b\u0435\u043a\u0446\u0438\u044f \u0411\u0440\u0430\u0442\u0438\u0441\u043b\u0430\u0432\u0430 \u041f\u0435\u0442\u043a\u043e\u0432\u0438\u0447\u0430", "name:zh": "\u5e03\u62c9\u8fea\u65af\u62c9\u592b\u00b7\u4f69\u7279\u79d1\u7ef4\u5947\u6c7d\u8f66\u6536\u85cf\u535a\u7269\u9986", "email": "bpetkovic@emoteproductions.com", "phone": "+381 3034 625; +381 063 389 602", "website": "www.automuseumbgd.com", "addr:street": "\u041c\u0430\u0458\u043a\u0435 \u0408\u0435\u0432\u0440\u043e\u0441\u0438\u043c\u0435", "addr:housenumber": "30", "ref:RS:uk": 22004}}, {"type": "Feature", "geometry": {"type": "Point", "coordinates": [20.43503, 44.78914]}, "properties": {"name": "\u041c\u0443\u0437\u0435\u0458 \u0430\u0444\u0440\u0438\u0447\u043a\u0435 \u0443\u043c\u0435\u0442\u043d\u043e\u0441\u0442\u0438 \u0411\u0435\u043e\u0433\u0440\u0430\u0434: \u0437\u0431\u0438\u0440\u043a\u0430 \u0412\u0435\u0434\u0435 \u0438 \u0434\u0440 \u0417\u0434\u0440\u0430\u0432\u043a\u0430 \u041f\u0435\u0447\u0430\u0440\u0430", "name:sr": "\u041c\u0443\u0437\u0435\u0458 \u0430\u0444\u0440\u0438\u0447\u043a\u0435 \u0443\u043c\u0435\u0442\u043d\u043e\u0441\u0442\u0438 \u0411\u0435\u043e\u0433\u0440\u0430\u0434: \u0437\u0431\u0438\u0440\u043a\u0430 \u0412\u0435\u0434\u0435 \u0438 \u0434\u0440 \u0417\u0434\u0440\u0430\u0432\u043a\u0430 \u041f\u0435\u0447\u0430\u0440\u0430", "name:sr-Latn": "Muzej afri\u010dke umetnosti Beograd: zbirka Vede i dr Zdravka Pe\u010dara", "name:en": "The Museum of African Art: the Veda and dr Zdravko", "name:ru": "\u041c\u0443\u0437\u0435\u0439 \u0430\u0444\u0440\u0438\u043a\u0430\u043d\u0441\u043a\u043e\u0433\u043e \u0438\u0441\u043a\u0443\u0441\u0441\u0442\u0432\u0430 \u0411\u0435\u043b\u0433\u0440\u0430\u0434: \u043a\u043e\u043b\u043b\u0435\u043a\u0446\u0438\u044f \u0412\u0435\u0434\u0435 \u0438 \u0434-\u0440 \u0417\u0434\u0440\u0430\u0432\u043a\u043e \u041f\u0435\u0447\u0430\u0440\u0430", "name:zh": "\u8d1d\u5c14\u683c\u83b1\u5fb7\u975e\u6d32\u827a\u672f\u535a\u7269\u9986\uff1a\u97e6\u5fb7\u4e0e\u5179\u5fb7\u62c9\u79d1\u00b7\u4f69\u67e5\u5c14\u6536\u85cf\u96c6", "email": "africanmuseum@gmail.com", "phone": "+381 2651 654; +381 112651 269", "website": "www.museumofafricanart.org", "addr:street": "\u0410\u043d\u0434\u0440\u0435 \u041d\u0438\u043a\u043e\u043b\u0438\u045b\u0430", "addr:housenumber": "14", "ref:RS:uk": 22003}}, {"type": "Feature", "geometry": {"type": "Point", "coordinates": [20.46759, 44.77119]}, "properties": {"name": "\u041c\u0443\u0437\u0435\u0458 \u0431\u0430\u045a\u0438\u0447\u043a\u043e\u0433 \u043b\u043e\u0433\u043e\u0440\u0430 \u0411\u0435\u043e\u0433\u0440\u0430\u0434", "name:sr": "\u041c\u0443\u0437\u0435\u0458 \u0431\u0430\u045a\u0438\u0447\u043a\u043e\u0433 \u043b\u043e\u0433\u043e\u0440\u0430 \u0411\u0435\u043e\u0433\u0440\u0430\u0434", "name:sr-Latn": "Muzej banji\u010dkog logora Beograd", "name:en": "Museum of Banjica concentration camp", "name:ru": "\u041c\u0443\u0437\u0435\u0439 \u0431\u0430\u043d\u0438\u0446\u043a\u043e\u0433\u043e \u043b\u0430\u0433\u0435\u0440\u044f \u0411\u0435\u043b\u0433\u0440\u0430\u0434", "name:zh": "\u8d1d\u5c14\u683c\u83b1\u5fb7\u6e29\u6cc9\u8425\u535a\u7269\u9986", "email": "office@mgb.org.rs", "phone": "+381 3674 877", "website": "www.mgb.org.rs", "addr:street": "\u041f\u0430\u0432\u043b\u0430 \u0408\u0443\u0440\u0438\u0448\u0438\u045b\u0430 \u0428\u0442\u0443\u0440\u043c\u0430", "addr:housenumber": "33", "ref:RS:uk": 22483}}, {"type": "Feature", "geometry": {"type": "Point", "coordinates": [20.28554, 44.81909]}, "properties": {"name": "\u041c\u0443\u0437\u0435\u0458 \u0432\u0430\u0437\u0434\u0443\u0445\u043e\u043f\u043b\u043e\u0432\u0441\u0442\u0432\u0430", "name:sr": "\u041c\u0443\u0437\u0435\u0458 \u0432\u0430\u0437\u0434\u0443\u0445\u043e\u043f\u043b\u043e\u0432\u0441\u0442\u0432\u0430", "name:sr-Latn": "Muzej vazduhoplovstva", "name:en": "Aeronautical museum-Belgrade", "name:ru": "\u041c\u0443\u0437\u0435\u0439 \u0430\u0432\u0438\u0430\u0446\u0438\u0438-\u0411\u0435\u043b\u0433\u0440\u0430\u0434", "name:zh": "\u8d1d\u5c14\u683c\u83b1\u5fb7\u822a\u7a7a\u535a\u7269\u9986", "email": "kontakt@muzejvazduhoplovstva.org.rs", "phone": "+381 2670 992; +381 064 8469 990", "website": "www.muzejvazduhoplovstva.org.rs", "addr:street": "\u0410\u0435\u0440\u043e\u0434\u0440\u043e\u043c \u201e\u041d\u0438\u043a\u043e\u043b\u0430 \u0422\u0435\u0441\u043b\u0430\u201d", "addr:housenumber": "\u0431\u0431", "ref:RS:uk": 21961}}, {"type": "Feature", "geometry": {"type": "Point", "coordinates": [21.05411, 43.45618]}, "properties": {"name": "\u041c\u0443\u0437\u0435\u0458 \u0432\u0438\u043d\u0430\u0440\u0441\u0442\u0432\u0430 \u0438 \u0432\u0438\u043d\u043e\u0433\u0440\u0430\u0434\u0430\u0440\u0441\u0442\u0432\u0430 \u0410\u043b\u0435\u043a\u0441\u0430\u043d\u0434\u0440\u043e\u0432\u0430\u0446", "name:sr": "\u041c\u0443\u0437\u0435\u0458 \u0432\u0438\u043d\u0430\u0440\u0441\u0442\u0432\u0430 \u0438 \u0432\u0438\u043d\u043e\u0433\u0440\u0430\u0434\u0430\u0440\u0441\u0442\u0432\u0430 \u0410\u043b\u0435\u043a\u0441\u0430\u043d\u0434\u0440\u043e\u0432\u0430\u0446", "name:sr-Latn": "Muzej vinarstva i vinogradarstva Aleksandrovac", "name:en": "Museum of Winemaking and Viticulture", "name:ru": "\u041c\u0443\u0437\u0435\u0439 \u0432\u0438\u043d\u043e\u0434\u0435\u043b\u0438\u044f \u0438 \u0432\u0438\u043d\u043e\u0433\u0440\u0430\u0434\u0441\u0442\u0432\u0430 \u0410\u043b\u0435\u043a\u0441\u0430\u043d\u0434\u0440\u043e\u0432\u0430\u0446", "name:zh": "\u963f\u83b1\u514b\u6851\u5fb7\u6d1b\u74e6\u8328\u8461\u8404\u9152\u79cd\u690d\u4e0e\u9152\u5e84\u535a\u7269\u9986", "email": "muzejvv@mts.rs", "phone": "+381 3554 596; +381 063 7751 598", "addr:street": "\u0414\u0440 \u041c\u0438\u043b\u0430\u043d\u0430 \u041c\u0438\u0440\u043a\u043e\u0432\u0438\u045b\u0430", "addr:housenumber": "7", "ref:RS:uk": 21962}}, {"type": "Feature", "geometry": {"type": "Point", "coordinates": [19.85166, 45.25645]}, "properties": {"name": "\u041c\u0443\u0437\u0435\u0458 \u0412\u043e\u0458\u0432\u043e\u0434\u0438\u043d\u0435 \u041d\u043e\u0432\u0438 \u0421\u0430\u0434", "name:sr": "\u041c\u0443\u0437\u0435\u0458 \u0412\u043e\u0458\u0432\u043e\u0434\u0438\u043d\u0435 \u041d\u043e\u0432\u0438 \u0421\u0430\u0434", "name:sr-Latn": "Muzej Vojvodine Novi Sad", "name:en": "The museum of Vojvodina", "name:ru": "\u041c\u0443\u0437\u0435\u0439 \u0412\u043e\u0435\u0432\u043e\u0434\u0438\u043d\u044b \u041d\u043e\u0432\u0438-\u0421\u0430\u0434", "name:zh": "\u8bfa\u7ef4\u8428\u5fb7\u4f0f\u4f0a\u4f0f\u4e01\u90a3\u535a\u7269\u9986", "email": "tijana.pesterac@muzejvojvodine.org.rs", "phone": "+381 420 566; +381 21520 135; +381 063 560 843", "website": "www.muzejvojvodine.org.rs", "addr:street": "\u0414\u0443\u043d\u0430\u0432\u0441\u043a\u0430", "addr:housenumber": "35-37", "ref:RS:uk": 21963}}, {"type": "Feature", "geometry": {"type": "Point", "coordinates": [19.59033, 45.36121]}, "properties": {"name": "\u041c\u0443\u0437\u0435\u0458 \u0432\u043e\u0458\u0432\u043e\u0452\u0430\u043d\u0441\u043a\u0438\u0445 \u0421\u043b\u043e\u0432\u0430\u043a\u0430", "name:sr": "\u041c\u0443\u0437\u0435\u0458 \u0432\u043e\u0458\u0432\u043e\u0452\u0430\u043d\u0441\u043a\u0438\u0445 \u0421\u043b\u043e\u0432\u0430\u043a\u0430", "name:sr-Latn": "Muzej vojvo\u0111anskih Slovaka", "name:en": "The Museum of Slovaks in Vojvodina", "name:ru": "\u041c\u0443\u0437\u0435\u0439 \u0432\u043e\u0435\u0432\u043e\u0434\u0438\u043d\u0441\u043a\u0438\u0445 \u0441\u043b\u043e\u0432\u0430\u043a\u043e\u0432", "name:zh": "\u4f0f\u4f0a\u4f0f\u4e01\u90a3\u65af\u6d1b\u4f10\u514b\u535a\u7269\u9986", "email": "muzejvs@stcable.net", "phone": "+381 780 478; +381 063 7030 254", "website": "www.muzeumslovakov.rs", "addr:street": "\u041c\u0430\u0440\u0448\u0430\u043b\u0430 \u0422\u0438\u0442\u0430", "addr:housenumber": "23", "ref:RS:uk": 22018}}, {"type": "Feature", "geometry": {"type": "Point", "coordinates": [20.45885, 44.82104]}, "properties": {"name": "\u041c\u0443\u0437\u0435\u0458 \u0412\u0443\u043a\u0430 \u0438 \u0414\u043e\u0441\u0438\u0442\u0435\u0458\u0430", "name:sr": "\u041c\u0443\u0437\u0435\u0458 \u0412\u0443\u043a\u0430 \u0438 \u0414\u043e\u0441\u0438\u0442\u0435\u0458\u0430", "name:sr-Latn": "Muzej Vuka i Dositeja", "name:en": "Museum of Vuk and Dositej", "name:ru": "\u041c\u0443\u0437\u0435\u0439 \u0412\u0443\u043a\u0430 \u0438 \u0414\u043e\u0441\u0438\u0444\u0435\u044f", "name:zh": "\u6b66\u514b\u4e0e\u591a\u897f\u6cf0\u4f0a\u535a\u7269\u9986", "email": "vukidositej@narodnimuzej.rs", "phone": "+381 2625 161", "website": "www.narodnimuzej.rs", "addr:street": "\u0413\u043e\u0441\u043f\u043e\u0434\u0430\u0440 \u0408\u0435\u0432\u0440\u0435\u043c\u043e\u0432\u0430", "addr:housenumber": "21", "ref:RS:uk": 22492}}, {"type": "Feature", "geometry": {"type": "Point", "coordinates": [19.38313, 45.25037]}, "properties": {"name": "\u041c\u0443\u0437\u0435\u0458 \u0433\u0440\u0430\u0434\u0430 \u0411\u0430\u0447\u043a\u0430 \u041f\u0430\u043b\u0430\u043d\u043a\u0430 ", "name:sr": "\u041c\u0443\u0437\u0435\u0458 \u0433\u0440\u0430\u0434\u0430 \u0411\u0430\u0447\u043a\u0430 \u041f\u0430\u043b\u0430\u043d\u043a\u0430 ", "name:sr-Latn": "Muzej grada Ba\u010dka Palanka ", "name:en": "Ba\u010dka Palanka Museum", "name:ru": "\u041c\u0443\u0437\u0435\u0439\u043d\u043e\u0435 \u043f\u043e\u0434\u0440\u0430\u0437\u0434\u0435\u043b\u0435\u043d\u0438\u0435 \u0411\u0430\u0447\u043a\u0430-\u041f\u0430\u043b\u0430\u043d\u043a\u0430", "name:zh": "\u5df4\u6c60\u5e15\u5170\u5361\u535a\u7269\u9986\u5355\u5143", "email": "kulturnicentarbp@gmail.com", "phone": "+381 6041 644; +381 063 403 224", "website": "www.kcbp.rs", "addr:street": "\u0422\u0440\u0433 \u0431\u0440\u0430\u0442\u0441\u0442\u0432\u0430 \u0458\u0435\u0434\u0438\u043d\u0441\u0442\u0432\u0430", "addr:housenumber": "21", "ref:RS:uk": 22485}}, {"type": "Feature", "geometry": {"type": "Point", "coordinates": [20.45671, 44.81664]}, "properties": {"name": "\u041c\u0443\u0437\u0435\u0458 \u0433\u0440\u0430\u0434\u0430 \u0411\u0435\u043e\u0433\u0440\u0430\u0434\u0430", "name:sr": "\u041c\u0443\u0437\u0435\u0458 \u0433\u0440\u0430\u0434\u0430 \u0411\u0435\u043e\u0433\u0440\u0430\u0434\u0430", "name:sr-Latn": "Muzej grada Beograda", "name:en": "The Belgrade City Museum", "name:ru": "\u041c\u0443\u0437\u0435\u0439 \u0433\u043e\u0440\u043e\u0434\u0430 \u0411\u0435\u043b\u0433\u0440\u0430\u0434\u0430", "name:zh": "\u8d1d\u5c14\u683c\u83b1\u5fb7\u57ce\u5e02\u535a\u7269\u9986", "email": "office@mgb.org.rs", "phone": "+381 2638 744; +381 112630 825; +381 060 5005 137", "website": "www.mgb.org.rs", "addr:street": "\u0417\u043c\u0430\u0458 \u0408\u043e\u0432\u0438\u043d\u0430", "addr:housenumber": "1", "ref:RS:uk": 21944}}, {"type": "Feature", "geometry": {"type": "Point", "coordinates": [19.862, 45.25234]}, "properties": {"name": "\u041c\u0443\u0437\u0435\u0458 \u0433\u0440\u0430\u0434\u0430 \u041d\u043e\u0432\u043e\u0433 \u0421\u0430\u0434\u0430, \u041f\u0435\u0442\u0440\u043e\u0432\u0430\u0440\u0430\u0434\u0438\u043d", "name:sr": "\u041c\u0443\u0437\u0435\u0458 \u0433\u0440\u0430\u0434\u0430 \u041d\u043e\u0432\u043e\u0433 \u0421\u0430\u0434\u0430, \u041f\u0435\u0442\u0440\u043e\u0432\u0430\u0440\u0430\u0434\u0438\u043d", "name:sr-Latn": "Muzej grada Novog Sada, Petrovaradin", "name:en": "City Museum of Novi Sad", "name:ru": "\u041c\u0443\u0437\u0435\u0439 \u0433\u043e\u0440\u043e\u0434\u0430 \u041d\u043e\u0432\u0438-\u0421\u0430\u0434\u0430, \u041f\u0435\u0442\u0440\u043e\u0432\u0430\u0440\u0430\u0434\u0438\u043d", "name:zh": "\u5f7c\u5f97\u7f57\u74e6\u62c9\u4e01\u8bfa\u7ef4\u8428\u5fb7\u57ce\u5e02\u535a\u7269\u9986", "email": "muzejgrada.ns@gmail.com", "phone": "+381 6432 055; +381 216433 613; +381 216433 145; +381 062  807 19 47", "website": "www.museumns.rs", "addr:street": "\u0422\u0432\u0440\u0452\u0430\u0432\u0430", "addr:housenumber": "4", "ref:RS:uk": 22006}}, {"type": "Feature", "geometry": {"type": "Point", "coordinates": [20.46376, 44.8125]}, "properties": {"name": "\u041c\u0443\u0437\u0435\u0458 \u0436\u0440\u0442\u0430\u0432\u0430 \u0433\u0435\u043d\u043e\u0446\u0438\u0434\u0430 \u0411\u0435\u043e\u0433\u0440\u0430\u0434", "name:sr": "\u041c\u0443\u0437\u0435\u0458 \u0436\u0440\u0442\u0430\u0432\u0430 \u0433\u0435\u043d\u043e\u0446\u0438\u0434\u0430 \u0411\u0435\u043e\u0433\u0440\u0430\u0434", "name:sr-Latn": "Muzej \u017ertava genocida Beograd", "name:en": "Museum of genocide victims", "name:ru": "\u041c\u0443\u0437\u0435\u0439 \u0436\u0435\u0440\u0442\u0432 \u0433\u0435\u043d\u043e\u0446\u0438\u0434\u0430 \u0411\u0435\u043b\u0433\u0440\u0430\u0434", "name:zh": "\u8d1d\u5c14\u683c\u83b1\u5fb7\u79cd\u65cf\u706d\u7edd\u53d7\u5bb3\u8005\u535a\u7269\u9986", "email": "office@muzejgenocida.rs", "phone": "+381 3398 782; +381 113398 883; +381 069 2556 501", "website": "www.muzejgenocida.rs", "addr:street": "\u0422\u0440\u0433 \u041d\u0438\u043a\u043e\u043b\u0435 \u041f\u0430\u0448\u0438\u045b\u0430", "addr:housenumber": "11/III", "ref:RS:uk": 21964}}, {"type": "Feature", "geometry": {"type": "Point", "coordinates": [20.49534, 44.74716]}, "properties": {"name": "\u041c\u0443\u0437\u0435\u0458 \u0437\u0430 \u0438\u0441\u0442\u043e\u0440\u0438\u0458\u0443 \u0444\u0430\u0440\u043c\u0430\u0446\u0438\u0458\u0435 \u0424\u0430\u0440\u043c\u0430\u0446\u0435\u0443\u0442\u0441\u043a\u043e\u0433 \u0444\u0430\u043a\u0443\u043b\u0442\u0435\u0442\u0430 \u0423\u043d\u0438\u0432\u0435\u0440\u0437\u0438\u0442\u0435\u0442\u0430 \u0443 \u0411\u0435\u043e\u0433\u0440\u0430\u0434\u0443", "name:sr": "\u041c\u0443\u0437\u0435\u0458 \u0437\u0430 \u0438\u0441\u0442\u043e\u0440\u0438\u0458\u0443 \u0444\u0430\u0440\u043c\u0430\u0446\u0438\u0458\u0435 \u0424\u0430\u0440\u043c\u0430\u0446\u0435\u0443\u0442\u0441\u043a\u043e\u0433 \u0444\u0430\u043a\u0443\u043b\u0442\u0435\u0442\u0430 \u0423\u043d\u0438\u0432\u0435\u0440\u0437\u0438\u0442\u0435\u0442\u0430 \u0443 \u0411\u0435\u043e\u0433\u0440\u0430\u0434\u0443", "name:sr-Latn": "Muzej za istoriju farmacije Farmaceutskog fakulteta Univerziteta u Beogradu", "name:en": "The History of Pharmacy Museum at The Faculty of P", "name:ru": "\u041c\u0443\u0437\u0435\u0439 \u0438\u0441\u0442\u043e\u0440\u0438\u0438 \u0444\u0430\u0440\u043c\u0430\u0446\u0435\u0432\u0442\u0438\u043a\u0438 \u0424\u0430\u0440\u043c\u0430\u0446\u0435\u0432\u0442\u0438\u0447\u0435\u0441\u043a\u0438\u0439 \u0444\u0430\u043a\u0443\u043b\u044c\u0442\u0435\u0442 \u0411\u0435\u043b\u0433\u0440\u0430\u0434\u0441\u043a\u043e\u0433\u043e \u0443\u043d\u0438\u0432\u0435\u0440\u0441\u0438\u0442\u0435\u0442\u0430", "name:zh": "\u8d1d\u5c14\u683c\u83b1\u5fb7\u5927\u5b66\u836f\u5b66\u9662\u533b\u836f\u5386\u53f2\u535a\u7269\u9986", "email": "info@pharmacy.bg.ac.rs", "phone": "+381 3951 278; +381 064 1908 222", "website": "www.pharmacy.bg.ac.rs", "addr:street": "\u0412\u043e\u0458\u0432\u043e\u0434\u0435 \u0421\u0442\u0435\u043f\u0435", "addr:housenumber": "450", "ref:RS:uk": 22019}}, {"type": "Feature", "geometry": {"type": "Point", "coordinates": [19.22458, 44.53159]}, "properties": {"name": "\u041c\u0443\u0437\u0435\u0458 \u0408\u0430\u0434\u0440\u0430 \u041b\u043e\u0437\u043d\u0438\u0446\u0430", "name:sr": "\u041c\u0443\u0437\u0435\u0458 \u0408\u0430\u0434\u0440\u0430 \u041b\u043e\u0437\u043d\u0438\u0446\u0430", "name:sr-Latn": "Muzej Jadra Loznica", "name:en": "Cultural Center \"Vuk Karad\u017eic\" Loznica", "name:ru": "\u041c\u0443\u0437\u0435\u0439 \u042f\u0434\u0440\u0430 \u041b\u043e\u0437\u043d\u0438\u0446\u0430", "name:zh": "\u6d1b\u5179\u5c3c\u5bdf\u96c5\u5fb7\u62c9\u535a\u7269\u9986", "email": "centarkultureloznica@gmail.com", "phone": "+381 875 422", "website": "www.ckvkaradzic.org.rs", "addr:street": "\u041f\u0430\u0448\u0438\u045b\u0435\u0432\u0430", "addr:housenumber": "25", "ref:RS:uk": 22487}}, {"type": "Feature", "geometry": {"type": "Point", "coordinates": [20.45203, 44.78807]}, "properties": {"name": "\u041c\u0443\u0437\u0435\u0458 \u0408\u0443\u0433\u043e\u0441\u043b\u0430\u0432\u0438\u0458\u0435", "name:sr": "\u041c\u0443\u0437\u0435\u0458 \u0408\u0443\u0433\u043e\u0441\u043b\u0430\u0432\u0438\u0458\u0435", "name:sr-Latn": "Muzej Jugoslavije", "name:en": "Museum of Yugoslav History", "name:ru": "\u041c\u0443\u0437\u0435\u0439 \u0438\u0441\u0442\u043e\u0440\u0438\u0438 \u042e\u0433\u043e\u0441\u043b\u0430\u0432\u0438\u0438 - \u0423\u0447\u0440\u0435\u0436\u0434\u0435\u043d\u0438\u0435 \u043a\u0443\u043b\u044c\u0442\u0443\u0440\u044b \u043d\u0430\u0446\u0438\u043e\u043d\u0430\u043b\u044c\u043d\u043e\u0433\u043e \u0437\u043d\u0430\u0447\u0435\u043d\u0438\u044f", "name:zh": "\u56fd\u5bb6\u91cd\u8981\u6587\u5316\u673a\u6784\u5357\u65af\u62c9\u592b\u5386\u53f2\u535a\u7269\u9986", "email": "info@mij.rs", "phone": "+381 3671 485", "website": "www.mij.rs", "addr:street": "\u0411\u043e\u0442\u0438\u045b\u0435\u0432\u0430", "addr:housenumber": "6", "ref:RS:uk": 21945}}, {"type": "Feature", "geometry": {"type": "Point", "coordinates": [20.46534, 44.79432]}, "properties": {"name": "\u041c\u0443\u0437\u0435\u0458 \u041a\u0430\u0442\u0435\u0434\u0440\u0435 \u0437\u0430 \u0430\u043d\u0430\u0442\u043e\u043c\u0438\u0458\u0443 \u0424\u0430\u043a\u0443\u043b\u0442\u0435\u0442\u0430 \u0432\u0435\u0442\u0435\u0440\u0438\u043d\u0430\u0440\u0441\u043a\u0435 \u043c\u0435\u0434\u0438\u0446\u0438\u043d\u0435", "name:sr": "\u041c\u0443\u0437\u0435\u0458 \u041a\u0430\u0442\u0435\u0434\u0440\u0435 \u0437\u0430 \u0430\u043d\u0430\u0442\u043e\u043c\u0438\u0458\u0443 \u0424\u0430\u043a\u0443\u043b\u0442\u0435\u0442\u0430 \u0432\u0435\u0442\u0435\u0440\u0438\u043d\u0430\u0440\u0441\u043a\u0435 \u043c\u0435\u0434\u0438\u0446\u0438\u043d\u0435", "name:sr-Latn": "Muzej Katedre za anatomiju Fakulteta veterinarske medicine", "name:en": "Faculty of veterinary medicine", "name:ru": "\u041c\u0443\u0437\u0435\u0439 \u043a\u0430\u0444\u0435\u0434\u0440\u044b \u0430\u043d\u0430\u0442\u043e\u043c\u0438\u0438 \u0444\u0430\u043a\u0443\u043b\u044c\u0442\u0435\u0442\u0430 \u0432\u0435\u0442\u0435\u0440\u0438\u043d\u0430\u0440\u043d\u043e\u0439 \u043c\u0435\u0434\u0438\u0446\u0438\u043d\u044b", "name:zh": "\u517d\u533b\u5b66\u9662\u89e3\u5256\u5b66\u6559\u7814\u5ba4\u535a\u7269\u9986", "email": "dekanat@vet.bg.ac.rs", "phone": "+381 3615 437; +381 062 8039 703", "website": "www.katedre.vet.bg.ac.rs/~anatomija/muzej/omuzeju.html", "addr:street": "\u0411\u0443\u043b.\u043e\u0441\u043b\u043e\u0431\u043e\u0452\u0435\u045a\u0430", "addr:housenumber": "18", "ref:RS:uk": 22009}}, {"type": "Feature", "geometry": {"type": "Point", "coordinates": [20.51382, 45.18999]}, "properties": {"name": "\u041c\u0443\u0437\u0435\u0458 \u041c\u0438\u0445\u0430\u0458\u043b\u0430 \u041f\u0443\u043f\u0438\u043d\u0430 - \u0418\u0434\u0432\u043e\u0440", "name:sr": "\u041c\u0443\u0437\u0435\u0458 \u041c\u0438\u0445\u0430\u0458\u043b\u0430 \u041f\u0443\u043f\u0438\u043d\u0430 - \u0418\u0434\u0432\u043e\u0440", "name:sr-Latn": "Muzej Mihajla Pupina - Idvor", "name:en": "Museum complex Mihajlo Pupin Idvor", "name:ru": "\u041c\u0443\u0437\u0435\u0439 \u041c\u0438\u0445\u0430\u0439\u043b\u043e \u041f\u0443\u043f\u0438\u043d\u0430 - \u0418\u0434\u0432\u043e\u0440", "name:zh": "\u4f0a\u5fb7\u6c83\u5c14\u7c73\u54c8\u4f0a\u5c14\u00b7\u666e\u5e73\u535a\u7269\u9986", "email": "domkultureidvor@gmail.com", "phone": "+381 676 240; +381 062 256 341", "website": "www.muzejpupina.rs", "addr:street": "\u0418\u0432\u0435 \u041b\u043e\u043b\u0435 \u0420\u0438\u0431\u0430\u0440\u0430", "addr:housenumber": "47", "ref:RS:uk": 22010}}, {"type": "Feature", "geometry": {"type": "Point", "coordinates": [20.6954, 44.43958]}, "properties": {"name": "\u041c\u0443\u0437\u0435\u0458 \u041c\u043b\u0430\u0434\u0435\u043d\u043e\u0432\u0446\u0430", "name:sr": "\u041c\u0443\u0437\u0435\u0458 \u041c\u043b\u0430\u0434\u0435\u043d\u043e\u0432\u0446\u0430", "name:sr-Latn": "Muzej Mladenovca", "name:en": "\u041cuseum of Mladenovac", "name:ru": "\u041c\u0443\u0437\u0435\u0439 \u041c\u043b\u0430\u0434\u0435\u043d\u043e\u0432\u0430\u0446\u0430", "name:zh": "\u59c6\u62c9\u5fb7\u8bfa\u74e6\u8328\u535a\u7269\u9986", "email": "office@mgb.org.rs", "phone": "+381 8232 969", "website": "www.mgb.org.rs", "addr:street": "\u0410\u043b\u0435\u043a\u0441\u0430\u043d\u0434\u0440\u043e\u0432\u0430", "addr:housenumber": "69", "ref:RS:uk": 22480}}, {"type": "Feature", "geometry": {"type": "Point", "coordinates": [21.26269, 43.98168]}, "properties": {"name": "\u041c\u0443\u0437\u0435\u0458 \u043d\u0430\u0438\u0432\u043d\u0435 \u0438 \u043c\u0430\u0440\u0433\u0438\u043d\u0430\u043b\u043d\u0435 \u0443\u043c\u0435\u0442\u043d\u043e\u0441\u0442\u0438 \u0408\u0430\u0433\u043e\u0434\u0438\u043d\u0430", "name:sr": "\u041c\u0443\u0437\u0435\u0458 \u043d\u0430\u0438\u0432\u043d\u0435 \u0438 \u043c\u0430\u0440\u0433\u0438\u043d\u0430\u043b\u043d\u0435 \u0443\u043c\u0435\u0442\u043d\u043e\u0441\u0442\u0438 \u0408\u0430\u0433\u043e\u0434\u0438\u043d\u0430", "name:sr-Latn": "Muzej naivne i marginalne umetnosti Jagodina", "name:en": "Museum of naive and magrinal art Jagodina", "name:ru": "\u041c\u0443\u0437\u0435\u0439 \u043d\u0430\u0438\u0432\u043d\u043e\u0433\u043e \u0438 \u043c\u0430\u0440\u0433\u0438\u043d\u0430\u043b\u044c\u043d\u043e\u0433\u043e \u0438\u0441\u043a\u0443\u0441\u0441\u0442\u0432\u0430 \u042f\u0433\u043e\u0434\u0438\u043d\u0430", "name:zh": "\u96c5\u6208\u8482\u90a3\u6734\u7d20\u4e0e\u975e\u4e3b\u6d41\u827a\u672f\u535a\u7269\u9986", "email": "info@naiveart.rs", "phone": "+381 8223 419; +381 35244 317", "website": "www.naiveart.rs", "addr:street": "\u0411\u043e\u0448\u043a\u0430 \u0402\u0443\u0440\u0438\u0447\u0438\u045b\u0430", "addr:housenumber": "10", "ref:RS:uk": 21949}}, {"type": "Feature", "geometry": {"type": "Point", "coordinates": [19.22799, 45.12738]}, "properties": {"name": "\u041c\u0443\u0437\u0435\u0458 \u043d\u0430\u0438\u0432\u043d\u0435 \u0443\u043c\u0435\u0442\u043d\u043e\u0441\u0442\u0438 \u201e\u0418\u043b\u0438\u0458\u0430\u043d\u0443\u043c\u201d \u0428\u0438\u0434", "name:sr": "\u041c\u0443\u0437\u0435\u0458 \u043d\u0430\u0438\u0432\u043d\u0435 \u0443\u043c\u0435\u0442\u043d\u043e\u0441\u0442\u0438 \u201e\u0418\u043b\u0438\u0458\u0430\u043d\u0443\u043c\u201d \u0428\u0438\u0434", "name:sr-Latn": "Muzej naivne umetnosti \u201eIlijanum\u201d \u0160id", "name:en": "Museum of Na\u00efve Art \"Ilijanum\"", "name:ru": "\u041c\u0443\u0437\u0435\u0439 \u043d\u0430\u0438\u0432\u043d\u043e\u0433\u043e \u0438\u0441\u043a\u0443\u0441\u0441\u0442\u0432\u0430 \u201e\u0418\u043b\u0438\u044f\u043d\u0443\u043c\u201d \u0428\u0438\u0434", "name:zh": "\u897f\u5f97\u201c\u4f0a\u5229\u4e9a\u52aa\u59c6\u201d\u6734\u7d20\u827a\u672f\u535a\u7269\u9986", "email": "ilijabosilj@gmail.com", "phone": "+381 715 418; +381 062 755 852", "website": "www.mnuilijanum.rs", "addr:street": "\u0421\u0432\u0435\u0442\u043e\u0433 \u0421\u0430\u0432\u0435", "addr:housenumber": "5", "ref:RS:uk": 21950}}, {"type": "Feature", "geometry": {"type": "Point", "coordinates": [20.46053, 44.81677]}, "properties": {"name": "\u041c\u0443\u0437\u0435\u0458 \u041d\u0430\u0440\u043e\u0434\u043d\u043e\u0433 \u043f\u043e\u0437\u043e\u0440\u0438\u0448\u0442\u0430", "name:sr": "\u041c\u0443\u0437\u0435\u0458 \u041d\u0430\u0440\u043e\u0434\u043d\u043e\u0433 \u043f\u043e\u0437\u043e\u0440\u0438\u0448\u0442\u0430", "name:sr-Latn": "Muzej Narodnog pozori\u0161ta", "name:en": "Museum of The National Theatre in Belgrade", "name:ru": "\u041c\u0443\u0437\u0435\u0439 \u041d\u0430\u0440\u043e\u0434\u043d\u043e\u0433\u043e \u0442\u0435\u0430\u0442\u0440\u0430", "name:zh": "\u56fd\u5bb6\u5927\u5267\u9662\u535a\u7269\u9986", "email": "muzej@narodnopozoriste.rs", "phone": "+381 3284 473; +381 113281 333; +381 060 2240 025", "website": "www.narodnopozoriste.rs", "addr:street": "\u0414\u043e\u0441\u0438\u0442\u0435\u0458\u0435\u0432\u0430", "addr:housenumber": "2", "ref:RS:uk": 22030}}, {"type": "Feature", "geometry": {"type": "Point", "coordinates": [20.46519, 44.82174]}, "properties": {"name": "\u041c\u0443\u0437\u0435\u0458 \u043d\u0430\u0443\u043a\u0435 \u0438 \u0442\u0435\u0445\u043d\u0438\u043a\u0435 \u0411\u0435\u043e\u0433\u0440\u0430\u0434", "name:sr": "\u041c\u0443\u0437\u0435\u0458 \u043d\u0430\u0443\u043a\u0435 \u0438 \u0442\u0435\u0445\u043d\u0438\u043a\u0435 \u0411\u0435\u043e\u0433\u0440\u0430\u0434", "name:sr-Latn": "Muzej nauke i tehnike Beograd", "name:en": "Museum of Science and Technology Belgrade", "name:ru": "\u041c\u0443\u0437\u0435\u0439 \u043d\u0430\u0443\u043a\u0438 \u0438 \u0442\u0435\u0445\u043d\u0438\u043a\u0438 \u0411\u0435\u043b\u0433\u0440\u0430\u0434", "name:zh": "\u8d1d\u5c14\u683c\u83b1\u5fb7\u79d1\u6280\u535a\u7269\u9986", "email": "mnt@muzejnt.rs", "phone": "+381 3037 850", "website": "www.muzejnt.rs", "addr:street": "\u0421\u043a\u0435\u043d\u0434\u0435\u0440 \u0431\u0435\u0433\u043e\u0432\u0430", "addr:housenumber": "51", "ref:RS:uk": 21951}}, {"type": "Feature", "geometry": {"type": "Point", "coordinates": [20.47103, 44.80487]}, "properties": {"name": "\u041c\u0443\u0437\u0435\u0458 \u041d\u0438\u043a\u043e\u043b\u0435 \u0422\u0435\u0441\u043b\u0435", "name:sr": "\u041c\u0443\u0437\u0435\u0458 \u041d\u0438\u043a\u043e\u043b\u0435 \u0422\u0435\u0441\u043b\u0435", "name:sr-Latn": "Muzej Nikole Tesle", "name:en": "Nikola Tesla Museum", "name:ru": "\u041c\u0443\u0437\u0435\u0439 \u041d\u0438\u043a\u043e\u043b\u044b \u0422\u0435\u0441\u043b\u0430", "name:zh": "\u5c3c\u53e4\u62c9\u00b7\u7279\u65af\u62c9\u535a\u7269\u9986", "email": "info@tesla-museum.org", "phone": "+381 2433 886", "website": "www.nikolateslamuseum.org", "addr:street": "\u041a\u0440\u0443\u043d\u0441\u043a\u0430", "addr:housenumber": "51", "ref:RS:uk": 22011}}, {"type": "Feature", "geometry": {"type": "Point", "coordinates": [19.6298, 45.81513]}, "properties": {"name": "\u041c\u0443\u0437\u0435\u0458 \u043e\u043f\u0448\u0442\u0438\u043d\u0435 \u0411\u0430\u0447\u043a\u0430 \u0422\u043e\u043f\u043e\u043b\u0430 - Topolya K\u00f6zs\u00e9g M\u00fazeuma", "name:sr": "\u041c\u0443\u0437\u0435\u0458 \u043e\u043f\u0448\u0442\u0438\u043d\u0435 \u0411\u0430\u0447\u043a\u0430 \u0422\u043e\u043f\u043e\u043b\u0430 - Topolya K\u00f6zs\u00e9g M\u00fazeuma", "name:sr-Latn": "Muzej op\u0161tine Ba\u010dka Topola - Topolya K\u00f6zs\u00e9g M\u00fazeuma", "name:en": "Municipal Museum of Ba\u010dka Topola", "name:ru": "\u041c\u0443\u0437\u0435\u0439 \u043c\u0443\u043d\u0438\u0446\u0438\u043f\u0430\u043b\u0438\u0442\u0435\u0442\u0430 \u0411\u0430\u0447\u043a\u0430-\u0422\u043e\u043f\u043e\u043b\u0430 - Topolya K\u00f6zs\u00e9g M\u00fazeuma", "name:zh": "\u5df4\u6c60\u6258\u73c0\u62c9\u57ce\u533a\u535a\u7269\u9986", "email": "topmuz@gmail.com", "phone": "+381 716 093; +381 065 5551 285", "addr:street": "\u041c\u0430\u0440\u0448\u0430\u043b\u0430 \u0422\u0438\u0442\u0430", "addr:housenumber": "60", "ref:RS:uk": 22001}}, {"type": "Feature", "geometry": {"type": "Point", "coordinates": [20.46424, 44.8074]}, "properties": {"name": "\u041c\u0443\u0437\u0435\u0458 \u041f\u0430\u0458\u0435 \u0408\u043e\u0432\u0430\u043d\u043e\u0432\u0438\u045b\u0430 \u0411\u0435\u043e\u0433\u0440\u0430\u0434", "name:sr": "\u041c\u0443\u0437\u0435\u0458 \u041f\u0430\u0458\u0435 \u0408\u043e\u0432\u0430\u043d\u043e\u0432\u0438\u045b\u0430 \u0411\u0435\u043e\u0433\u0440\u0430\u0434", "name:sr-Latn": "Muzej Paje Jovanovi\u0107a Beograd", "name:en": "Museum of Paja Jovanovi\u0107", "name:ru": "\u041c\u0443\u0437\u0435\u0439 \u041f\u0430\u0439\u0438 \u0419\u043e\u0432\u0430\u043d\u043e\u0432\u0438\u0447\u0430 \u0411\u0435\u043b\u0433\u0440\u0430\u0434", "name:zh": "\u8d1d\u5c14\u683c\u83b1\u5fb7\u201c\u5e15\u4e9a\u00b7\u7ea6\u4e07\u8bfa\u7ef4\u5947\u201d\u535a\u7269\u9986", "email": "office@mgb.org.rs", "phone": "+381 3340 176", "website": "www.mgb.org.rs", "addr:street": "\u041a\u0440\u0430\u0459\u0430 \u041c\u0438\u043b\u0430\u043d\u0430", "addr:housenumber": "21", "ref:RS:uk": 22489}}, {"type": "Feature", "geometry": {"type": "Point", "coordinates": [20.45859, 44.8213]}, "properties": {"name": "\u041c\u0443\u0437\u0435\u0458 \u043f\u043e\u0437\u043e\u0440\u0438\u0448\u043d\u0435 \u0443\u043c\u0435\u0442\u043d\u043e\u0441\u0442\u0438 \u0421\u0440\u0431\u0438\u0458\u0435", "name:sr": "\u041c\u0443\u0437\u0435\u0458 \u043f\u043e\u0437\u043e\u0440\u0438\u0448\u043d\u0435 \u0443\u043c\u0435\u0442\u043d\u043e\u0441\u0442\u0438 \u0421\u0440\u0431\u0438\u0458\u0435", "name:sr-Latn": "Muzej pozori\u0161ne umetnosti Srbije", "name:en": "Muzej pozori\u0161ne umetnosti Srbije", "name:ru": "\u041c\u0443\u0437\u0435\u0439 \u0442\u0435\u0430\u0442\u0440\u0430\u043b\u044c\u043d\u043e\u0433\u043e \u0438\u0441\u043a\u0443\u0441\u0441\u0442\u0432\u0430 \u0421\u0435\u0440\u0431\u0438\u0438", "name:zh": "\u56fd\u5bb6\u91cd\u8981\u6587\u5316\u673a\u6784\u585e\u5c14\u7ef4\u4e9a\u827a\u672f\u5267\u9662\u535a\u7269\u9986", "email": "office@mpus.org.rs", "phone": "+381 2626 630; +381 112628 920", "website": "www.mpus.org.rs", "addr:street": "\u0413\u043e\u0441\u043f\u043e\u0434\u0430\u0440 \u0408\u0435\u0432\u0440\u0435\u043c\u043e\u0432\u0430", "addr:housenumber": "19", "ref:RS:uk": 21953}}, {"type": "Feature", "geometry": {"type": "Point", "coordinates": [22.58881, 43.16174]}, "properties": {"name": "\u041c\u0443\u0437\u0435\u0458 \u041f\u043e\u043d\u0438\u0448\u0430\u0432\u0459\u0430 \u041f\u0438\u0440\u043e\u0442", "name:sr": "\u041c\u0443\u0437\u0435\u0458 \u041f\u043e\u043d\u0438\u0448\u0430\u0432\u0459\u0430 \u041f\u0438\u0440\u043e\u0442", "name:sr-Latn": "Muzej Poni\u0161avlja Pirot", "name:en": "Ponisavlje Museum Pirot", "name:ru": "\u041c\u0443\u0437\u0435\u0439 \u041f\u043e\u043d\u0438\u0448\u0430\u0432\u043b\u044f \u041f\u0438\u0440\u043e\u0442", "name:zh": "\u76ae\u6d1b\u7279\u73c0\u5c3c\u6c99\u5f17\u5229\u4e9a\u535a\u7269\u9986", "email": "muzejpirot@gmail.com", "phone": "+381 313 850", "website": "www.muzejpirot.com", "addr:street": "\u041d\u0438\u043a\u043e\u043b\u0435 \u041f\u0430\u0448\u0438\u045b\u0430", "addr:housenumber": "49", "ref:RS:uk": 21952}}, {"type": "Feature", "geometry": {"type": "Point", "coordinates": [20.45459, 44.81703]}, "properties": {"name": "\u041c\u0443\u0437\u0435\u0458 \u043f\u0440\u0438\u043c\u0435\u045a\u0435\u043d\u0435 \u0443\u043c\u0435\u0442\u043d\u043e\u0441\u0442\u0438 \u0411\u0435\u043e\u0433\u0440\u0430\u0434", "name:sr": "\u041c\u0443\u0437\u0435\u0458 \u043f\u0440\u0438\u043c\u0435\u045a\u0435\u043d\u0435 \u0443\u043c\u0435\u0442\u043d\u043e\u0441\u0442\u0438 \u0411\u0435\u043e\u0433\u0440\u0430\u0434", "name:sr-Latn": "Muzej primenjene umetnosti Beograd", "name:en": "Museum of Applied Art Belgrade", "name:ru": "\u041c\u0443\u0437\u0435\u0439 \u043f\u0440\u0438\u043a\u043b\u0430\u0434\u043d\u043e\u0433\u043e \u0438\u0441\u043a\u0443\u0441\u0441\u0442\u0432\u0430 \u0411\u0435\u043b\u0433\u0440\u0430\u0434", "name:zh": "\u8d1d\u5c14\u683c\u83b1\u5fb7\u5e94\u7528\u827a\u672f\u535a\u7269\u9986", "email": "info@mpu.rs", "phone": "+381 2626 841; +381 112626 494", "website": "www.mpu.rs", "addr:street": "\u0412\u0443\u043a\u0430 \u041a\u0430\u0440\u0430\u045f\u0438\u045b\u0430", "addr:housenumber": "18", "ref:RS:uk": 21954}}, {"type": "Feature", "geometry": {"type": "Point", "coordinates": [22.09945, 44.07485]}, "properties": {"name": "\u041c\u0443\u0437\u0435\u0458 \u0440\u0443\u0434\u0430\u0440\u0441\u0442\u0432\u0430 \u0438 \u043c\u0435\u0442\u0430\u043b\u0443\u0440\u0433\u0438\u0458\u0435 \u0411\u043e\u0440", "name:sr": "\u041c\u0443\u0437\u0435\u0458 \u0440\u0443\u0434\u0430\u0440\u0441\u0442\u0432\u0430 \u0438 \u043c\u0435\u0442\u0430\u043b\u0443\u0440\u0433\u0438\u0458\u0435 \u0411\u043e\u0440", "name:sr-Latn": "Muzej rudarstva i metalurgije Bor", "name:en": "Museum of Mining and Metallurgy Bor", "name:ru": "\u041c\u0443\u0437\u0435\u0439 \u0433\u043e\u0440\u043d\u043e\u0433\u043e \u0434\u0435\u043b\u0430 \u0438 \u043c\u0435\u0442\u0430\u043b\u043b\u0443\u0440\u0433\u0438\u0438 \u0411\u043e\u0440", "name:zh": "\u6ce2\u5c14\u91c7\u77ff\u51b6\u91d1\u535a\u7269\u9986", "email": "muzejrim@mts.rs", "phone": "+381 423 560; +381 060 6000 374", "website": "www.muzejrudarstvaimetalurgije.rs", "addr:street": "\u041c\u043e\u0448\u0435 \u041f\u0438\u0458\u0430\u0434\u0435", "addr:housenumber": "19", "ref:RS:uk": 21955}}, {"type": "Feature", "geometry": {"type": "Point", "coordinates": [20.46195, 44.02396]}, "properties": {"name": "\u041c\u0443\u0437\u0435\u0458 \u0440\u0443\u0434\u043d\u0438\u0447\u043a\u043e \u0442\u0430\u043a\u043e\u0432\u0441\u043a\u043e\u0433 \u043a\u0440\u0430\u0458\u0430 \u0413\u043e\u0440\u045a\u0438 \u041c\u0438\u043b\u0430\u043d\u043e\u0432\u0430\u0446", "name:sr": "\u041c\u0443\u0437\u0435\u0458 \u0440\u0443\u0434\u043d\u0438\u0447\u043a\u043e \u0442\u0430\u043a\u043e\u0432\u0441\u043a\u043e\u0433 \u043a\u0440\u0430\u0458\u0430 \u0413\u043e\u0440\u045a\u0438 \u041c\u0438\u043b\u0430\u043d\u043e\u0432\u0430\u0446", "name:sr-Latn": "Muzej rudni\u010dko takovskog kraja Gornji Milanovac", "name:en": "MUSEUM OF RUDNIK AND TAKOVO REGION", "name:ru": "\u041c\u0443\u0437\u0435\u0439 \u0420\u0443\u0434\u043d\u0438\u043a\u043e-\u0442\u0430\u043a\u043e\u0432\u0441\u043a\u043e\u0433\u043e \u043a\u0440\u0430\u044f \u0413\u043e\u0440\u043d\u0438-\u041c\u0438\u043b\u0430\u043d\u043e\u0432\u0430\u0446", "name:zh": "\u4e0a\u7c73\u62c9\u8bfa\u74e6\u8328\u5854\u79d1\u592b\u91c7\u77ff\u535a\u7269\u9986", "email": "muzejgm@mts.rs", "phone": "+381 721 335", "website": "www.muzejgm.org", "addr:street": "\u0412\u043e\u0458\u0432\u043e\u0434\u0435 \u0421\u0442\u0435\u0432\u0430\u043d\u0430 \u0421\u0438\u043d\u0452\u0435\u043b\u0438\u045b\u0430", "addr:housenumber": "7", "ref:RS:uk": 21956}}, {"type": "Feature", "geometry": {"type": "Point", "coordinates": [20.44246, 44.81958]}, "properties": {"name": "\u041c\u0443\u0437\u0435\u0458 \u0441\u0430\u0432\u0440\u0435\u043c\u0435\u043d\u0435 \u0443\u043c\u0435\u0442\u043d\u043e\u0441\u0442\u0438 \u0411\u0435\u043e\u0433\u0440\u0430\u0434", "name:sr": "\u041c\u0443\u0437\u0435\u0458 \u0441\u0430\u0432\u0440\u0435\u043c\u0435\u043d\u0435 \u0443\u043c\u0435\u0442\u043d\u043e\u0441\u0442\u0438 \u0411\u0435\u043e\u0433\u0440\u0430\u0434", "name:sr-Latn": "Muzej savremene umetnosti Beograd", "name:en": "Museum of Contemporary Art, Belgrade", "name:ru": "\u041c\u0443\u0437\u0435\u0439 \u0441\u043e\u0432\u0440\u0435\u043c\u0435\u043d\u043d\u043e\u0433\u043e \u0438\u0441\u043a\u0443\u0441\u0441\u0442\u0432\u0430 \u0411\u0435\u043b\u0433\u0440\u0430\u0434", "name:zh": "\u8d1d\u5c14\u683c\u83b1\u5fb7\u73b0\u4ee3\u827a\u672f\u535a\u7269\u9986", "email": "msub@msub.org.rs", "phone": "+381 3115 713; +381 063 8623 726", "website": "www.msub.org.rs", "addr:street": "\u0423\u0448\u045b\u0435", "addr:housenumber": "10", "ref:RS:uk": 21957}}, {"type": "Feature", "geometry": {"type": "Point", "coordinates": [19.85317, 45.25653]}, "properties": {"name": "\u041c\u0443\u0437\u0435\u0458 \u0441\u0430\u0432\u0440\u0435\u043c\u0435\u043d\u0435 \u0443\u043c\u0435\u0442\u043d\u043e\u0441\u0442\u0438 \u0412\u043e\u0458\u0432\u043e\u0434\u0438\u043d\u0435", "name:sr": "\u041c\u0443\u0437\u0435\u0458 \u0441\u0430\u0432\u0440\u0435\u043c\u0435\u043d\u0435 \u0443\u043c\u0435\u0442\u043d\u043e\u0441\u0442\u0438 \u0412\u043e\u0458\u0432\u043e\u0434\u0438\u043d\u0435", "name:sr-Latn": "Muzej savremene umetnosti Vojvodine", "name:en": "Museum of Contemporary Art Vojvodina", "name:ru": "\u041c\u0443\u0437\u0435\u0439 \u0441\u043e\u0432\u0440\u0435\u043c\u0435\u043d\u043d\u043e\u0433\u043e \u0438\u0441\u043a\u0443\u0441\u0441\u0442\u0432\u0430 \u0412\u043e\u0435\u0432\u043e\u0434\u0438\u043d\u044b", "name:zh": "\u4f0f\u4f0a\u4f0f\u4e01\u90a3\u73b0\u4ee3\u827a\u672f\u535a\u7269\u9986", "email": "office@msuv.org", "phone": "+381 526 634; +381  ", "website": "www.msuv.org", "addr:street": "\u0414\u0443\u043d\u0430\u0432\u0441\u043a\u0430", "addr:housenumber": "37", "ref:RS:uk": 22013}}, {"type": "Feature", "geometry": {"type": "Point", "coordinates": [19.60892, 44.96737]}, "properties": {"name": "\u041c\u0443\u0437\u0435\u0458 \u0421\u0440\u0435\u043c\u0430 \u0421\u0440\u0435\u043c\u0441\u043a\u0430 \u041c\u0438\u0442\u0440\u043e\u0432\u0438\u0446\u0430", "name:sr": "\u041c\u0443\u0437\u0435\u0458 \u0421\u0440\u0435\u043c\u0430 \u0421\u0440\u0435\u043c\u0441\u043a\u0430 \u041c\u0438\u0442\u0440\u043e\u0432\u0438\u0446\u0430", "name:sr-Latn": "Muzej Srema Sremska Mitrovica", "name:en": "The Museum of Srem", "name:ru": "\u041c\u0443\u0437\u0435\u0439 \u0421\u0440\u0435\u043c\u0430 \u0421\u0440\u0435\u043c\u0441\u043a\u0430-\u041c\u0438\u0442\u0440\u043e\u0432\u0438\u0446\u0430", "name:zh": "\u65af\u96f7\u59c6\u65af\u5361\u7c73\u7279\u6d1b\u7ef4\u5bdf\u65af\u96f7\u59c6\u535a\u7269\u9986", "email": "info@muzejsrema.com", "phone": "+381 621 150; +381 22623 245", "addr:street": "\u0412\u0443\u043a\u0430 \u041a\u0430\u0440\u0430\u045f\u0438\u045b\u0430", "addr:housenumber": "3", "ref:RS:uk": 21958}}, {"type": "Feature", "geometry": {"type": "Point", "coordinates": [20.45163, 44.81747]}, "properties": {"name": "\u041c\u0443\u0437\u0435\u0458 \u0421\u0440\u043f\u0441\u043a\u0435 \u043f\u0440\u0430\u0432\u043e\u0441\u043b\u0430\u0432\u043d\u0435 \u0446\u0440\u043a\u0432\u0435 \u0411\u0435\u043e\u0433\u0440\u0430\u0434", "name:sr": "\u041c\u0443\u0437\u0435\u0458 \u0421\u0440\u043f\u0441\u043a\u0435 \u043f\u0440\u0430\u0432\u043e\u0441\u043b\u0430\u0432\u043d\u0435 \u0446\u0440\u043a\u0432\u0435 \u0411\u0435\u043e\u0433\u0440\u0430\u0434", "name:sr-Latn": "Muzej Srpske pravoslavne crkve Beograd", "name:en": "Museum of The Serbian Orthodox Church", "name:ru": "\u041c\u0443\u0437\u0435\u0439 \u0421\u0435\u0440\u0431\u0441\u043a\u043e\u0439 \u043f\u0440\u0430\u0432\u043e\u0441\u043b\u0430\u0432\u043d\u043e\u0439 \u0446\u0435\u0440\u043a\u0432\u0438 \u0411\u0435\u043b\u0433\u0440\u0430\u0434", "name:zh": "\u8d1d\u5c14\u683c\u83b1\u5fb7\u585e\u5c14\u7ef4\u4e9a\u4e1c\u6b63\u6559\u4f1a\u535a\u7269\u9986", "email": "muzejspc@gmail.com", "phone": "+381 2638 875; +381 064 1101 912", "website": "www.spc.rs", "addr:street": "\u041a\u0440\u0430\u0459\u0430 \u041f\u0435\u0442\u0440\u0430", "addr:housenumber": "5", "ref:RS:uk": 22015}}, {"type": "Feature", "geometry": {"type": "Point", "coordinates": [20.44268, 44.7929]}, "properties": {"name": "\u041c\u0443\u0437\u0435\u0458 \u0422\u043e\u043c\u0435 \u0420\u043e\u0441\u0430\u043d\u0434\u0438\u045b\u0430", "name:sr": "\u041c\u0443\u0437\u0435\u0458 \u0422\u043e\u043c\u0435 \u0420\u043e\u0441\u0430\u043d\u0434\u0438\u045b\u0430", "name:sr-Latn": "Muzej Tome Rosandi\u0107a", "name:en": "Museum of Toma Rosandi\u0107", "name:ru": "\u041c\u0443\u0437\u0435\u0439 \u0422\u043e\u043c\u044b \u0420\u043e\u0441\u0430\u043d\u0434\u0438\u0447\u0430", "name:zh": "\u6258\u739b\u00b7\u7f57\u6851\u8fea\u5947\u535a\u7269\u9986", "email": "office@mgb.org.rs", "phone": "+381 2651 434", "website": "www.mgb.org.rs", "addr:street": "\u0409\u0443\u0431\u0435 \u0408\u043e\u0432\u0430\u043d\u043e\u0432\u0438\u045b\u0430", "addr:housenumber": "3", "ref:RS:uk": 22490}}, {"type": "Feature", "geometry": {"type": "Point", "coordinates": [21.93682, 44.42311]}, "properties": {"name": "\u041c\u0443\u0437\u0435\u0458 \u0443 \u041c\u0430\u0458\u0434\u0430\u043d\u043f\u0435\u043a\u0443", "name:sr": "\u041c\u0443\u0437\u0435\u0458 \u0443 \u041c\u0430\u0458\u0434\u0430\u043d\u043f\u0435\u043a\u0443", "name:sr-Latn": "Muzej u Majdanpeku", "name:en": "Museum in Majdanpek", "name:ru": "\u041c\u0443\u0437\u0435\u0439 \u0432 \u041c\u0430\u0439\u0434\u0430\u043d\u043f\u0435\u043a\u0435", "name:zh": "\u9a6c\u4f0a\u4e39\u4f69\u514b\u535a\u7269\u9986", "email": "muzej.majdanpek@gmail.com", "phone": "+381 583 459; +381 063 7228 806", "website": "www.muzejmajdanpek.com", "addr:street": "\u0421\u0432\u0435\u0442\u043e\u0433 \u0421\u0430\u0432\u0435", "addr:housenumber": "41", "ref:RS:uk": 21959}}, {"type": "Feature", "geometry": {"type": "Point", "coordinates": [19.64948, 43.38914]}, "properties": {"name": "\u041c\u0443\u0437\u0435\u0458 \u0443 \u041f\u0440\u0438\u0458\u0435\u043f\u043e\u0459\u0443", "name:sr": "\u041c\u0443\u0437\u0435\u0458 \u0443 \u041f\u0440\u0438\u0458\u0435\u043f\u043e\u0459\u0443", "name:sr-Latn": "Muzej u Prijepolju", "name:en": "Museum in Prijepolje", "name:ru": "\u041c\u0443\u0437\u0435\u0439 \u0432 \u041f\u0440\u0438\u0435\u043f\u043e\u043b\u0435", "name:zh": "\u666e\u5229\u8036\u73c0\u5217\u535a\u7269\u9986", "email": "muzejpri@mts.rs", "phone": "+381 715 185; +381 31710 162; +381 060 7132 300", "website": "www.muzejuprijepolju.org.rs", "addr:street": "\u0412\u043b\u0430\u0434\u0438\u043c\u0438\u0440\u0430 \u041f\u0435\u0440\u0438\u045b\u0430 \u0412\u0430\u043b\u0442\u0435\u0440\u0430", "addr:housenumber": "35", "ref:RS:uk": 21998}}, {"type": "Feature", "geometry": {"type": "Point", "coordinates": [20.45649, 44.81989]}, "properties": {"name": "\u041c\u0443\u0437\u0435\u0458 \u0443 \u041f\u0440\u0438\u0448\u0442\u0438\u043d\u0438 \u0411\u0435\u043e\u0433\u0440\u0430\u0434", "name:sr": "\u041c\u0443\u0437\u0435\u0458 \u0443 \u041f\u0440\u0438\u0448\u0442\u0438\u043d\u0438 \u0411\u0435\u043e\u0433\u0440\u0430\u0434", "name:sr-Latn": "Muzej u Pri\u0161tini Beograd", "name:en": "Museum in Pristina - Belgrade", "name:ru": "\u041c\u0443\u0437\u0435\u0439 \u0432 \u041f\u0440\u0438\u0448\u0442\u0438\u043d\u0435 \u0411\u0435\u043b\u0433\u0440\u0430\u0434", "name:zh": "\u8d1d\u5c14\u683c\u83b1\u5fb7\u666e\u91cc\u4ec0\u8482\u5a1c\u535a\u7269\u9986", "email": "muzejupristini@hotmail.com", "phone": "+381 3281 888; +381 063 429 349", "website": "www.mnemosyne.rs", "addr:street": "\u0421\u0442\u0443\u0434\u0435\u043d\u0442\u0441\u043a\u0438 \u0442\u0440\u0433", "addr:housenumber": "13", "ref:RS:uk": 22016}}, {"type": "Feature", "geometry": {"type": "Point", "coordinates": [20.92751, 44.66687]}, "properties": {"name": "\u041c\u0443\u0437\u0435\u0458 \u0443 \u0421\u043c\u0435\u0434\u0435\u0440\u0435\u0432\u0443", "name:sr": "\u041c\u0443\u0437\u0435\u0458 \u0443 \u0421\u043c\u0435\u0434\u0435\u0440\u0435\u0432\u0443", "name:sr-Latn": "Muzej u Smederevu", "name:en": "The Museum in Smederevo", "name:ru": "\u041c\u0443\u0437\u0435\u0439 \u0432 \u0421\u043c\u0435\u0434\u0435\u0440\u0435\u0432\u043e", "name:zh": "\u65af\u6885\u4ee3\u96f7\u6c83\u535a\u7269\u9986", "email": "info@mus.org.rs", "phone": "+381 4622 138; +381 064 8449 553", "website": "www.mus.org.rs", "addr:street": "\u041e\u043c\u043b\u0430\u0434\u0438\u043d\u0441\u043a\u0430", "addr:housenumber": "4", "ref:RS:uk": 21960}}, {"type": "Feature", "geometry": {"type": "Point", "coordinates": [21.57164, 43.99571]}, "properties": {"name": "\u041c\u0443\u0437\u0435\u0458 \u0443\u0433\u0459\u0430\u0440\u0441\u0442\u0432\u0430 - \u0420\u0435\u0433\u0438\u043e\u043d\u0430\u043b\u043d\u0438 \u0446\u0435\u043d\u0442\u0430\u0440 \u0438\u043d\u0434\u0443\u0441\u0442\u0440\u0438\u0458\u0441\u043a\u043e\u0433 \u043d\u0430\u0441\u043b\u0435\u0452\u0430", "name:sr": "\u041c\u0443\u0437\u0435\u0458 \u0443\u0433\u0459\u0430\u0440\u0441\u0442\u0432\u0430 - \u0420\u0435\u0433\u0438\u043e\u043d\u0430\u043b\u043d\u0438 \u0446\u0435\u043d\u0442\u0430\u0440 \u0438\u043d\u0434\u0443\u0441\u0442\u0440\u0438\u0458\u0441\u043a\u043e\u0433 \u043d\u0430\u0441\u043b\u0435\u0452\u0430", "name:sr-Latn": "Muzej ugljarstva - Regionalni centar industrijskog nasle\u0111a", "name:en": "The Mining museum Senjski Rudnik", "name:ru": "\u041c\u0443\u0437\u0435\u0439 \u0443\u0433\u043e\u043b\u044c\u043d\u043e\u0433\u043e \u0434\u0435\u043b\u0430 \u0421\u0435\u043d\u044c\u0441\u043a\u0438-\u0420\u0443\u0434\u043d\u0438\u043a", "name:zh": "\u8272\u5c3c\u65af\u57fa\u9c81\u5fb7\u5c3c\u514b\u91c7\u7164\u535a\u7269\u9986", "email": "muzej.ugljarstva@jppeu.rs", "phone": "+381 620 735; +381 069 1122 345", "website": "www.muzejugljarstva.rs", "addr:street": "\u0421\u0435\u045a\u0441\u043a\u0438 \u0420\u0443\u0434\u043d\u0438\u043a", "addr:housenumber": "\u0431\u0431", "ref:RS:uk": 22017}}, {"type": "Feature", "geometry": {"type": "Point", "coordinates": [20.42839, 44.76348]}, "properties": {"name": "\u041c\u0443\u0437\u0435\u0458 \u0424\u0430\u043a\u0443\u043b\u0442\u0435\u0442\u0430 \u0441\u043f\u043e\u0440\u0442\u0430 \u0438 \u0444\u0438\u0437\u0438\u0447\u043a\u043e\u0433 \u0432\u0430\u0441\u043f\u0438\u0442\u0430\u045a\u0430", "name:sr": "\u041c\u0443\u0437\u0435\u0458 \u0424\u0430\u043a\u0443\u043b\u0442\u0435\u0442\u0430 \u0441\u043f\u043e\u0440\u0442\u0430 \u0438 \u0444\u0438\u0437\u0438\u0447\u043a\u043e\u0433 \u0432\u0430\u0441\u043f\u0438\u0442\u0430\u045a\u0430", "name:sr-Latn": "Muzej Fakulteta sporta i fizi\u010dkog vaspitanja", "name:en": "Museum of Sport of Faculty of Sport and Physical E", "name:ru": "\u041c\u0443\u0437\u0435\u0439 \u0441\u043f\u043e\u0440\u0442\u0430", "name:zh": "\u8fd0\u52a8\u535a\u7269\u9986", "email": "muzej.sporta@fsfv.bg.ac.rs", "phone": "+381 3531 081; +381 065 9551 599", "website": "www.dif.bg.ac.rs/sr/vesti/muzej-sporta-i-olimpizma", "addr:street": "\u0411\u043b\u0430\u0433\u043e\u0458\u0430 \u041f\u0430\u0440\u043e\u0432\u0438\u045b\u0430", "addr:housenumber": "156", "ref:RS:uk": 22031}}, {"type": "Feature", "geometry": {"type": "Point", "coordinates": [22.52918, 44.22644]}, "properties": {"name": "\u041c\u0443\u0437\u0435\u0458 \u0425\u0430\u0458\u0434\u0443\u043a \u0412\u0435\u0459\u043a\u0430", "name:sr": "\u041c\u0443\u0437\u0435\u0458 \u0425\u0430\u0458\u0434\u0443\u043a \u0412\u0435\u0459\u043a\u0430", "name:sr-Latn": "Muzej Hajduk Veljka", "name:en": "The Museum of Hajduk Veljko", "name:ru": "\u041c\u0443\u0437\u0435\u0439 \u0413\u0430\u0439\u0434\u0443\u043a\u0430 \u0412\u0435\u043b\u044c\u043a\u043e", "name:zh": "\u54c8\u4f0a\u675c\u514b\u7ef4\u5229\u5361\u535a\u7269\u9986", "email": "konakng@gmail.com", "phone": "+381 544 949; +381 060 6668 969", "website": "www.muzejkrajine.org.rs", "addr:street": "\u0421\u0442\u0430\u043d\u043a\u0430 \u041f\u0430\u0443\u043d\u043e\u0432\u0438\u045b\u0430", "addr:housenumber": "17", "ref:RS:uk": 22716}}, {"type": "Feature", "geometry": {"type": "Point", "coordinates": [20.45587, 44.81861]}, "properties": {"name": "\u041c\u0443\u0437\u0435\u0458 \u0426\u0435\u043f\u0442\u0435\u0440", "name:sr": "\u041c\u0443\u0437\u0435\u0458 \u0426\u0435\u043f\u0442\u0435\u0440", "name:sr-Latn": "Muzej Cepter", "name:en": "Zepter Museum", "name:ru": "\u041c\u0443\u0437\u0435\u0439 \u0426\u0435\u043f\u0442\u0435\u0440", "name:zh": "\u7b56\u666e\u7279\u5c14\u535a\u7269\u9986", "email": "muzejzepter@zepter.rs", "phone": "+381 3283 339", "website": "www.zeptermuseum.rs", "addr:street": "\u041a\u043d\u0435\u0437\u0430 \u041c\u0438\u0445\u0430\u0438\u043b\u0430", "addr:housenumber": "42", "ref:RS:uk": 22026}}, {"type": "Feature", "geometry": {"type": "Point", "coordinates": [20.99936, 43.61979]}, "properties": {"name": "\u041c\u0443\u0437\u0435\u0458\u0441\u043a\u0430 \u0437\u0431\u0438\u0440\u043a\u0430 \u0422\u0440\u0441\u0442\u0435\u043d\u0438\u043a", "name:sr": "\u041c\u0443\u0437\u0435\u0458\u0441\u043a\u0430 \u0437\u0431\u0438\u0440\u043a\u0430 \u0422\u0440\u0441\u0442\u0435\u043d\u0438\u043a", "name:sr-Latn": "Muzejska zbirka Trstenik", "name:en": "Museum Collection at the National University of Trstenik", "name:ru": "\u041c\u0443\u0437\u0435\u0439\u043d\u0430\u044f \u043a\u043e\u043b\u043b\u0435\u043a\u0446\u0438\u044f \u0422\u0440\u0441\u0442\u0435\u043d\u0438\u043a", "name:zh": "\u7279\u5c14\u65af\u7279\u5c3c\u514b\u535a\u7269\u9986\u96c6", "email": "narodnits.muzej@gmail.com", "phone": "+381 203 488; +381 069 607 563", "website": "www.narodnits.rs", "addr:street": "\u041a\u045a\u0435\u0433\u0438\u045a\u0435 \u041c\u0438\u043b\u0438\u0446\u0435", "addr:housenumber": "16", "ref:RS:uk": 22495}}, {"type": "Feature", "geometry": {"type": "Point", "coordinates": [20.46327, 44.78509]}, "properties": {"name": "\u041c\u0443\u0437\u0435\u0458\u0441\u043a\u0430 \u0437\u0431\u0438\u0440\u043a\u0430 \u0424\u0443\u0434\u0431\u0430\u043b\u0441\u043a\u043e\u0433 \u043a\u043b\u0443\u0431\u0430 \u201e\u0426\u0440\u0432\u0435\u043d\u0430 \u0437\u0432\u0435\u0437\u0434\u0430\u201d \u0411\u0435\u043e\u0433\u0440\u0430\u0434", "name:sr": "\u041c\u0443\u0437\u0435\u0458\u0441\u043a\u0430 \u0437\u0431\u0438\u0440\u043a\u0430 \u0424\u0443\u0434\u0431\u0430\u043b\u0441\u043a\u043e\u0433 \u043a\u043b\u0443\u0431\u0430 \u201e\u0426\u0440\u0432\u0435\u043d\u0430 \u0437\u0432\u0435\u0437\u0434\u0430\u201d \u0411\u0435\u043e\u0433\u0440\u0430\u0434", "name:sr-Latn": "Muzejska zbirka Fudbalskog kluba \u201eCrvena zvezda\u201d Beograd", "name:en": "Crvena Zvezda FC Museum", "name:ru": "\u041c\u0443\u0437\u0435\u0439\u043d\u0430\u044f \u043a\u043e\u043b\u043b\u0435\u043a\u0446\u0438\u044f \u0424\u0443\u0442\u0431\u043e\u043b\u044c\u043d\u043e\u0433\u043e \u043a\u043b\u0443\u0431\u0430 \u201e\u041a\u0440\u0430\u0441\u043d\u0430\u044f \u0437\u0432\u0435\u0437\u0434\u0430\u201d \u0411\u0435\u043b\u0433\u0440\u0430\u0434", "name:zh": "\u8d1d\u5c14\u683c\u83b1\u5fb7\u7ea2\u661f\u8db3\u7403\u4ff1\u4e50\u90e8\u535a\u7269\u9986\u96c6", "email": "office@crvenazvezdafk.com", "phone": "+381 2067 773; +381 066 8011 006", "website": "www.crvenazvezdafk.com", "addr:street": "\u0409\u0443\u0442\u0438\u0446\u0435 \u0411\u043e\u0433\u0434\u0430\u043d\u0430", "addr:housenumber": "1\u0430", "ref:RS:uk": 22005}}, {"type": "Feature", "geometry": {"type": "Point", "coordinates": [19.7152, 43.7504]}, "properties": {"name": "\u041c\u0443\u0437\u0435\u0458\u0441\u043a\u0430 \u0437\u0431\u0438\u0440\u043a\u0430 \u0427\u0430\u0458\u0435\u0442\u0438\u043d\u0430", "name:sr": "\u041c\u0443\u0437\u0435\u0458\u0441\u043a\u0430 \u0437\u0431\u0438\u0440\u043a\u0430 \u0427\u0430\u0458\u0435\u0442\u0438\u043d\u0430", "name:sr-Latn": "Muzejska zbirka \u010cajetina", "name:en": "Museum Collection Cajetina", "name:ru": "\u041c\u0443\u0437\u0435\u0439\u043d\u0430\u044f \u043a\u043e\u043b\u043b\u0435\u043a\u0446\u0438\u044f \u0427\u0430\u0435\u0442\u0438\u043d\u0430", "name:zh": "\u67e5\u8036\u8482\u7eb3\u535a\u7269\u9986\u96c6", "email": "ljubisardjenic@mts.rs", "phone": "+381 3831 924; +381 313831 380", "website": "www.bibliotekacajetina.org.rs/zbirka", "addr:street": "\u0417\u043b\u0430\u0442\u0438\u0431\u043e\u0440\u0441\u043a\u0430", "addr:housenumber": "1", "ref:RS:uk": 22494}}, {"type": "Feature", "geometry": {"type": "Point", "coordinates": [19.26217, 45.50802]}, "properties": {"name": "\u041c\u0443\u0437\u0435\u0458\u0441\u043a\u0430 \u0458\u0435\u0434\u0438\u043d\u0438\u0446\u0430 \u041e\u045f\u0430\u0446\u0438", "name:sr": "\u041c\u0443\u0437\u0435\u0458\u0441\u043a\u0430 \u0458\u0435\u0434\u0438\u043d\u0438\u0446\u0430 \u041e\u045f\u0430\u0446\u0438", "name:sr-Latn": "Muzejska jedinica Od\u017eaci", "name:en": "Museum Unit Odzaci", "name:ru": "\u041c\u0443\u0437\u0435\u0439\u043d\u043e\u0435 \u043f\u043e\u0434\u0440\u0430\u0437\u0434\u0435\u043b\u0435\u043d\u0438\u0435 \u041e\u0434\u0436\u0430\u0446\u0438", "name:zh": "\u5965\u52a0\u8328\u535a\u7269\u9986\u5355\u5143", "email": "biljabiblioteka@gmail.com", "phone": "+381 5742 189", "website": "www.bibliotekamuzejodzaci.org.rs", "addr:street": "\u041a\u043d\u0435\u0437 \u041c\u0438\u0445\u0430\u0458\u043b\u043e\u0432\u0430", "addr:housenumber": "41", "ref:RS:uk": 22493}}, {"type": "Feature", "geometry": {"type": "Point", "coordinates": [19.58727, 45.40241]}, "properties": {"name": "\u041c\u0443\u0437\u0435\u0458\u0441\u043a\u0438 \u043a\u043e\u043c\u043f\u043b\u0435\u043a\u0441 \u041a\u0443\u043b\u043f\u0438\u043d - \u041f\u043e\u0459\u043e\u043f\u0440\u0438\u0432\u0440\u0435\u0434\u043d\u0438 \u043c\u0443\u0437\u0435\u0458", "name:sr": "\u041c\u0443\u0437\u0435\u0458\u0441\u043a\u0438 \u043a\u043e\u043c\u043f\u043b\u0435\u043a\u0441 \u041a\u0443\u043b\u043f\u0438\u043d - \u041f\u043e\u0459\u043e\u043f\u0440\u0438\u0432\u0440\u0435\u0434\u043d\u0438 \u043c\u0443\u0437\u0435\u0458", "name:sr-Latn": "Muzejski kompleks Kulpin - Poljoprivredni muzej", "name:en": "The museum of  Vojvodina", "name:ru": "\u041c\u0443\u0437\u0435\u0439\u043d\u044b\u0439 \u043a\u043e\u043c\u043f\u043b\u0435\u043a\u0441 \u041a\u0443\u043b\u043f\u0438\u043d - \u0421\u0435\u043b\u044c\u0441\u043a\u043e\u0445\u043e\u0437\u044f\u0439\u0441\u0442\u0432\u0435\u043d\u043d\u044b\u0439 \u043c\u0443\u0437\u0435\u0439", "name:zh": "\u041c\u0443\u0437\u0435\u0439\u043d\u044b\u0439 \u043a\u043e\u043c\u043f\u043b\u0435\u043a\u0441 \u041a\u0443\u043b\u043f\u0438\u043d - \u0421\u0435\u043b\u044c\u0441\u043a\u043e\u0445\u043e\u0437\u044f\u0439\u0441\u0442\u0432\u0435\u043d\u043d\u044b\u0439 \u043c\u0443\u0437\u0435\u0439", "email": "poljoprivredni.muzej@gmail.com", "phone": "+381 2286 716, 2286 456; +381 063 8753 189", "website": "www.muzejvojvodine.org.rs", "addr:street": "\u0422\u0440\u0433 \u043e\u0441\u043b\u043e\u0431\u043e\u0452\u0435\u045a\u0430", "addr:housenumber": "7", "ref:RS:uk": 22466}}, {"type": "Feature", "geometry": {"type": "Point", "coordinates": [20.58266, 44.33326]}, "properties": {"name": "\u041d\u0430\u0440\u043e\u0434\u043d\u0438 \u043c\u0443\u0437\u0435\u0458 - \u041c\u0430\u0440\u0438\u045b\u0435\u0432\u0438\u045b\u0430 \u0458\u0430\u0440\u0443\u0433\u0430 (\u041e\u0440\u0430\u0448\u0430\u0446)", "name:sr": "\u041d\u0430\u0440\u043e\u0434\u043d\u0438 \u043c\u0443\u0437\u0435\u0458 - \u041c\u0430\u0440\u0438\u045b\u0435\u0432\u0438\u045b\u0430 \u0458\u0430\u0440\u0443\u0433\u0430 (\u041e\u0440\u0430\u0448\u0430\u0446)", "name:sr-Latn": "Narodni muzej - Mari\u0107evi\u0107a jaruga (Ora\u0161ac)", "name:en": "National museum", "name:ru": "\u041d\u0430\u0440\u043e\u0434\u043d\u044b\u0439 \u043c\u0443\u0437\u0435\u0439 - \u041c\u0430\u0440\u0438\u0447\u0435\u0432\u0438\u0447\u0430-\u044f\u0440\u0443\u0433\u0430 (\u041e\u0440\u0430\u0448\u0430\u0446)", "name:zh": "\u739b\u5229\u5207\u7ef4\u5947\u5ce1\u8c37\uff08\u5965\u62c9\u6c99\u8328\uff09\u56fd\u5bb6\u535a\u7269\u9986", "email": "info@nmar.rs", "phone": "+381 712 415; +381 064 8669 230", "website": "www.nmar.rs", "addr:street": "\u041c\u0438\u0448\u0430\u0440\u0441\u043a\u0430", "addr:housenumber": "19", "ref:RS:uk": 25223}}, {"type": "Feature", "geometry": {"type": "Point", "coordinates": [20.54658, 44.3045]}, "properties": {"name": "\u041d\u0430\u0440\u043e\u0434\u043d\u0438 \u043c\u0443\u0437\u0435\u0458 - \u041e\u043a\u0443\u045b\u043d\u0438\u0446\u0430 \u0418\u043b\u0438\u0458\u0435 \u041c\u0438\u043b\u043e\u0448\u0435\u0432\u0438\u045b\u0430", "name:sr": "\u041d\u0430\u0440\u043e\u0434\u043d\u0438 \u043c\u0443\u0437\u0435\u0458 - \u041e\u043a\u0443\u045b\u043d\u0438\u0446\u0430 \u0418\u043b\u0438\u0458\u0435 \u041c\u0438\u043b\u043e\u0448\u0435\u0432\u0438\u045b\u0430", "name:sr-Latn": "Narodni muzej - Oku\u0107nica Ilije Milo\u0161evi\u0107a", "name:en": "National museum", "name:ru": "\u041d\u0430\u0440\u043e\u0434\u043d\u044b\u0439 \u043c\u0443\u0437\u0435\u0439 - \u0423\u0441\u0430\u0434\u044c\u0431\u0430 \u0418\u043b\u044c\u0438 \u041c\u0438\u043b\u043e\u0448\u0435\u0432\u0438\u0447\u0430", "name:zh": "\u4f0a\u5229\u4e9a\u00b7\u7c73\u6d1b\u820d\u7ef4\u5947\u5ead\u9662\u56fd\u5bb6\u535a\u7269\u9986", "email": " info@nmar.rs", "phone": "+381 712 415; +381 34702 415; +381 064 8669 230", "website": "www.nmar.rs", "addr:street": "\u041c\u0438\u0448\u0430\u0440\u0441\u043a\u0430", "addr:housenumber": "19", "ref:RS:uk": 22740}}, {"type": "Feature", "geometry": {"type": "Point", "coordinates": [20.58248, 44.30196]}, "properties": {"name": "\u041d\u0430\u0440\u043e\u0434\u043d\u0438 \u043c\u0443\u0437\u0435\u0458 - \u041f\u0435\u045b\u0438\u043d\u0430 \u201e\u0420\u0438\u0441\u043e\u0432\u0430\u0447\u0430\u201d", "name:sr": "\u041d\u0430\u0440\u043e\u0434\u043d\u0438 \u043c\u0443\u0437\u0435\u0458 - \u041f\u0435\u045b\u0438\u043d\u0430 \u201e\u0420\u0438\u0441\u043e\u0432\u0430\u0447\u0430\u201d", "name:sr-Latn": "Narodni muzej - Pe\u0107ina \u201eRisova\u010da\u201d", "name:en": "National museum - Risovaca Cave", "name:ru": "\u041d\u0430\u0440\u043e\u0434\u043d\u044b\u0439 \u043c\u0443\u0437\u0435\u0439 - \u041f\u0435\u0449\u0435\u0440\u0430 \u201e\u0420\u0438\u0441\u043e\u0432\u0430\u0447\u0430\u201d", "name:zh": "\u201c\u5229\u7d22\u74e6\u67e5\u201d\u6d1e\u7a74\u56fd\u5bb6\u535a\u7269\u9986", "email": "info@nmar.rs", "phone": "+381 712 415; +381 34702 415; +381 064 8669 230", "website": "www.nmar.rs", "addr:street": "\u041c\u0438\u0448\u0430\u0440\u0441\u043a\u0430", "addr:housenumber": "19", "ref:RS:uk": 22491}}, {"type": "Feature", "geometry": {"type": "Point", "coordinates": [20.54658, 44.3045]}, "properties": {"name": "\u041d\u0430\u0440\u043e\u0434\u043d\u0438 \u043c\u0443\u0437\u0435\u0458 \u0410\u0440\u0430\u043d\u0452\u0435\u043b\u043e\u0432\u0430\u0446", "name:sr": "\u041d\u0430\u0440\u043e\u0434\u043d\u0438 \u043c\u0443\u0437\u0435\u0458 \u0410\u0440\u0430\u043d\u0452\u0435\u043b\u043e\u0432\u0430\u0446", "name:sr-Latn": "Narodni muzej Aran\u0111elovac", "name:en": "National museum Arandjelovac", "name:ru": "\u041d\u0430\u0440\u043e\u0434\u043d\u044b\u0439 \u043c\u0443\u0437\u0435\u0439 \u0410\u0440\u0430\u043d\u0434\u0436\u0435\u043b\u043e\u0432\u0430\u0446", "name:zh": "\u963f\u5170\u6770\u6d1b\u74e6\u8328\u56fd\u5bb6\u535a\u7269\u9986", "email": "info@nmar.rs", "phone": "+381 712 415; +381 34702 415; +381 064 8669 230", "website": "www.nmar.rs", "addr:street": "\u041c\u0438\u0448\u0430\u0440\u0441\u043a\u0430", "addr:housenumber": "19", "ref:RS:uk": 21966}}, {"type": "Feature", "geometry": {"type": "Point", "coordinates": [21.4247, 44.90356]}, "properties": {"name": "\u041d\u0430\u0440\u043e\u0434\u043d\u0438 \u043c\u0443\u0437\u0435\u0458 \u0411\u0435\u043b\u0430 \u0426\u0440\u043a\u0432\u0430", "name:sr": "\u041d\u0430\u0440\u043e\u0434\u043d\u0438 \u043c\u0443\u0437\u0435\u0458 \u0411\u0435\u043b\u0430 \u0426\u0440\u043a\u0432\u0430", "name:sr-Latn": "Narodni muzej Bela Crkva", "name:en": "Museum in Bela Crkva", "name:ru": "\u041d\u0430\u0440\u043e\u0434\u043d\u044b\u0439 \u043c\u0443\u0437\u0435\u0439 \u0411\u0435\u043b\u0430-\u0426\u0440\u043a\u0432\u0430", "name:zh": "\u8d1d\u62c9\u7b56\u5c14\u514b\u74e6\u56fd\u5bb6\u535a\u7269\u9986", "email": "muzejbelacrkva@gmail.com", "phone": "+381 853 240; +381 060 7421 662", "website": "muzejbc.org.rs", "addr:street": "1. \u043e\u043a\u0442\u043e\u0431\u0430\u0440", "addr:housenumber": "38", "ref:RS:uk": 22478}}, {"type": "Feature", "geometry": {"type": "Point", "coordinates": [19.88566, 44.2692]}, "properties": {"name": "\u041d\u0430\u0440\u043e\u0434\u043d\u0438 \u043c\u0443\u0437\u0435\u0458 \u0412\u0430\u0459\u0435\u0432\u043e", "name:sr": "\u041d\u0430\u0440\u043e\u0434\u043d\u0438 \u043c\u0443\u0437\u0435\u0458 \u0412\u0430\u0459\u0435\u0432\u043e", "name:sr-Latn": "Narodni muzej Valjevo", "name:en": "National Museum of Valjevo", "name:ru": "\u041d\u0430\u0440\u043e\u0434\u043d\u044b\u0439 \u043c\u0443\u0437\u0435\u0439 \u0412\u0430\u043b\u0435\u0432\u043e - \u0423\u0447\u0440\u0435\u0436\u0434\u0435\u043d\u0438\u0435 \u043a\u0443\u043b\u044c\u0442\u0443\u0440\u044b \u043d\u0430\u0446\u0438\u043e\u043d\u0430\u043b\u044c\u043d\u043e\u0433\u043e \u0437\u043d\u0430\u0447\u0435\u043d\u0438\u044f", "name:zh": "\u56fd\u5bb6\u91cd\u8981\u6587\u5316\u673a\u6784\u74e6\u5217\u6c83\u56fd\u5bb6\u535a\u7269\u9986", "email": "narodnimuzejvaljevo@gmail.com", "phone": "+381 224 641", "website": "www.museum.org.rs", "addr:street": "\u0422\u0440\u0433 \u0412\u043e\u0458\u0432\u043e\u0434\u0435 \u041c\u0438\u0448\u0438\u045b\u0430", "addr:housenumber": "3", "ref:RS:uk": 21980}}, {"type": "Feature", "geometry": {"type": "Point", "coordinates": [21.51731, 44.76477]}, "properties": {"name": "\u041d\u0430\u0440\u043e\u0434\u043d\u0438 \u043c\u0443\u0437\u0435\u0458 \u0412\u0435\u043b\u0438\u043a\u043e \u0413\u0440\u0430\u0434\u0438\u0448\u0442\u0435", "name:sr": "\u041d\u0430\u0440\u043e\u0434\u043d\u0438 \u043c\u0443\u0437\u0435\u0458 \u0412\u0435\u043b\u0438\u043a\u043e \u0413\u0440\u0430\u0434\u0438\u0448\u0442\u0435", "name:sr-Latn": "Narodni muzej Veliko Gradi\u0161te", "name:en": "Veliko Gradiste National Museum", "name:ru": "\u041d\u0430\u0440\u043e\u0434\u043d\u044b\u0439 \u043c\u0443\u0437\u0435\u0439 \u0412\u0435\u043b\u0438\u043a\u043e-\u0413\u0440\u0430\u0434\u0438\u0448\u0442\u0435", "name:zh": "\u5927\u683c\u62c9\u8fea\u4ec0\u6cf0\u56fd\u5bb6\u535a\u7269\u9986", "email": "narodnimuzej.velikogradiste@gmail.com", "phone": "+381 663 202; +381 062 8074 839", "addr:street": "\u041a\u043d\u0435\u0437\u0430 \u041b\u0430\u0437\u0430\u0440\u0430", "addr:housenumber": "40", "ref:RS:uk": 23679}}, {"type": "Feature", "geometry": {"type": "Point", "coordinates": [21.89842, 42.55495]}, "properties": {"name": "\u041d\u0430\u0440\u043e\u0434\u043d\u0438 \u043c\u0443\u0437\u0435\u0458 \u0412\u0440\u0430\u045a\u0435", "name:sr": "\u041d\u0430\u0440\u043e\u0434\u043d\u0438 \u043c\u0443\u0437\u0435\u0458 \u0412\u0440\u0430\u045a\u0435", "name:sr-Latn": "Narodni muzej Vranje", "name:en": "National museum of Vranje", "name:ru": "\u041d\u0430\u0440\u043e\u0434\u043d\u044b\u0439 \u043c\u0443\u0437\u0435\u0439 \u0412\u0440\u0430\u043d\u0435", "name:zh": "\u5f17\u62c9\u6d85\u56fd\u5bb6\u535a\u7269\u9986", "email": "muzejvranje@gmail.com", "phone": "+381 423 875; +381 062 423 789", "website": "wwwmuzejvranje.rs", "addr:street": "\u041f\u0438\u043e\u043d\u0438\u0440\u0441\u043a\u0430", "addr:housenumber": "1", "ref:RS:uk": 21981}}, {"type": "Feature", "geometry": {"type": "Point", "coordinates": [22.27881, 43.90349]}, "properties": {"name": "\u041d\u0430\u0440\u043e\u0434\u043d\u0438 \u043c\u0443\u0437\u0435\u0458 \u0417\u0430\u0458\u0435\u0447\u0430\u0440", "name:sr": "\u041d\u0430\u0440\u043e\u0434\u043d\u0438 \u043c\u0443\u0437\u0435\u0458 \u0417\u0430\u0458\u0435\u0447\u0430\u0440", "name:sr-Latn": "Narodni muzej Zaje\u010dar", "name:en": "National Museum Zajecar", "name:ru": "\u041d\u0430\u0440\u043e\u0434\u043d\u044b\u0439 \u043c\u0443\u0437\u0435\u0439 \u0417\u0430\u0435\u0447\u0430\u0440", "name:zh": "\u624e\u8036\u67e5\u5c14\u56fd\u5bb6\u535a\u7269\u9986", "email": "muzejz19@mts.rs", "phone": "+381 422 930; +381 19440 838", "addr:street": "\u0414\u0440\u0430\u0433\u043e\u0441\u043b\u0430\u0432\u0430 \u0421\u0440\u0435\u0458\u043e\u0432\u0438\u045b\u0430", "addr:housenumber": "2", "ref:RS:uk": 21965}}, {"type": "Feature", "geometry": {"type": "Point", "coordinates": [20.38977, 45.37978]}, "properties": {"name": "\u041d\u0430\u0440\u043e\u0434\u043d\u0438 \u043c\u0443\u0437\u0435\u0458 \u0417\u0440\u0435\u045a\u0430\u043d\u0438\u043d", "name:sr": "\u041d\u0430\u0440\u043e\u0434\u043d\u0438 \u043c\u0443\u0437\u0435\u0458 \u0417\u0440\u0435\u045a\u0430\u043d\u0438\u043d", "name:sr-Latn": "Narodni muzej Zrenjanin", "name:en": "National Museum of Zrenjanin", "name:ru": "\u041d\u0430\u0440\u043e\u0434\u043d\u044b\u0439 \u043c\u0443\u0437\u0435\u0439 \u0417\u0440\u0435\u043d\u044f\u043d\u0438\u043d", "name:zh": "\u5179\u96f7\u5c3c\u4e9a\u5b81\u56fd\u5bb6\u535a\u7269\u9986", "email": "museumzr@mts.rs", "phone": "+381 561 841", "website": "www.muzejzrenjanin.org.rs", "addr:street": "\u0421\u0443\u0431\u043e\u0442\u0438\u045b\u0435\u0432\u0430", "addr:housenumber": "1", "ref:RS:uk": 21982}}, {"type": "Feature", "geometry": {"type": "Point", "coordinates": [20.46504, 45.83031]}, "properties": {"name": "\u041d\u0430\u0440\u043e\u0434\u043d\u0438 \u043c\u0443\u0437\u0435\u0458 \u041a\u0438\u043a\u0438\u043d\u0434\u0430", "name:sr": "\u041d\u0430\u0440\u043e\u0434\u043d\u0438 \u043c\u0443\u0437\u0435\u0458 \u041a\u0438\u043a\u0438\u043d\u0434\u0430", "name:sr-Latn": "Narodni muzej Kikinda", "name:en": "National Museum of Kikinda", "name:ru": "\u041d\u0430\u0440\u043e\u0434\u043d\u044b\u0439 \u043c\u0443\u0437\u0435\u0439 \u041a\u0438\u043a\u0438\u043d\u0434\u0430", "name:zh": "\u57fa\u91d1\u8fbe\u56fd\u5bb6\u535a\u7269\u9986", "email": "muzejkikinda@gmail.com", "phone": "+381 421 239; +381 23422 500; +381 064 8968 126", "website": "www.muzejkikinda.org.rs", "addr:street": "\u0422\u0440\u0433 \u0421\u0440\u043f\u0441\u043a\u0438\u0445 \u0434\u043e\u0431\u0440\u043e\u0432\u043e\u0459\u0430\u0446\u0430", "addr:housenumber": "21", "ref:RS:uk": 21968}}, {"type": "Feature", "geometry": {"type": "Point", "coordinates": [20.91165, 44.00933]}, "properties": {"name": "\u041d\u0430\u0440\u043e\u0434\u043d\u0438 \u043c\u0443\u0437\u0435\u0458 \u041a\u0440\u0430\u0433\u0443\u0458\u0435\u0432\u0430\u0446", "name:sr": "\u041d\u0430\u0440\u043e\u0434\u043d\u0438 \u043c\u0443\u0437\u0435\u0458 \u041a\u0440\u0430\u0433\u0443\u0458\u0435\u0432\u0430\u0446", "name:sr-Latn": "Narodni muzej Kragujevac", "name:en": "The national museum Kragujevac", "name:ru": "\u041d\u0430\u0440\u043e\u0434\u043d\u044b\u0439 \u043c\u0443\u0437\u0435\u0439 \u041a\u0440\u0430\u0433\u0443\u0435\u0432\u0430\u0446", "name:zh": "\u514b\u62c9\u53e4\u8036\u74e6\u8328\u56fd\u5bb6\u535a\u7269\u9986", "email": "muzejkg@gmail.com", "phone": "+381 333 302; +381 34333 312; +381 34331 782; +381 064 8708 034", "website": "www.muzej.org.rs", "addr:street": "\u0412\u0443\u043a\u0430 \u041a\u0430\u0440\u0430\u045f\u0438\u045b\u0430", "addr:housenumber": "1", "ref:RS:uk": 21969}}, {"type": "Feature", "geometry": {"type": "Point", "coordinates": [20.68365, 43.72532]}, "properties": {"name": "\u041d\u0430\u0440\u043e\u0434\u043d\u0438 \u043c\u0443\u0437\u0435\u0458 \u041a\u0440\u0430\u0459\u0435\u0432\u043e", "name:sr": "\u041d\u0430\u0440\u043e\u0434\u043d\u0438 \u043c\u0443\u0437\u0435\u0458 \u041a\u0440\u0430\u0459\u0435\u0432\u043e", "name:sr-Latn": "Narodni muzej Kraljevo", "name:en": "National Museum of Kraljevo", "name:ru": "\u041d\u0430\u0440\u043e\u0434\u043d\u044b\u0439 \u043c\u0443\u0437\u0435\u0439 \u041a\u0440\u0430\u043b\u0435\u0432\u043e", "name:zh": "\u514b\u62c9\u5217\u6c83\u56fd\u5bb6\u535a\u7269\u9986", "email": "office@nmkv.rs", "phone": "+381 315 350", "website": "www.nmkv.rs", "addr:street": "\u0422\u0440\u0433 \u0421\u0432\u0435\u0442\u043e\u0433\u0430 \u0421\u0430\u0432\u0435", "addr:housenumber": "2", "ref:RS:uk": 21970}}, {"type": "Feature", "geometry": {"type": "Point", "coordinates": [21.32155, 43.58353]}, "properties": {"name": "\u041d\u0430\u0440\u043e\u0434\u043d\u0438 \u043c\u0443\u0437\u0435\u0458 \u041a\u0440\u0443\u0448\u0435\u0432\u0430\u0446", "name:sr": "\u041d\u0430\u0440\u043e\u0434\u043d\u0438 \u043c\u0443\u0437\u0435\u0458 \u041a\u0440\u0443\u0448\u0435\u0432\u0430\u0446", "name:sr-Latn": "Narodni muzej Kru\u0161evac", "name:en": "National Museum Krusevac", "name:ru": "\u041d\u0430\u0440\u043e\u0434\u043d\u044b\u0439 \u043c\u0443\u0437\u0435\u0439 \u041a\u0440\u0443\u0448\u0435\u0432\u0430\u0446", "name:zh": "\u514b\u9c81\u820d\u74e6\u8328\u56fd\u5bb6\u535a\u7269\u9986", "email": "nmuzejks@gmail.com", "phone": "+381 418 540; +381 065 3015 825", "addr:street": "\u0422\u0440\u0433 \u0434\u0435\u0441\u043f\u043e\u0442\u0430 \u0421\u0442\u0435\u0444\u0430\u043d\u0430", "addr:housenumber": "15", "ref:RS:uk": 21971}}, {"type": "Feature", "geometry": {"type": "Point", "coordinates": [21.94641, 42.99423]}, "properties": {"name": "\u041d\u0430\u0440\u043e\u0434\u043d\u0438 \u043c\u0443\u0437\u0435\u0458 \u041b\u0435\u0441\u043a\u043e\u0432\u0430\u0446", "name:sr": "\u041d\u0430\u0440\u043e\u0434\u043d\u0438 \u043c\u0443\u0437\u0435\u0458 \u041b\u0435\u0441\u043a\u043e\u0432\u0430\u0446", "name:sr-Latn": "Narodni muzej Leskovac", "name:en": "National Museum of Leskovac", "name:ru": "\u041d\u0430\u0440\u043e\u0434\u043d\u044b\u0439 \u043c\u0443\u0437\u0435\u0439 \u041b\u0435\u0441\u043a\u043e\u0432\u0430\u0446", "name:zh": "\u83b1\u65af\u79d1\u74e6\u8328\u56fd\u5bb6\u535a\u7269\u9986", "email": "nmleskovac@gmail.com", "phone": "+381 212975", "website": "wwwmuzejleskovac.rs", "addr:street": "\u0421\u0442\u043e\u0458\u0430\u043d\u0430 \u0409\u0443\u0431\u0438\u045b\u0430", "addr:housenumber": "2", "ref:RS:uk": 21972}}, {"type": "Feature", "geometry": {"type": "Point", "coordinates": [21.89331, 43.31842]}, "properties": {"name": "\u041d\u0430\u0440\u043e\u0434\u043d\u0438 \u043c\u0443\u0437\u0435\u0458 \u041d\u0438\u0448", "name:sr": "\u041d\u0430\u0440\u043e\u0434\u043d\u0438 \u043c\u0443\u0437\u0435\u0458 \u041d\u0438\u0448", "name:sr-Latn": "Narodni muzej Ni\u0161", "name:en": "The National Museum Nis", "name:ru": "\u041d\u0430\u0440\u043e\u0434\u043d\u044b\u0439 \u043c\u0443\u0437\u0435\u0439 \u041d\u0438\u0448", "name:zh": "\u5c3c\u4ec0\u56fd\u5bb6\u535a\u7269\u9986", "email": "muzejnis@mts.rs", "phone": "+381 513 430; +381 18248 189; +381 069 2408 018", "website": "wwwnarodnimuzejnis.rs", "addr:street": "\u0413\u0435\u043d\u0435\u0440\u0430\u043b\u0430 \u041c\u0438\u043b\u043e\u0458\u043a\u0430 \u041b\u0435\u0448\u0458\u0430\u043d\u0438\u043d\u0430", "addr:housenumber": "14", "ref:RS:uk": 21973}}, {"type": "Feature", "geometry": {"type": "Point", "coordinates": [20.64027, 44.87146]}, "properties": {"name": "\u041d\u0430\u0440\u043e\u0434\u043d\u0438 \u043c\u0443\u0437\u0435\u0458 \u041f\u0430\u043d\u0447\u0435\u0432\u043e", "name:sr": "\u041d\u0430\u0440\u043e\u0434\u043d\u0438 \u043c\u0443\u0437\u0435\u0458 \u041f\u0430\u043d\u0447\u0435\u0432\u043e", "name:sr-Latn": "Narodni muzej Pan\u010devo", "name:en": "National Museum of Pancevo", "name:ru": "\u041d\u0430\u0440\u043e\u0434\u043d\u044b\u0439 \u043c\u0443\u0437\u0435\u0439 \u041f\u0430\u043d\u0447\u0435\u0432\u043e", "name:zh": "\u6f58\u5207\u6c83\u56fd\u5bb6\u535a\u7269\u9986", "email": "info@muzejpancevo.rs", "phone": "+381 342 666; +381 13346 471; +381 064 866 2481", "website": "www.muzejpancevo.rs", "addr:street": "\u0422\u0440\u0433 \u041a\u0440\u0430\u0459\u0430 \u041f\u0435\u0442\u0440\u0430 I", "addr:housenumber": "7", "ref:RS:uk": 21974}}, {"type": "Feature", "geometry": {"type": "Point", "coordinates": [21.1868, 44.62183]}, "properties": {"name": "\u041d\u0430\u0440\u043e\u0434\u043d\u0438 \u043c\u0443\u0437\u0435\u0458 \u041f\u043e\u0436\u0430\u0440\u0435\u0432\u0430\u0446", "name:sr": "\u041d\u0430\u0440\u043e\u0434\u043d\u0438 \u043c\u0443\u0437\u0435\u0458 \u041f\u043e\u0436\u0430\u0440\u0435\u0432\u0430\u0446", "name:sr-Latn": "Narodni muzej Po\u017earevac", "name:en": "National Museum of Pozarevac", "name:ru": "\u041d\u0430\u0440\u043e\u0434\u043d\u044b\u0439 \u043c\u0443\u0437\u0435\u0439 \u041f\u043e\u0436\u0430\u0440\u0435\u0432\u0430\u0446", "name:zh": "\u6ce2\u624e\u83b1\u74e6\u8328\u56fd\u5bb6\u535a\u7269\u9986", "email": "mail@muzejpozarevac.rs", "phone": "+381  220 794; +381 063 363 770", "website": "www.muzejpozarevac.org.rs", "addr:street": "\u0414\u0440 \u0412\u043e\u0458\u0435 \u0414\u0443\u043b\u0438\u045b\u0430", "addr:housenumber": "10", "ref:RS:uk": 22020}}, {"type": "Feature", "geometry": {"type": "Point", "coordinates": [21.58992, 43.23576]}, "properties": {"name": "\u041d\u0430\u0440\u043e\u0434\u043d\u0438 \u043c\u0443\u0437\u0435\u0458 \u0422\u043e\u043f\u043b\u0438\u0446\u0435 - \u041f\u0440\u043e\u043a\u0443\u043f\u0459\u0435", "name:sr": "\u041d\u0430\u0440\u043e\u0434\u043d\u0438 \u043c\u0443\u0437\u0435\u0458 \u0422\u043e\u043f\u043b\u0438\u0446\u0435 - \u041f\u0440\u043e\u043a\u0443\u043f\u0459\u0435", "name:sr-Latn": "Narodni muzej Toplice - Prokuplje", "name:en": "National Museum of Toplica", "name:ru": "\u041d\u0430\u0440\u043e\u0434\u043d\u044b\u0439 \u043c\u0443\u0437\u0435\u0439 \u0422\u043e\u043f\u043b\u0438\u0446\u0435 - \u041f\u0440\u043e\u043a\u0443\u043f\u043b\u0435", "name:zh": "\u666e\u7f57\u5e93\u666e\u5217\u6258\u666e\u91cc\u7b56\u56fd\u5bb6\u535a\u7269\u9986", "email": "muzejtoplice@gmail.com", "phone": "+381 321 694; +381 18322 151; +381 063 310 154", "website": "www.muzejtoplice.org.rs", "addr:street": "\u0420\u0430\u0442\u043a\u0430 \u041f\u0430\u0432\u043b\u043e\u0432\u0438\u045b\u0430", "addr:housenumber": "31", "ref:RS:uk": 21977}}, {"type": "Feature", "geometry": {"type": "Point", "coordinates": [20.45991, 44.81669]}, "properties": {"name": "\u041d\u0430\u0440\u043e\u0434\u043d\u0438 \u043c\u0443\u0437\u0435\u0458 \u0443 \u0411\u0435\u043e\u0433\u0440\u0430\u0434\u0443", "name:sr": "\u041d\u0430\u0440\u043e\u0434\u043d\u0438 \u043c\u0443\u0437\u0435\u0458 \u0443 \u0411\u0435\u043e\u0433\u0440\u0430\u0434\u0443", "name:sr-Latn": "Narodni muzej u Beogradu", "name:en": "National Museum in Belgrade", "name:ru": "\u041d\u0430\u0440\u043e\u0434\u043d\u044b\u0439 \u043c\u0443\u0437\u0435\u0439 \u0432 \u0411\u0435\u043b\u0433\u0440\u0430\u0434\u0435", "name:zh": "\u8d1d\u5c14\u683c\u83b1\u5fb7\u56fd\u5bb6\u535a\u7269\u9986", "email": "kontakt@narodnimuzej.rs", "phone": "+381 3306 000", "website": "www.narodnimuzej.rs", "addr:street": "\u0422\u0440\u0433 \u0420\u0435\u043f\u0443\u0431\u043b\u0438\u043a\u0435", "addr:housenumber": "1\u0430", "ref:RS:uk": 21978}}, {"type": "Feature", "geometry": {"type": "Point", "coordinates": [20.95647, 44.36625]}, "properties": {"name": "\u041d\u0430\u0440\u043e\u0434\u043d\u0438 \u043c\u0443\u0437\u0435\u0458 \u0443 \u0421\u043c\u0435\u0434\u0435\u0440\u0435\u0432\u0441\u043a\u043e\u0458 \u041f\u0430\u043b\u0430\u043d\u0446\u0438", "name:sr": "\u041d\u0430\u0440\u043e\u0434\u043d\u0438 \u043c\u0443\u0437\u0435\u0458 \u0443 \u0421\u043c\u0435\u0434\u0435\u0440\u0435\u0432\u0441\u043a\u043e\u0458 \u041f\u0430\u043b\u0430\u043d\u0446\u0438", "name:sr-Latn": "Narodni muzej u Smederevskoj Palanci", "name:en": "National museum in Smederevska Palanka", "name:ru": "\u041d\u0430\u0440\u043e\u0434\u043d\u044b\u0439 \u043c\u0443\u0437\u0435\u0439 \u0432 \u0421\u043c\u0435\u0434\u0435\u0440\u0435\u0432\u0441\u043a\u0430-\u041f\u0430\u043b\u0430\u043d\u043a\u0435", "name:zh": "\u65af\u6885\u4ee3\u96f7\u6c83\u5e15\u5170\u5361\u56fd\u5bb6\u535a\u7269\u9986", "email": "info@nmsp.rs", "phone": "+381 318 239; +381 11314 399", "website": "www.nmsp.rs", "addr:street": "\u0422\u0440\u0433 \u0445\u0435\u0440\u043e\u0458\u0430", "addr:housenumber": "5", "ref:RS:uk": 21976}}, {"type": "Feature", "geometry": {"type": "Point", "coordinates": [19.84657, 43.85395]}, "properties": {"name": "\u041d\u0430\u0440\u043e\u0434\u043d\u0438 \u043c\u0443\u0437\u0435\u0458 \u0423\u0436\u0438\u0446\u0435", "name:sr": "\u041d\u0430\u0440\u043e\u0434\u043d\u0438 \u043c\u0443\u0437\u0435\u0458 \u0423\u0436\u0438\u0446\u0435", "name:sr-Latn": "Narodni muzej U\u017eice", "name:en": "Uzice's National Museum", "name:ru": "\u041d\u0430\u0440\u043e\u0434\u043d\u044b\u0439 \u043c\u0443\u0437\u0435\u0439 \u0423\u0436\u0438\u0446\u0435", "name:zh": "\u4e4c\u65e5\u7b56\u56fd\u5bb6\u535a\u7269\u9986", "email": "nmuzejuzice@ptt.rs", "phone": "+381 521 360; +381 31510 084; +381 31520 657", "website": "www.muzejpancevo.rs", "addr:street": "\u0414\u0438\u043c\u0438\u0442\u0440\u0438\u0458\u0430 \u0422\u0443\u0446\u043e\u0432\u0438\u045b\u0430", "addr:housenumber": "18", "ref:RS:uk": 21979}}, {"type": "Feature", "geometry": {"type": "Point", "coordinates": [20.34851, 43.89344]}, "properties": {"name": "\u041d\u0430\u0440\u043e\u0434\u043d\u0438 \u043c\u0443\u0437\u0435\u0458 \u0427\u0430\u0447\u0430\u043a", "name:sr": "\u041d\u0430\u0440\u043e\u0434\u043d\u0438 \u043c\u0443\u0437\u0435\u0458 \u0427\u0430\u0447\u0430\u043a", "name:sr-Latn": "Narodni muzej \u010ca\u010dak", "name:en": "National Museum Cacak", "name:ru": "National Museum Cacak", "name:zh": "\u67e5\u67e5\u514b\u56fd\u5bb6\u535a\u7269\u9986", "email": "muzejcacak@gmail.com", "phone": "+381 222 169; +381 32349 317; +381 065 2222 169", "website": "www.cacakmuzej.org.rs", "addr:street": "\u0426\u0430\u0440\u0430 \u0414\u0443\u0448\u0430\u043d\u0430", "addr:housenumber": "1", "ref:RS:uk": 21967}}, {"type": "Feature", "geometry": {"type": "Point", "coordinates": [19.69261, 44.75528]}, "properties": {"name": "\u041d\u0430\u0440\u043e\u0434\u043d\u0438 \u043c\u0443\u0437\u0435\u0458 \u0428\u0430\u0431\u0430\u0446", "name:sr": "\u041d\u0430\u0440\u043e\u0434\u043d\u0438 \u043c\u0443\u0437\u0435\u0458 \u0428\u0430\u0431\u0430\u0446", "name:sr-Latn": "Narodni muzej \u0160abac", "name:en": "National Museum Sabac", "name:ru": "\u041d\u0430\u0440\u043e\u0434\u043d\u044b\u0439 \u043c\u0443\u0437\u0435\u0439 \u0428\u0430\u0431\u0430\u0446", "name:zh": "\u6c99\u5df4\u8328\u56fd\u5bb6\u535a\u7269\u9986", "email": "muzejsabac@ptt.rs", "phone": "+381 350 287", "addr:street": "\u041c\u0430\u0441\u0430\u0440\u0438\u043a\u043e\u0432\u0430", "addr:housenumber": "13", "ref:RS:uk": 21975}}, {"type": "Feature", "geometry": {"type": "Point", "coordinates": [20.4546, 44.821]}, "properties": {"name": "\u041f\u0435\u0434\u0430\u0433\u043e\u0448\u043a\u0438 \u043c\u0443\u0437\u0435\u0458 \u0411\u0435\u043e\u0433\u0440\u0430\u0434", "name:sr": "\u041f\u0435\u0434\u0430\u0433\u043e\u0448\u043a\u0438 \u043c\u0443\u0437\u0435\u0458 \u0411\u0435\u043e\u0433\u0440\u0430\u0434", "name:sr-Latn": "Pedago\u0161ki muzej Beograd", "name:en": "Museum of Pedagogy", "name:ru": "\u041f\u0435\u0434\u0430\u0433\u043e\u0433\u0438\u0447\u0435\u0441\u043a\u0438\u0439 \u043c\u0443\u0437\u0435\u0439 \u0411\u0435\u043b\u0433\u0440\u0430\u0434", "name:zh": "\u8d1d\u5c14\u683c\u83b1\u5fb7\u6559\u80b2\u535a\u7269\u9986", "email": "office@pedagoskimuzej.org.rs", "phone": "+381 2627 538; +381 065 2275 075", "website": "www.pedagoskimuzej.org.rs", "addr:street": "\u0423\u0437\u0443\u043d \u041c\u0438\u0440\u043a\u043e\u0432\u0430", "addr:housenumber": "14", "ref:RS:uk": 21983}}, {"type": "Feature", "geometry": {"type": "Point", "coordinates": [19.84429, 45.25394]}, "properties": {"name": "\u041f\u043e\u0437\u043e\u0440\u0438\u0448\u043d\u0438 \u043c\u0443\u0437\u0435\u0458 \u0412\u043e\u0458\u0432\u043e\u0434\u0438\u043d\u0435 ", "name:sr": "\u041f\u043e\u0437\u043e\u0440\u0438\u0448\u043d\u0438 \u043c\u0443\u0437\u0435\u0458 \u0412\u043e\u0458\u0432\u043e\u0434\u0438\u043d\u0435 ", "name:sr-Latn": "Pozori\u0161ni muzej Vojvodine ", "name:en": "Theatre museum of Vojvodina", "name:ru": "\u0422\u0435\u0430\u0442\u0440\u0430\u043b\u044c\u043d\u044b\u0439 \u043c\u0443\u0437\u0435\u0439 \u0412\u043e\u0435\u0432\u043e\u0434\u0438\u043d\u044b \u041d\u043e\u0432\u0438-\u0421\u0430\u0434", "name:zh": "\u8bfa\u7ef4\u8428\u5fb7\u4f0f\u4f0a\u4f0f\u4e01\u90a3\u5267\u9662\u535a\u7269\u9986", "email": "info@pmv.org.rs", "phone": "+381 6613 322; +381 063 1804 681", "website": "www.pmv.org.rs", "addr:street": "\u041a\u0440\u0430\u0459\u0430 \u0410\u043b\u0435\u043a\u0441\u0430\u043d\u0434\u0440\u0430", "addr:housenumber": "5", "ref:RS:uk": 21984}}, {"type": "Feature", "geometry": {"type": "Point", "coordinates": [20.47118, 44.80248]}, "properties": {"name": "\u041f\u0440\u0438\u0440\u043e\u0434\u045a\u0430\u0447\u043a\u0438 \u043c\u0443\u0437\u0435\u0458 \u0411\u0435\u043e\u0433\u0440\u0430\u0434", "name:sr": "\u041f\u0440\u0438\u0440\u043e\u0434\u045a\u0430\u0447\u043a\u0438 \u043c\u0443\u0437\u0435\u0458 \u0411\u0435\u043e\u0433\u0440\u0430\u0434", "name:sr-Latn": "Prirodnja\u010dki muzej Beograd", "name:en": "Natural History Museum, Belgrade", "name:ru": "\u0415\u0441\u0442\u0435\u0441\u0442\u0432\u043e\u0432\u0435\u0434\u0447\u0435\u0441\u043a\u0438\u0439 \u043c\u0443\u0437\u0435\u0439 \u0411\u0435\u043b\u0433\u0440\u0430\u0434", "name:zh": "\u8d1d\u5c14\u683c\u83b1\u5fb7\u81ea\u7136\u535a\u7269\u9986", "email": "nhmbeo@nhmbeo.rs", "phone": "+381 3442 265; +381 113442 149; +381 113442 147", "website": "www.nhmbeo.rs", "addr:street": "\u040a\u0435\u0433\u043e\u0448\u0435\u0432\u0430", "addr:housenumber": "51", "ref:RS:uk": 21985}}, {"type": "Feature", "geometry": {"type": "Point", "coordinates": [22.53016, 44.22577]}, "properties": {"name": "\u0420\u043e\u0434\u043d\u0430 \u043a\u0443\u045b\u0430 \u0421\u0442\u0435\u0432\u0430\u043d\u0430 \u041c\u043e\u043a\u0440\u0430\u045a\u0446\u0430", "name:sr": "\u0420\u043e\u0434\u043d\u0430 \u043a\u0443\u045b\u0430 \u0421\u0442\u0435\u0432\u0430\u043d\u0430 \u041c\u043e\u043a\u0440\u0430\u045a\u0446\u0430", "name:sr-Latn": "Rodna ku\u0107a Stevana Mokranjca", "name:en": "The birth house of Stevan Mokranjac", "name:ru": "\u0420\u043e\u0434\u043d\u043e\u0439 \u0434\u043e\u043c \u0421\u0442\u0435\u0432\u0430\u043d\u0430 \u041c\u043e\u043a\u0440\u0430\u043d\u044f\u0446\u0430", "name:zh": "\u201c\u65af\u7279\u51e1\u00b7\u83ab\u514b\u62c9\u5c3c\u4e9a\u8328\u201d\u51fa\u751f\u5730\u6545\u5c45", "email": "muzejnegotin@gmail.com", "phone": "+381 543 341; +381 19545 072; +381 061 6614391", "website": "www.muzejkrajine.org.rs", "addr:street": "\u0414\u043e\u0441\u0438\u0442\u0435\u0458\u0435\u0432\u0430", "addr:housenumber": "1\u0431", "ref:RS:uk": 22715}}, {"type": "Feature", "geometry": {"type": "Point", "coordinates": [19.6687, 46.10151]}, "properties": {"name": "\u0421\u0430\u0432\u0440\u0435\u043c\u0435\u043d\u0430 \u0433\u0430\u043b\u0435\u0440\u0438\u0458\u0430 \u0421\u0443\u0431\u043e\u0442\u0438\u0446\u0430", "name:sr": "\u0421\u0430\u0432\u0440\u0435\u043c\u0435\u043d\u0430 \u0433\u0430\u043b\u0435\u0440\u0438\u0458\u0430 \u0421\u0443\u0431\u043e\u0442\u0438\u0446\u0430", "name:sr-Latn": "Savremena galerija Subotica", "name:en": "Contemporary Art Gallery Subotica", "name:ru": "\u0421\u043e\u0432\u0440\u0435\u043c\u0435\u043d\u043d\u0430\u044f \u0433\u0430\u043b\u0435\u0440\u0435\u044f \u0421\u0443\u0431\u043e\u0442\u0438\u0446\u0430", "name:zh": "\u82cf\u535a\u8482\u5bdf\u73b0\u4ee3\u5c55\u89c8\u9986", "email": "sekretar.sgsu@gmail.com", "phone": "+381 553 725; +381 24552 651; +381 065 9553 725", "website": "www.sgsu.org.rs", "addr:street": "\u041f\u0430\u0440\u043a \u0424\u0435\u0440\u0435\u043d\u0446\u0430 \u0420\u0430\u0458\u0445\u043b\u0430", "addr:housenumber": "5", "ref:RS:uk": 22000}}, {"type": "Feature", "geometry": {"type": "Point", "coordinates": [20.45288, 44.81943]}, "properties": {"name": "\u0421\u0430\u043b\u043e\u043d \u041c\u0443\u0437\u0435\u0458\u0430 \u0441\u0430\u0432\u0440\u0435\u043c\u0435\u043d\u0435 \u0443\u043c\u0435\u0442\u043d\u043e\u0441\u0442\u0438", "name:sr": "\u0421\u0430\u043b\u043e\u043d \u041c\u0443\u0437\u0435\u0458\u0430 \u0441\u0430\u0432\u0440\u0435\u043c\u0435\u043d\u0435 \u0443\u043c\u0435\u0442\u043d\u043e\u0441\u0442\u0438", "name:sr-Latn": "Salon Muzeja savremene umetnosti", "name:en": "The Salon of the Museum of Contemporary Art", "name:ru": "\u0421\u0430\u043b\u043e\u043d \u041c\u0443\u0437\u0435\u0439 \u0441\u043e\u0432\u0440\u0435\u043c\u0435\u043d\u043d\u043e\u0433\u043e \u0438\u0441\u043a\u0443\u0441\u0441\u0442\u0432\u0430", "name:zh": "\u73b0\u4ee3\u827a\u672f\u535a\u7269\u9986\u6c99\u9f99", "email": "msub@msub.org.rs", "phone": "+381 2630 940", "website": "www.msub.org.rs", "addr:street": "\u041f\u0430\u0440\u0438\u0441\u043a\u0430 14", "addr:housenumber": "", "ref:RS:uk": 25266}}, {"type": "Feature", "geometry": {"type": "Point", "coordinates": [19.52815, 44.55453]}, "properties": {"name": "\u0421\u043f\u043e\u043c\u0435\u043d \u043a\u043e\u043c\u043f\u043b\u0435\u043a\u0441 \u0426\u0435\u0440\u0441\u043a\u0430 \u0431\u0438\u0442\u043a\u0430 \u0422\u0435\u043a\u0435\u0440\u0438\u0448", "name:sr": "\u0421\u043f\u043e\u043c\u0435\u043d \u043a\u043e\u043c\u043f\u043b\u0435\u043a\u0441 \u0426\u0435\u0440\u0441\u043a\u0430 \u0431\u0438\u0442\u043a\u0430 \u0422\u0435\u043a\u0435\u0440\u0438\u0448", "name:sr-Latn": "Spomen kompleks Cerska bitka Tekeri\u0161", "name:en": "Cultural Center \"Vuk Karad\u017eic\" Loznica", "name:ru": "\u041c\u0435\u043c\u043e\u0440\u0438\u0430\u043b\u044c\u043d\u044b\u0439 \u043a\u043e\u043c\u043f\u043b\u0435\u043a\u0441 \u0426\u0435\u0440\u0441\u043a\u0430\u044f \u0431\u0438\u0442\u0432\u0430 \u0422\u0435\u043a\u0435\u0440\u0438\u0448", "name:zh": "\u7279\u79d1\u5229\u4ec0\u7b56\u5c14\u6218\u5f79\u7eaa\u5ff5\u5efa\u7b51\u7fa4", "email": "centarkultureloznica@gmail.com", "phone": "+381 850 077", "website": "www.ckvkaradzic.org.rs", "addr:street": "\u0422\u0435\u043a\u0435\u0440\u0438\u0448", "addr:housenumber": "", "ref:RS:uk": 22022}}, {"type": "Feature", "geometry": {"type": "Point", "coordinates": [21.95605, 42.99212]}, "properties": {"name": "\u0421\u043f\u043e\u043c\u0435\u043d \u043a\u0443\u045b\u0430 \u041a\u043e\u0441\u0442\u0435 \u0421\u0442\u0430\u043c\u0435\u043d\u043a\u043e\u0432\u0438\u045b\u0430", "name:sr": "\u0421\u043f\u043e\u043c\u0435\u043d \u043a\u0443\u045b\u0430 \u041a\u043e\u0441\u0442\u0435 \u0421\u0442\u0430\u043c\u0435\u043d\u043a\u043e\u0432\u0438\u045b\u0430", "name:sr-Latn": "Spomen ku\u0107a Koste Stamenkovi\u0107a", "name:en": "The Memorial house of Kosta Stamenkovic", "name:ru": "\u0414\u043e\u043c-\u043c\u0443\u0437\u0435\u0439 \u041a\u043e\u0441\u0442\u044b \u0421\u0442\u0430\u043c\u0435\u043d\u043a\u043e\u0432\u0438\u0447\u0430", "name:zh": "\u79d1\u65af\u5854\u00b7\u65af\u5854\u95e8\u79d1\u7ef4\u5947\u7eaa\u5ff5\u6545\u5c45", "email": "nmleskovac@gmail.com", "phone": "+381 212975", "website": "www.muzejleskovac.rs", "addr:street": "\u0422\u043e\u043f\u043b\u0438\u0447\u043a\u043e\u0433 \u0443\u0441\u0442\u0430\u043d\u043a\u0430", "addr:housenumber": "25", "ref:RS:uk": 22734}}, {"type": "Feature", "geometry": {"type": "Point", "coordinates": [20.46389, 44.80959]}, "properties": {"name": "\u0421\u043f\u043e\u043c\u0435\u043d \u043c\u0443\u0437\u0435\u0458 \u0418\u0432\u0435 \u0410\u043d\u0434\u0440\u0438\u045b\u0430", "name:sr": "\u0421\u043f\u043e\u043c\u0435\u043d \u043c\u0443\u0437\u0435\u0458 \u0418\u0432\u0435 \u0410\u043d\u0434\u0440\u0438\u045b\u0430", "name:sr-Latn": "Spomen muzej Ive Andri\u0107a", "name:en": "Museum of Ivo Andri\u0107", "name:ru": "\u0414\u043e\u043c-\u043c\u0443\u0437\u0435\u0439 \u0418\u0432\u043e \u0410\u043d\u0434\u0440\u0438\u0447\u0430", "name:zh": "\u4f0a\u4e07\u5b89\u5fb7\u91cc\u5947\u7eaa\u5ff5\u535a\u7269\u9986", "email": "office@mgb.org.rs", "phone": "+381 3238 397", "website": "www.mgb.org.rs", "addr:street": "\u0410\u043d\u0434\u0440\u0438\u045b\u0435\u0432 \u0432\u0435\u043d\u0430\u0446", "addr:housenumber": "8/I", "ref:RS:uk": 22496}}, {"type": "Feature", "geometry": {"type": "Point", "coordinates": [19.8449, 45.25229]}, "properties": {"name": "\u0421\u043f\u043e\u043c\u0435\u043d-\u0437\u0431\u0438\u0440\u043a\u0430 \u041f\u0430\u0432\u043b\u0430 \u0411\u0435\u0459\u0430\u043d\u0441\u043a\u043e\u0433, \u041d\u043e\u0432\u0438 \u0421\u0430\u0434", "name:sr": "\u0421\u043f\u043e\u043c\u0435\u043d-\u0437\u0431\u0438\u0440\u043a\u0430 \u041f\u0430\u0432\u043b\u0430 \u0411\u0435\u0459\u0430\u043d\u0441\u043a\u043e\u0433, \u041d\u043e\u0432\u0438 \u0421\u0430\u0434", "name:sr-Latn": "Spomen-zbirka Pavla Beljanskog, Novi Sad", "name:en": "The Pavle Beljanski Memorial Collection, Novi Sad", "name:ru": "\u041c\u0435\u043c\u043e\u0440\u0438\u0430\u043b\u044c\u043d\u0430\u044f \u043a\u043e\u043b\u043b\u0435\u043a\u0446\u0438\u044f \u041f\u0430\u0432\u043b\u0430 \u0411\u0435\u043b\u044f\u043d\u0441\u043a\u043e\u0433\u043e \u041d\u043e\u0432\u0438-\u0421\u0430\u0434", "name:zh": "\u8bfa\u7ef4\u8428\u5fb7\u5e15\u7ef4\u5c14\u00b7\u8d1d\u5229\u626c\u79d1\u65af\u57fa\u7eaa\u5ff5\u6536\u85cf\u96c6", "email": "kontakt@beljanskimuseum.rs", "phone": "+381 528 185; +381 214729 966; +381 069 528 1855", "website": "www.beljanskimuseum.rs", "addr:street": "\u0422\u0440\u0433 \u0433\u0430\u043b\u0435\u0440\u0438\u0458\u0430", "addr:housenumber": "2", "ref:RS:uk": 21987}}, {"type": "Feature", "geometry": {"type": "Point", "coordinates": [19.96365, 44.91517]}, "properties": {"name": "\u0421\u0440\u043f\u0441\u043a\u0438 \u043c\u0443\u0437\u0435\u0458 \u0445\u043b\u0435\u0431\u0430 - J\u0435\u0440\u0435\u043c\u0438\u0458\u0430", "name:sr": "\u0421\u0440\u043f\u0441\u043a\u0438 \u043c\u0443\u0437\u0435\u0458 \u0445\u043b\u0435\u0431\u0430 - J\u0435\u0440\u0435\u043c\u0438\u0458\u0430", "name:sr-Latn": "Srpski muzej hleba - Jeremija", "name:en": "Serbian Museum of Bread- Jeremija", "name:ru": "\u0421\u0435\u0440\u0431\u0441\u043a\u0438\u0439 \u043c\u0443\u0437\u0435\u0439 \u0445\u043b\u0435\u0431\u0430 - \u0415\u0440\u0435\u043c\u0438\u044f", "name:zh": "\u8036\u83b1\u7c73\u4e9a\u585e\u5c14\u7ef4\u4e9a\u9762\u5305\u535a\u7269\u9986", "email": "info@muzejhleba.rs", "phone": "+381 2436 141; +381 062 209 593", "website": "www.muzejhleba.rs", "addr:street": "\u0411\u0440\u0430\u045b\u0435 \u0412\u0438\u0434\u0430\u043a\u043e\u0432\u0438\u045b", "addr:housenumber": "83", "ref:RS:uk": 21999}}, {"type": "Feature", "geometry": {"type": "Point", "coordinates": [20.34852, 43.89398]}, "properties": {"name": "\u0423\u043c\u0435\u0442\u043d\u0438\u0447\u043a\u0430 \u0433\u0430\u043b\u0435\u0440\u0438\u0458\u0430 \u201e\u041d\u0430\u0434\u0435\u0436\u0434\u0430 \u041f\u0435\u0442\u0440\u043e\u0432\u0438\u045b\u201d \u0427\u0430\u0447\u0430\u043a", "name:sr": "\u0423\u043c\u0435\u0442\u043d\u0438\u0447\u043a\u0430 \u0433\u0430\u043b\u0435\u0440\u0438\u0458\u0430 \u201e\u041d\u0430\u0434\u0435\u0436\u0434\u0430 \u041f\u0435\u0442\u0440\u043e\u0432\u0438\u045b\u201d \u0427\u0430\u0447\u0430\u043a", "name:sr-Latn": "Umetni\u010dka galerija \u201eNade\u017eda Petrovi\u0107\u201d \u010ca\u010dak", "name:en": "Umetni\u010dka galerija \u201eNade\u017eda Petrovi\u0107\u201d \u010ca\u010dak", "name:ru": "\u0425\u0443\u0434\u043e\u0436\u0435\u0441\u0442\u0432\u0435\u043d\u043d\u0430\u044f \u0433\u0430\u043b\u0435\u0440\u0435\u044f \u201e\u041d\u0430\u0434\u0435\u0436\u0434\u0430 \u041f\u0435\u0442\u0440\u043e\u0432\u0438\u0447\u201d \u0427\u0430\u0447\u0430\u043a, \u0423\u0447\u0440\u0435\u0436\u0434\u0435\u043d\u0438\u0435 \u043a\u0443\u043b\u044c\u0442\u0443\u0440\u044b \u043d\u0430\u0446\u0438\u043e\u043d\u0430\u043b\u044c\u043d\u043e\u0433\u043e \u0437\u043d\u0430\u0447\u0435\u043d\u0438\u044f", "name:zh": "\u56fd\u5bb6\u91cd\u8981\u6587\u5316\u673a\u6784\u67e5\u67e5\u514b\u201c\u7eb3\u5fb7\u65e5\u8fbe\u00b7\u5f7c\u5f97\u6d1b\u7ef4\u5947\u201d\u827a\u672f\u5c55\u89c8\u9986", "email": "galerija@nadezdapetrovic.rs", "phone": "+381 322 375; +381 32325 015; +381 060 0222 379", "website": "www.nadezdapetrovic.rs", "addr:street": "\u0426\u0430\u0440\u0430 \u0414\u0443\u0448\u0430\u043d\u0430", "addr:housenumber": "6", "ref:RS:uk": 21988}}, {"type": "Feature", "geometry": {"type": "Point", "coordinates": [21.18679, 44.62237]}, "properties": {"name": "\u0424\u043e\u043d\u0434\u0430\u0446\u0438\u0458\u0430 \u041c\u0438\u043b\u0435\u043d\u0438\u043d \u0434\u043e\u043c-\u0413\u0430\u043b\u0435\u0440\u0438\u0458\u0430 \u041c\u0438\u043b\u0435\u043d\u0435 \u041f\u0430\u0432\u043b\u043e\u0432\u0438\u045b \u0411\u0430\u0440\u0438\u043b\u0438", "name:sr": "\u0424\u043e\u043d\u0434\u0430\u0446\u0438\u0458\u0430 \u041c\u0438\u043b\u0435\u043d\u0438\u043d \u0434\u043e\u043c-\u0413\u0430\u043b\u0435\u0440\u0438\u0458\u0430 \u041c\u0438\u043b\u0435\u043d\u0435 \u041f\u0430\u0432\u043b\u043e\u0432\u0438\u045b \u0411\u0430\u0440\u0438\u043b\u0438", "name:sr-Latn": "Fondacija Milenin dom-Galerija Milene Pavlovi\u0107 Barili", "name:en": "Gallery of Milena Pavlovic - Barili", "name:ru": "\u0424\u043e\u043d\u0434 \u041c\u0438\u043b\u0435\u043d\u0438\u043d \u0434\u043e\u043c-\u0413\u0430\u043b\u0435\u0440\u0435\u044f \u041c\u0438\u043b\u0435\u043d\u044b \u041f\u0430\u0432\u043b\u043e\u0432\u0438\u0447 \u0411\u0430\u0440\u0438\u043b\u0438", "name:zh": "\u7c73\u5170\u5a1c\u4e4b\u5bb6\u57fa\u91d1\u4f1a\u7c73\u5170\u5a1c\u00b7\u5e15\u5f17\u7f57\u7ef4\u5947\u00b7\u5df4\u5229\u5229\u5c55\u89c8\u9986", "email": "info@galerijamilenepavlovicbarilli.rs", "phone": "+381 524 173; +381 064 8975 796", "website": "www.fondacijamilenindom.com", "addr:street": "\u0434\u0440 \u0412\u043e\u0458\u0435 \u0414\u0443\u043b\u0438\u045b\u0430", "addr:housenumber": "14", "ref:RS:uk": 21928}}]}